{
"type": "FeatureCollection",
"name": "geo_44_特別支援学校",
"crs": { "type": "name", "properties": { "name": "urn:ogc:def:crs:EPSG::6668" } },
"features": [
{ "type": "Feature", "properties": { "P29_001": "44201", "P29_002": "E144110000012", "P29_003": "16012", "P29_004": "大分大学教育学部附属特別支援学校", "P29_005": "大分県大分市王子新町1-1", "P29_006": "1", "P29_007": "0", "P29_008": "00", "P29_009": null }, "geometry": { "type": "Point", "coordinates": [ 131.590918957683243, 33.238528287082239 ] } },
{ "type": "Feature", "properties": { "P29_001": "44201", "P29_002": "E144210000010", "P29_003": "16012", "P29_004": "大分県立盲学校", "P29_005": "大分県大分市金池町3-1-75", "P29_006": "2", "P29_007": "0", "P29_008": "00", "P29_009": null }, "geometry": { "type": "Point", "coordinates": [ 131.613941810331056, 33.233192965735121 ] } },
{ "type": "Feature", "properties": { "P29_001": "44201", "P29_002": "E144210000029", "P29_003": "16012", "P29_004": "大分県立聾学校", "P29_005": "大分県大分市金池町3-1-60", "P29_006": "2", "P29_007": "0", "P29_008": "00", "P29_009": null }, "geometry": { "type": "Point", "coordinates": [ 131.612811541440067, 33.232748123052865 ] } },
{ "type": "Feature", "properties": { "P29_001": "44201", "P29_002": "E144210000038", "P29_003": "16012", "P29_004": "大分県立新生支援学校", "P29_005": "大分県大分市大字玉沢980-1", "P29_006": "2", "P29_007": "0", "P29_008": "00", "P29_009": null }, "geometry": { "type": "Point", "coordinates": [ 131.58474527079656, 33.192775089735406 ] } },
{ "type": "Feature", "properties": { "P29_001": "44202", "P29_002": "E144210000047", "P29_003": "16012", "P29_004": "大分県立別府支援学校", "P29_005": "大分県別府市別府市鶴見4224", "P29_006": "2", "P29_007": "0", "P29_008": "00", "P29_009": null }, "geometry": { "type": "Point", "coordinates": [ 131.479882299595062, 33.294754031016474 ] } },
{ "type": "Feature", "properties": { "P29_001": "44202", "P29_002": "E144210000056", "P29_003": "16012", "P29_004": "大分県立南石垣支援学校", "P29_005": "大分県別府市石垣西1-2-5", "P29_006": "2", "P29_007": "0", "P29_008": "00", "P29_009": null }, "geometry": { "type": "Point", "coordinates": [ 131.494216136216636, 33.289988755625814 ] } },
{ "type": "Feature", "properties": { "P29_001": "44206", "P29_002": "E144210000065", "P29_003": "16012", "P29_004": "大分県立臼杵支援学校", "P29_005": "大分県臼杵市大字井村911", "P29_006": "2", "P29_007": "0", "P29_008": "00", "P29_009": null }, "geometry": { "type": "Point", "coordinates": [ 131.777317085900535, 33.142318688085638 ] } },
{ "type": "Feature", "properties": { "P29_001": "44204", "P29_002": "E144210000074", "P29_003": "16012", "P29_004": "大分県立日田支援学校", "P29_005": "大分県日田市大字西有田2941-1", "P29_006": "2", "P29_007": "0", "P29_008": "00", "P29_009": null }, "geometry": { "type": "Point", "coordinates": [ 130.961187364841976, 33.336442768038637 ] } },
{ "type": "Feature", "properties": { "P29_001": "44208", "P29_002": "E144210000083", "P29_003": "16012", "P29_004": "大分県立竹田支援学校", "P29_005": "大分県竹田市大字君ヶ園1170", "P29_006": "2", "P29_007": "0", "P29_008": "00", "P29_009": null }, "geometry": { "type": "Point", "coordinates": [ 131.371009308423822, 32.950112804115186 ] } },
{ "type": "Feature", "properties": { "P29_001": "44341", "P29_002": "E144210000092", "P29_003": "16012", "P29_004": "大分県立日出支援学校", "P29_005": "大分県速見郡日出町大字大神1618-1", "P29_006": "2", "P29_007": "0", "P29_008": "00", "P29_009": null }, "geometry": { "type": "Point", "coordinates": [ 131.575556997970637, 33.382326998681428 ] } },
{ "type": "Feature", "properties": { "P29_001": "44213", "P29_002": "E144210000109", "P29_003": "16012", "P29_004": "大分県立由布支援学校", "P29_005": "大分県由布市庄内町西長宝1796", "P29_006": "2", "P29_007": "0", "P29_008": "00", "P29_009": null }, "geometry": { "type": "Point", "coordinates": [ 131.449279349717926, 33.187705265298199 ] } },
{ "type": "Feature", "properties": { "P29_001": "44211", "P29_002": "E144210000118", "P29_003": "16012", "P29_004": "大分県立宇佐支援学校", "P29_005": "大分県宇佐市大字猿渡1137-19", "P29_006": "2", "P29_007": "0", "P29_008": "00", "P29_009": null }, "geometry": { "type": "Point", "coordinates": [ 131.302838789799694, 33.540631377930787 ] } },
{ "type": "Feature", "properties": { "P29_001": "44205", "P29_002": "E144210000127", "P29_003": "16012", "P29_004": "大分県立佐伯支援学校", "P29_005": "大分県佐伯市大字木立839-5", "P29_006": "2", "P29_007": "0", "P29_008": "00", "P29_009": null }, "geometry": { "type": "Point", "coordinates": [ 131.927222208861167, 32.924261952868711 ] } },
{ "type": "Feature", "properties": { "P29_001": "44201", "P29_002": "E144210000136", "P29_003": "16012", "P29_004": "大分県立大分支援学校", "P29_005": "大分県大分市大字志村763-1", "P29_006": "2", "P29_007": "0", "P29_008": "00", "P29_009": null }, "geometry": { "type": "Point", "coordinates": [ 131.706294902948827, 33.240689127603908 ] } },
{ "type": "Feature", "properties": { "P29_001": "44202", "P29_002": "E144210000145", "P29_003": "16012", "P29_004": "大分県立別府支援学校鶴見校", "P29_005": "大分県別府市鶴見4075-12", "P29_006": "2", "P29_007": "0", "P29_008": "00", "P29_009": null }, "geometry": { "type": "Point", "coordinates": [ 131.477928808232804, 33.294580086983018 ] } },
{ "type": "Feature", "properties": { "P29_001": "44202", "P29_002": "E144210000154", "P29_003": "16012", "P29_004": "大分県立別府支援学校石垣原校", "P29_005": "大分県別府市鶴見4050-293", "P29_006": "2", "P29_007": "0", "P29_008": "00", "P29_009": null }, "geometry": { "type": "Point", "coordinates": [ 131.475119054346152, 33.294729089735526 ] } },
{ "type": "Feature", "properties": { "P29_001": "44203", "P29_002": "E144210000163", "P29_003": "16012", "P29_004": "大分県立中津支援学校", "P29_005": "大分県中津市大塚1", "P29_006": "2", "P29_007": "0", "P29_008": "00", "P29_009": null }, "geometry": { "type": "Point", "coordinates": [ 131.196186993319316, 33.605329953768752 ] } },
{ "type": "Feature", "properties": { "P29_001": "44201", "P29_002": "E144210000172", "P29_003": "16012", "P29_004": "大分県立さくらの杜高等支援学校", "P29_005": "大分県大分市東大道2-5-23", "P29_006": "2", "P29_007": "0", "P29_008": "00", "P29_009": null }, "geometry": { "type": "Point", "coordinates": [ 131.601456085985632, 33.227932733598614 ] } }
]
}
