{
"type": "FeatureCollection",
"name": "geo_44_認知症対応型通所介護",
"crs": { "type": "name", "properties": { "name": "urn:ogc:def:crs:OGC:1.3:CRS84" } },
"features": [
{ "type": "Feature", "properties": { "内容": "デイサービスセンターひなたや【認知症対応型通所介護】大分県大分市大字田尻字高尾783-1天領ガーデンふれあい館", "url": "https://www.kaigokensaku.mhlw.go.jp/44/index.php?action_kouhyou_detail_004_kani=true&JigyosyoCd=4490100106-00&ServiceCd=720&Type=search", "url2": "hinataya@san-ai-kai.or.jp" }, "geometry": { "type": "Point", "coordinates": [ 131.592574199999945, 33.1882258 ] } },
{ "type": "Feature", "properties": { "内容": "湯屋すくすく・いきいき館ふじ【認知症対応型通所介護】大分県大分市大字横瀬1050番地", "url": "https://www.kaigokensaku.mhlw.go.jp/44/index.php?action_kouhyou_detail_004_kani=true&JigyosyoCd=4490100262-00&ServiceCd=720&Type=search", "url2": "https://sukuiki.jp/index.html" }, "geometry": { "type": "Point", "coordinates": [ 131.54191179999998, 33.1868182 ] } },
{ "type": "Feature", "properties": { "内容": "ﾃﾞｲｻｰﾋﾞｽ碧(みどり)【認知症対応型通所介護】大分県大分市大字下判田2349番地の1", "url": "https://www.kaigokensaku.mhlw.go.jp/44/index.php?action_kouhyou_detail_004_kani=true&JigyosyoCd=4490100130-00&ServiceCd=720&Type=search", "url2": "http://yamashita/chobi.net/" }, "geometry": { "type": "Point", "coordinates": [ 131.642784600000027, 33.1637443 ] } },
{ "type": "Feature", "properties": { "内容": "認知症対応型デイサービス　佐尉郷の驛【認知症対応型通所介護】大分県大分市大在中央2丁目8番11号", "url": "https://www.kaigokensaku.mhlw.go.jp/44/index.php?action_kouhyou_detail_004_kani=true&JigyosyoCd=4490100031-00&ServiceCd=720&Type=search", "url2": null }, "geometry": { "type": "Point", "coordinates": [ 131.723756500000036, 33.2444357 ] } },
{ "type": "Feature", "properties": { "内容": "庄の原苑デイサービスセンター【認知症対応型通所介護】大分県大分市大字荏隈字庄ノ原1798番地", "url": "https://www.kaigokensaku.mhlw.go.jp/44/index.php?action_kouhyou_detail_004_kani=true&JigyosyoCd=4470101074-00&ServiceCd=720&Type=search", "url2": null }, "geometry": { "type": "Point", "coordinates": [ 131.572868200000016, 33.2217954 ] } },
{ "type": "Feature", "properties": { "内容": "緑風苑デイサービスセンターＥ型【認知症対応型通所介護】大分県大分市下郡山の手２番17号", "url": "https://www.kaigokensaku.mhlw.go.jp/44/index.php?action_kouhyou_detail_004_kani=true&JigyosyoCd=4470100936-00&ServiceCd=720&Type=search", "url2": "http://syouzankai.jp/ryokufu-en/publics/index/27/" }, "geometry": { "type": "Point", "coordinates": [ 131.638686014584437, 33.221410998808715 ] } },
{ "type": "Feature", "properties": { "内容": "玉光苑デイサービスセンター【認知症対応型通所介護】大字市459番地", "url": "https://www.kaigokensaku.mhlw.go.jp/44/index.php?action_kouhyou_detail_004_kani=true&JigyosyoCd=4470100720-00&ServiceCd=720&Type=search", "url2": "http://www.gyokkouen.com" }, "geometry": { "type": "Point", "coordinates": [ 131.57048450000002, 33.1885858 ] } },
{ "type": "Feature", "properties": { "内容": "デイサービスつかがわ笑【認知症対応型通所介護】大分県大分市東春日町５番２５号", "url": "https://www.kaigokensaku.mhlw.go.jp/44/index.php?action_kouhyou_detail_004_kani=true&JigyosyoCd=4490100221-00&ServiceCd=720&Type=search", "url2": "ｈｔｔｐ：／／ｗｗｗ．ｏｃｔ－ｎｅｔ．ｎｅ．ｊｐ／＾ｈａｋｋｏｋａｉ／" }, "geometry": { "type": "Point", "coordinates": [ 131.600009300000011, 33.240288 ] } },
{ "type": "Feature", "properties": { "内容": "医療法人　福寿会　デイサービスゆとり村賀来【認知症対応型通所介護】大分市賀来西1丁目3番13号", "url": "https://www.kaigokensaku.mhlw.go.jp/44/index.php?action_kouhyou_detail_004_kani=true&JigyosyoCd=4490100486-00&ServiceCd=720&Type=search", "url2": "http://www.fukujyukai.net" }, "geometry": { "type": "Point", "coordinates": [ 131.562328452778587, 33.213831496787151 ] } },
{ "type": "Feature", "properties": { "内容": "そうりんデイサービスゆとり【認知症対応型通所介護】大分県大分市大字森577番地の1", "url": "https://www.kaigokensaku.mhlw.go.jp/44/index.php?action_kouhyou_detail_004_kani=true&JigyosyoCd=4490100692-00&ServiceCd=720&Type=search", "url2": "http:www.fukujyukai.net" }, "geometry": { "type": "Point", "coordinates": [ 131.680844500000035, 33.220293 ] } },
{ "type": "Feature", "properties": { "内容": "デイサービスセンターひなたや【認知症対応型通所介護】大分市大字田尻字高尾783-1", "url": "https://www.kaigokensaku.mhlw.go.jp/44/index.php?action_kouhyou_detail_004_kani=true&JigyosyoCd=4490100627-00&ServiceCd=720&Type=search", "url2": "http://san-ai-kai.or.jp" }, "geometry": { "type": "Point", "coordinates": [ 131.597531200000049, 33.1846635 ] } },
{ "type": "Feature", "properties": { "内容": "紅葉苑デイサービスセンター絆【認知症対応型通所介護】大分県大分市大字羽田字菖蒲田７３-６", "url": "https://www.kaigokensaku.mhlw.go.jp/44/index.php?action_kouhyou_detail_004_kani=true&JigyosyoCd=4490100338-00&ServiceCd=720&Type=search", "url2": "http://syozankai.com/" }, "geometry": { "type": "Point", "coordinates": [ 131.6310982, 33.2200272 ] } },
{ "type": "Feature", "properties": { "内容": "和泉デイサービスセンターE型【認知症対応型通所介護】大分県大分市大字竹矢1006-1", "url": "https://www.kaigokensaku.mhlw.go.jp/44/index.php?action_kouhyou_detail_004_kani=true&JigyosyoCd=4472300294-00&ServiceCd=720&Type=search", "url2": "http://izumisou.com/" }, "geometry": { "type": "Point", "coordinates": [ 131.507813199999987, 33.154896 ] } },
{ "type": "Feature", "properties": { "内容": "脳トレセンター川添清流苑【認知症対応型通所介護】大分県大分市大字種具字南谷１４４番地", "url": "https://www.kaigokensaku.mhlw.go.jp/44/index.php?action_kouhyou_detail_004_kani=true&JigyosyoCd=4490100023-00&ServiceCd=720&Type=search", "url2": "https://seiryu-kyousei.org/" }, "geometry": { "type": "Point", "coordinates": [ 131.699128699532736, 33.206454946467318 ] } },
{ "type": "Feature", "properties": { "内容": "脳トレセンター明治清流苑【認知症対応型通所介護】大分県大分市大字猪野729番地１", "url": "https://www.kaigokensaku.mhlw.go.jp/44/index.php?action_kouhyou_detail_004_kani=true&JigyosyoCd=4490100478-00&ServiceCd=720&Type=search", "url2": "http://www.seiryu-kyousei.org" }, "geometry": { "type": "Point", "coordinates": [ 131.668845199999964, 33.23228 ] } },
{ "type": "Feature", "properties": { "内容": "デイサービスつかがわ　遊【認知症対応型通所介護】大分県大分市東春日町５－２５", "url": "https://www.kaigokensaku.mhlw.go.jp/44/index.php?action_kouhyou_detail_004_kani=true&JigyosyoCd=4470103781-00&ServiceCd=720&Type=search", "url2": "http://www.oct-net.ne.jp/^hakkokai/" }, "geometry": { "type": "Point", "coordinates": [ 131.600009300000011, 33.240288 ] } },
{ "type": "Feature", "properties": { "内容": "泰生の里デイサービスセンター「ルプリーズ別府」【認知症対応型通所介護】大分県別府市大字鶴見字中山田1068番地の１", "url": "https://www.kaigokensaku.mhlw.go.jp/44/index.php?action_kouhyou_detail_004_kani=true&JigyosyoCd=4470200454-00&ServiceCd=720&Type=search", "url2": "http://www.wellb.or.jp/" }, "geometry": { "type": "Point", "coordinates": [ 131.4808481, 33.301798500000018 ] } },
{ "type": "Feature", "properties": { "内容": "デイサービスはぴね別府【認知症対応型通所介護】大分県別府市天満町2-17はぴね別府", "url": "https://www.kaigokensaku.mhlw.go.jp/44/index.php?action_kouhyou_detail_004_kani=true&JigyosyoCd=4490200146-00&ServiceCd=720&Type=search", "url2": "http://www.greenlife-inc.co.jp" }, "geometry": { "type": "Point", "coordinates": [ 131.494180300000039, 33.28457 ] } },
{ "type": "Feature", "properties": { "内容": "いずみの園デイサービスセンターふれあい館【認知症対応型通所介護】大分県中津市永添2744", "url": "https://www.kaigokensaku.mhlw.go.jp/44/index.php?action_kouhyou_detail_004_kani=true&JigyosyoCd=4490300219-00&ServiceCd=720&Type=search", "url2": "http://www.izuminosono.jp/" }, "geometry": { "type": "Point", "coordinates": [ 131.199180100000035, 33.5615614 ] } },
{ "type": "Feature", "properties": { "内容": "オレンジデイサービス　たいじゅの家【認知症対応型通所介護】大分県中津市大字上宮永347番地3", "url": "https://www.kaigokensaku.mhlw.go.jp/44/index.php?action_kouhyou_detail_004_kani=true&JigyosyoCd=4490300284-00&ServiceCd=720&Type=search", "url2": "taijyu.net" }, "geometry": { "type": "Point", "coordinates": [ 131.1852093, 33.5854131 ] } },
{ "type": "Feature", "properties": { "内容": "認知症対応型デイサービスグリーンヴィレッジフラワー館【認知症対応型通所介護】大分県中津市大字犬丸763-1", "url": "https://www.kaigokensaku.mhlw.go.jp/44/index.php?action_kouhyou_detail_004_kani=true&JigyosyoCd=4490300300-00&ServiceCd=720&Type=search", "url2": "https://www.gvnakatsu.com" }, "geometry": { "type": "Point", "coordinates": [ 131.2557937, 33.5648399 ] } },
{ "type": "Feature", "properties": { "内容": "なんくる家【認知症対応型通所介護】大分県中津市大字是則１２４６番地７", "url": "https://www.kaigokensaku.mhlw.go.jp/44/index.php?action_kouhyou_detail_004_kani=true&JigyosyoCd=4490300052-00&ServiceCd=720&Type=search", "url2": "http://josui-hoikuen.net/" }, "geometry": { "type": "Point", "coordinates": [ 131.2422113, 33.5864604 ] } },
{ "type": "Feature", "properties": { "内容": "リハビリ特化型デイサービス咲【認知症対応型通所介護】大分県日田市大字田島７４５番地１３", "url": "https://www.kaigokensaku.mhlw.go.jp/44/index.php?action_kouhyou_detail_004_kani=true&JigyosyoCd=4490400225-00&ServiceCd=720&Type=search", "url2": "https://www.nanairo-official.com" }, "geometry": { "type": "Point", "coordinates": [ 130.9469058, 33.3151023 ] } },
{ "type": "Feature", "properties": { "内容": "さくらデイサービス日田【認知症対応型通所介護】大分県日田市有田町小金田455-1さくらデイサービス日田", "url": "https://www.kaigokensaku.mhlw.go.jp/44/index.php?action_kouhyou_detail_004_kani=true&JigyosyoCd=4470400617-00&ServiceCd=720&Type=search", "url2": "http://ｗｗｗ.seihoukai.or.jp" }, "geometry": { "type": "Point", "coordinates": [ 130.962282862147504, 33.334361121511648 ] } },
{ "type": "Feature", "properties": { "内容": "デイサービスセンターなかのしま【認知症対応型通所介護】大分県日田市大字庄手字大釣685-50", "url": "https://www.kaigokensaku.mhlw.go.jp/44/index.php?action_kouhyou_detail_004_kani=true&JigyosyoCd=4470400211-00&ServiceCd=720&Type=search", "url2": "http：//www.suimei.or.jp" }, "geometry": { "type": "Point", "coordinates": [ 130.91719210767701, 33.312350560458995 ] } },
{ "type": "Feature", "properties": { "内容": "おおつるの家デイサービスセンター【認知症対応型通所介護】大分県日田市大鶴町2267-2", "url": "https://www.kaigokensaku.mhlw.go.jp/44/index.php?action_kouhyou_detail_004_kani=true&JigyosyoCd=4490400076-00&ServiceCd=720&Type=search", "url2": null }, "geometry": { "type": "Point", "coordinates": [ 130.88052442236787, 33.360272588440701 ] } },
{ "type": "Feature", "properties": { "内容": "特定非営利活動法人　津江の会　デイサービスまごの家【認知症対応型通所介護】大分県日田市中津江村栃野5333番地1", "url": "https://www.kaigokensaku.mhlw.go.jp/44/index.php?action_kouhyou_detail_004_kani=true&JigyosyoCd=4490400126-00&ServiceCd=720&Type=search", "url2": null }, "geometry": { "type": "Point", "coordinates": [ 130.980357199999986, 33.153265900000015 ] } },
{ "type": "Feature", "properties": { "内容": "デイサービスホームこもれび【認知症対応型通所介護】清岸寺町1034番地1", "url": "https://www.kaigokensaku.mhlw.go.jp/44/index.php?action_kouhyou_detail_004_kani=true&JigyosyoCd=4490400043-00&ServiceCd=720&Type=search", "url2": null }, "geometry": { "type": "Point", "coordinates": [ 132.449686199999974, 34.3899811 ] } },
{ "type": "Feature", "properties": { "内容": "デイサービスセンター愛情苑Ｅ型【認知症対応型通所介護】大分県佐伯市字女島6945番1", "url": "https://www.kaigokensaku.mhlw.go.jp/44/index.php?action_kouhyou_detail_004_kani=true&JigyosyoCd=4470500218-00&ServiceCd=720&Type=search", "url2": "http://r.goopejp/choyokai" }, "geometry": { "type": "Point", "coordinates": [ 131.908521400000041, 32.9540203 ] } },
{ "type": "Feature", "properties": { "内容": "佐伯市老人デイサービスセンターＥ型「水明園」【認知症対応型通所介護】大分県佐伯市向島1丁目3番8号佐伯市保険福祉総合センター　和楽内", "url": "https://www.kaigokensaku.mhlw.go.jp/44/index.php?action_kouhyou_detail_004_kani=true&JigyosyoCd=4490500172-00&ServiceCd=720&Type=search", "url2": "https://www.nagato.or.jp" }, "geometry": { "type": "Point", "coordinates": [ 131.900157600000057, 32.9586506 ] } },
{ "type": "Feature", "properties": { "内容": "花みずき指定通所介護事業所【認知症対応型通所介護】大分県佐伯市大字池田1699番地の7", "url": "https://www.kaigokensaku.mhlw.go.jp/44/index.php?action_kouhyou_detail_004_kani=true&JigyosyoCd=4470500176-00&ServiceCd=720&Type=search", "url2": "http://www.nagato.or.jp" }, "geometry": { "type": "Point", "coordinates": [ 131.89628330000005, 32.9459492 ] } },
{ "type": "Feature", "properties": { "内容": "やまぼうし指定通所介護事業所【認知症対応型通所介護】大分県佐伯市大字池田字山ノ田１６８９番地１", "url": "https://www.kaigokensaku.mhlw.go.jp/44/index.php?action_kouhyou_detail_004_kani=true&JigyosyoCd=4490500073-00&ServiceCd=720&Type=search", "url2": "http://www.nagato.or.jp" }, "geometry": { "type": "Point", "coordinates": [ 131.886303600000019, 32.9463016 ] } },
{ "type": "Feature", "properties": { "内容": "デイサービスセンター美晴が丘【認知症対応型通所介護】大分県竹田市直入町大字長湯9067番地4", "url": "https://www.kaigokensaku.mhlw.go.jp/44/index.php?action_kouhyou_detail_004_kani=true&JigyosyoCd=4472700162-00&ServiceCd=720&Type=search", "url2": "http://www.miharugaoka.com/" }, "geometry": { "type": "Point", "coordinates": [ 131.383855899999958, 33.082601 ] } },
{ "type": "Feature", "properties": { "内容": "くたみのもりデイサービスセンター【認知症対応型通所介護】大分県竹田市久住町大字栢木574-110", "url": "https://www.kaigokensaku.mhlw.go.jp/44/index.php?action_kouhyou_detail_004_kani=true&JigyosyoCd=4490800176-00&ServiceCd=720&Type=search", "url2": "http://okubo-hp.com/" }, "geometry": { "type": "Point", "coordinates": [ 131.310321199999947, 33.0391638 ] } },
{ "type": "Feature", "properties": { "内容": "グループホーム　湧水の郷【認知症対応型通所介護】大分県竹田市菅生１１６９－２", "url": "https://www.kaigokensaku.mhlw.go.jp/44/index.php?action_kouhyou_detail_004_kani=true&JigyosyoCd=4470800345-00&ServiceCd=720&Type=search", "url2": "http://www.oit-p.co.jp" }, "geometry": { "type": "Point", "coordinates": [ 131.2819048, 32.9574413 ] } },
{ "type": "Feature", "properties": { "内容": "グループホームしらゆり荻【認知症対応型通所介護】大分県竹田市荻町瓜作４５７５番地１", "url": "https://www.kaigokensaku.mhlw.go.jp/44/index.php?action_kouhyou_detail_004_kani=true&JigyosyoCd=4490800093-00&ServiceCd=720&Type=search", "url2": null }, "geometry": { "type": "Point", "coordinates": [ 131.301378500000027, 32.9112411 ] } },
{ "type": "Feature", "properties": { "内容": "認知症対応型デイサービスセンターやすらぎの里【認知症対応型通所介護】大分県豊後高田市呉崎775-10", "url": "https://www.kaigokensaku.mhlw.go.jp/44/index.php?action_kouhyou_detail_004_kani=true&JigyosyoCd=4490900026-00&ServiceCd=720&Type=search", "url2": "https://s-yasuragi.org" }, "geometry": { "type": "Point", "coordinates": [ 131.432155547885174, 33.577022098757446 ] } },
{ "type": "Feature", "properties": { "内容": "デイサービスセンター　かがやきえん【認知症対応型通所介護】大分県杵築市山香町大字立石２２４３番地１", "url": "https://www.kaigokensaku.mhlw.go.jp/44/index.php?action_kouhyou_detail_004_kani=true&JigyosyoCd=4471000382-00&ServiceCd=720&Type=search", "url2": "有限会社　かがやきえん　ケアネットビズ" }, "geometry": { "type": "Point", "coordinates": [ 131.474782499999947, 33.4823343 ] } },
{ "type": "Feature", "properties": { "内容": "共用型デイサービスセンター　やまが苑【認知症対応型通所介護】大分県杵築市山香町大字野原1405番地6", "url": "https://www.kaigokensaku.mhlw.go.jp/44/index.php?action_kouhyou_detail_004_kani=true&JigyosyoCd=4491000065-00&ServiceCd=720&Type=search", "url2": null }, "geometry": { "type": "Point", "coordinates": [ 131.505966100000023, 33.4429612 ] } },
{ "type": "Feature", "properties": { "内容": "デイサ-ビス・宅老所・和（なごみ）【認知症対応型通所介護】大分県宇佐市大字山下1340番地", "url": "https://www.kaigokensaku.mhlw.go.jp/44/index.php?action_kouhyou_detail_004_kani=true&JigyosyoCd=4471100661-00&ServiceCd=720&Type=search", "url2": null }, "geometry": { "type": "Point", "coordinates": [ 131.293407600000023, 33.539686 ] } },
{ "type": "Feature", "properties": { "内容": "デイサービスセンターひだまり【認知症対応型通所介護】大分県宇佐市大字南敷田762-1", "url": "https://www.kaigokensaku.mhlw.go.jp/44/index.php?action_kouhyou_detail_004_kani=true&JigyosyoCd=4491100030-00&ServiceCd=720&Type=search", "url2": null }, "geometry": { "type": "Point", "coordinates": [ 131.278639200000043, 33.5500344 ] } },
{ "type": "Feature", "properties": { "内容": "和楽苑ディサービスセンター【認知症対応型通所介護】大分県宇佐市大字出光187番地和楽苑", "url": "https://www.kaigokensaku.mhlw.go.jp/44/index.php?action_kouhyou_detail_004_kani=true&JigyosyoCd=4491100105-00&ServiceCd=720&Type=search", "url2": "http://www.oct-net.ne.jp/wadahp/" }, "geometry": { "type": "Point", "coordinates": [ 131.411894337959353, 33.528821436861392 ] } },
{ "type": "Feature", "properties": { "内容": "妻垣荘デイサービスセンター【認知症対応型通所介護】大分県宇佐市安心院町妻垣４０１番地", "url": "https://www.kaigokensaku.mhlw.go.jp/44/index.php?action_kouhyou_detail_004_kani=true&JigyosyoCd=4473100081-00&ServiceCd=720&Type=search", "url2": "http://carenet.biz/44/tumakgaki/" }, "geometry": { "type": "Point", "coordinates": [ 131.363286199999948, 33.4287233 ] } },
{ "type": "Feature", "properties": { "内容": "デイサービスセンターメルヘン別府【認知症対応型通所介護】大分県宇佐市大字別府79-1", "url": "https://www.kaigokensaku.mhlw.go.jp/44/index.php?action_kouhyou_detail_004_kani=true&JigyosyoCd=4491100022-00&ServiceCd=720&Type=search", "url2": "https://www.usuien.org/" }, "geometry": { "type": "Point", "coordinates": [ 131.343426200000067, 33.5212452 ] } },
{ "type": "Feature", "properties": { "内容": "デイサービスセンターメルヘン蜷木【認知症対応型通所介護】大分県宇佐市大字蜷木1768番地の1", "url": "https://www.kaigokensaku.mhlw.go.jp/44/index.php?action_kouhyou_detail_004_kani=true&JigyosyoCd=4491100014-00&ServiceCd=720&Type=search", "url2": "https://www.usuien.org/" }, "geometry": { "type": "Point", "coordinates": [ 131.394641099999944, 33.5486517 ] } },
{ "type": "Feature", "properties": { "内容": "デイサービスセンターやすらぎ【認知症対応型通所介護】大分県豊後大野市三重町本城2060番地", "url": "https://www.kaigokensaku.mhlw.go.jp/44/index.php?action_kouhyou_detail_004_kani=true&JigyosyoCd=4472600289-00&ServiceCd=720&Type=search", "url2": "http://siunkai.com" }, "geometry": { "type": "Point", "coordinates": [ 131.571943, 32.9726974 ] } },
{ "type": "Feature", "properties": { "内容": "デイサービスセンターあさぢ偕生園【認知症対応型通所介護】大分県　豊後大野市　朝地町　朝地　８８９番地２", "url": "https://www.kaigokensaku.mhlw.go.jp/44/index.php?action_kouhyou_detail_004_kani=true&JigyosyoCd=4471200206-00&ServiceCd=720&Type=search", "url2": "http://www.kaiseien-bungo-ohno.com/" }, "geometry": { "type": "Point", "coordinates": [ 131.4296187, 33.005217 ] } },
{ "type": "Feature", "properties": { "内容": "デイサービスサロン陽だまりの丘【認知症対応型通所介護】大分県豊後大野市千歳町新殿1233-1陽だまりの丘", "url": "https://www.kaigokensaku.mhlw.go.jp/44/index.php?action_kouhyou_detail_004_kani=true&JigyosyoCd=4491200020-00&ServiceCd=720&Type=search", "url2": null }, "geometry": { "type": "Point", "coordinates": [ 131.602982699999984, 33.0375138 ] } },
{ "type": "Feature", "properties": { "内容": "地域密着型サービス事業所「バンブーハウス」【認知症対応型通所介護】大分県由布市挾間町4番地1", "url": "https://www.kaigokensaku.mhlw.go.jp/44/index.php?action_kouhyou_detail_004_kani=true&JigyosyoCd=4491300036-00&ServiceCd=720&Type=search", "url2": "http://www.hoaki.jp/" }, "geometry": { "type": "Point", "coordinates": [ 131.527248800000052, 33.1950696 ] } },
{ "type": "Feature", "properties": { "内容": "デイサービスセンター「わかばの郷」【認知症対応型通所介護】大分県由布市挾間町大字小野1931番地3", "url": "https://www.kaigokensaku.mhlw.go.jp/44/index.php?action_kouhyou_detail_004_kani=true&JigyosyoCd=4490100668-00&ServiceCd=720&Type=search", "url2": "http://care-net.biz/44/wakabaen/" }, "geometry": { "type": "Point", "coordinates": [ 131.480855730133044, 33.182332937774163 ] } },
{ "type": "Feature", "properties": { "内容": "情和園デイサービスセンターハッピー【認知症対応型通所介護】大分県由布市庄内町西長宝870番地1", "url": "https://www.kaigokensaku.mhlw.go.jp/44/index.php?action_kouhyou_detail_004_kani=true&JigyosyoCd=4472300245-00&ServiceCd=720&Type=search", "url2": "http://www.jyowaen.com/" }, "geometry": { "type": "Point", "coordinates": [ 131.442451399999982, 33.1960899 ] } },
{ "type": "Feature", "properties": { "内容": "デイサービスセンター　「わかばの郷」【認知症対応型通所介護】大分県由布市挾間町小野字堀の内1931番地3", "url": "https://www.kaigokensaku.mhlw.go.jp/44/index.php?action_kouhyou_detail_004_kani=true&JigyosyoCd=4491300010-00&ServiceCd=720&Type=search", "url2": "hhttp://care-net.biz/44/wakabaen/" }, "geometry": { "type": "Point", "coordinates": [ 131.484267499999987, 33.1831725 ] } },
{ "type": "Feature", "properties": { "内容": "デイサービスゆとり村石武【認知症対応型通所介護】大分県由布市湯布院町川北1009-4", "url": "https://www.kaigokensaku.mhlw.go.jp/44/index.php?action_kouhyou_detail_004_kani=true&JigyosyoCd=4491300093-00&ServiceCd=720&Type=search", "url2": "http://www.fukujyukai.net/" }, "geometry": { "type": "Point", "coordinates": [ 131.343914199999972, 33.2606649 ] } },
{ "type": "Feature", "properties": { "内容": "デイサービスゆとり村　下依【認知症対応型通所介護】湯布院町中川1062", "url": "https://www.kaigokensaku.mhlw.go.jp/44/index.php?action_kouhyou_detail_004_kani=true&JigyosyoCd=4491300127-00&ServiceCd=720&Type=search", "url2": "http://www.fukujyukai.net/" }, "geometry": { "type": "Point", "coordinates": [ 131.335459746627066, 33.242613043284138 ] } },
{ "type": "Feature", "properties": { "内容": "ケアセンターはるかぜ【認知症対応型通所介護】大分県国東市国見町大熊毛花開１８２番地", "url": "https://www.kaigokensaku.mhlw.go.jp/44/index.php?action_kouhyou_detail_004_kani=true&JigyosyoCd=4491400091-00&ServiceCd=720&Type=search", "url2": null }, "geometry": { "type": "Point", "coordinates": [ 131.666120500000034, 33.656255 ] } },
{ "type": "Feature", "properties": { "内容": "デイサービスセンター　むさし苑【認知症対応型通所介護】大分県国東市武蔵町糸原2368番地2", "url": "https://www.kaigokensaku.mhlw.go.jp/44/index.php?action_kouhyou_detail_004_kani=true&JigyosyoCd=4491400059-00&ServiceCd=720&Type=search", "url2": "http://www.akinosato.com/" }, "geometry": { "type": "Point", "coordinates": [ 131.715871399999969, 33.4908047 ] } },
{ "type": "Feature", "properties": { "内容": "特定非営利活動法人　グループホーム　ひだまり【認知症対応型通所介護】大分県東国東郡姫島村1658番地の1", "url": "https://www.kaigokensaku.mhlw.go.jp/44/index.php?action_kouhyou_detail_004_kani=true&JigyosyoCd=4492100013-00&ServiceCd=720&Type=search", "url2": null }, "geometry": { "type": "Point", "coordinates": [ 131.645139, 33.7245374 ] } },
{ "type": "Feature", "properties": { "内容": "認知症対応型通所介護デイサービスセンターはるかぜ【認知症対応型通所介護】大分県玖珠郡玖珠町大字帆足2189-1", "url": "https://www.kaigokensaku.mhlw.go.jp/44/index.php?action_kouhyou_detail_004_kani=true&JigyosyoCd=4492800034-00&ServiceCd=720&Type=search", "url2": "http://www.daijyukai-meruhen.com" }, "geometry": { "type": "Point", "coordinates": [ 131.158379400000058, 33.2926065 ] } }
]
}
