{
"type": "FeatureCollection",
"name": "geo_44_地域密着型介護老人福祉施設入所者生活介護",
"crs": { "type": "name", "properties": { "name": "urn:ogc:def:crs:OGC:1.3:CRS84" } },
"features": [
{ "type": "Feature", "properties": { "内容": "特別養護老人ホーム　風雅の里上野【地域密着型介護老人福祉施設入所者生活介護】大分県大分市大字三芳２８８番地１", "url": "https://www.kaigokensaku.mhlw.go.jp/44/index.php?action_kouhyou_detail_004_kani=true&JigyosyoCd=4490100171-00&ServiceCd=540&Type=search", "url2": "https://tenjukai.company/" }, "geometry": { "type": "Point", "coordinates": [ 131.5988595, 33.222509 ] } },
{ "type": "Feature", "properties": { "内容": "特別養護老人ホーム誠寿園【地域密着型介護老人福祉施設入所者生活介護】大分県大分市大字中戸次6022番地1", "url": "https://www.kaigokensaku.mhlw.go.jp/44/index.php?action_kouhyou_detail_004_kani=true&JigyosyoCd=4470101124-00&ServiceCd=540&Type=search", "url2": "https://seijuen.org" }, "geometry": { "type": "Point", "coordinates": [ 131.654962012414586, 33.156466859848017 ] } },
{ "type": "Feature", "properties": { "内容": "特別養護老人ホーム創生の里（地域密着型）【地域密着型介護老人福祉施設入所者生活介護】大分県大分市大字野田３０６番地の２", "url": "https://www.kaigokensaku.mhlw.go.jp/44/index.php?action_kouhyou_detail_004_kani=true&JigyosyoCd=4470101157-00&ServiceCd=540&Type=search", "url2": "http://www.wakakusakai.jp" }, "geometry": { "type": "Point", "coordinates": [ 131.536189700000023, 33.2031772 ] } },
{ "type": "Feature", "properties": { "内容": "地域密着型介護老人福祉施設緑風苑（小規模生活単位型）【地域密着型介護老人福祉施設入所者生活介護】大分県大分市下郡山の手２番１７号", "url": "https://www.kaigokensaku.mhlw.go.jp/44/index.php?action_kouhyou_detail_004_kani=true&JigyosyoCd=4470101181-00&ServiceCd=540&Type=search", "url2": "ryokuhu@guitar.och.ne.jp" }, "geometry": { "type": "Point", "coordinates": [ 131.628447300000062, 33.2274422 ] } },
{ "type": "Feature", "properties": { "内容": "特別養護老人ホーム　アルメイダ　メモリアルホーム【地域密着型介護老人福祉施設入所者生活介護】大分県大分市大字宮崎1509番地", "url": "https://www.kaigokensaku.mhlw.go.jp/44/index.php?action_kouhyou_detail_004_kani=true&JigyosyoCd=4470101082-00&ServiceCd=540&Type=search", "url2": "http://almeida-memorial-home.jp/" }, "geometry": { "type": "Point", "coordinates": [ 131.609486699999934, 33.1926708 ] } },
{ "type": "Feature", "properties": { "内容": "地域密着型特別養護老人ホーム　とまとの里【地域密着型介護老人福祉施設入所者生活介護】大分市大字城原2600番22", "url": "https://www.kaigokensaku.mhlw.go.jp/44/index.php?action_kouhyou_detail_004_kani=true&JigyosyoCd=4490100734-00&ServiceCd=540&Type=search", "url2": "www.tomato-sato.com" }, "geometry": { "type": "Point", "coordinates": [ 131.723456744309289, 33.240219096634917 ] } },
{ "type": "Feature", "properties": { "内容": "特別養護老人ホームGreenガーデン南大分【地域密着型介護老人福祉施設入所者生活介護】大分市上田町一丁目12番５号", "url": "https://www.kaigokensaku.mhlw.go.jp/44/index.php?action_kouhyou_detail_004_kani=true&JigyosyoCd=4490100601-00&ServiceCd=540&Type=search", "url2": "http:/taisyoukai.tomoreart.com/tokuyou/　　https://taisyoukai.jp/" }, "geometry": { "type": "Point", "coordinates": [ 131.599984400000039, 33.2174485 ] } },
{ "type": "Feature", "properties": { "内容": "特別養護老人ホームみなはるの里【地域密着型介護老人福祉施設入所者生活介護】大分県大分市大字皆春262番地1", "url": "https://www.kaigokensaku.mhlw.go.jp/44/index.php?action_kouhyou_detail_004_kani=true&JigyosyoCd=4490100510-00&ServiceCd=540&Type=search", "url2": "https://minaharuno-sato.com" }, "geometry": { "type": "Point", "coordinates": [ 131.676491432540871, 33.236626965628325 ] } },
{ "type": "Feature", "properties": { "内容": "特別養護老人ホーム天領ガーデン【地域密着型介護老人福祉施設入所者生活介護】大分県大分市大字田尻字高尾784-1", "url": "https://www.kaigokensaku.mhlw.go.jp/44/index.php?action_kouhyou_detail_004_kani=true&JigyosyoCd=4490100346-00&ServiceCd=540&Type=search", "url2": "http:/san-an-kai.or.jp/" }, "geometry": { "type": "Point", "coordinates": [ 131.592574199999945, 33.1882258 ] } },
{ "type": "Feature", "properties": { "内容": "地域密着型特別養護老人ホーム　BASARA【地域密着型介護老人福祉施設入所者生活介護】大分県大分市大字三芳1305番地の1", "url": "https://www.kaigokensaku.mhlw.go.jp/44/index.php?action_kouhyou_detail_004_kani=true&JigyosyoCd=4490100775-00&ServiceCd=540&Type=search", "url2": "https://sanfukai.jp" }, "geometry": { "type": "Point", "coordinates": [ 131.576290293894431, 33.226359914729358 ] } },
{ "type": "Feature", "properties": { "内容": "地域密着型特別養護老人ホーム光明園【地域密着型介護老人福祉施設入所者生活介護】大分県大分市大字志生木字西岡145-9", "url": "https://www.kaigokensaku.mhlw.go.jp/44/index.php?action_kouhyou_detail_004_kani=true&JigyosyoCd=4472400243-00&ServiceCd=540&Type=search", "url2": "http://www.koumyouen.or.jp/" }, "geometry": { "type": "Point", "coordinates": [ 131.832941873927325, 33.245065165301362 ] } },
{ "type": "Feature", "properties": { "内容": "特別養護老人ホーム碩田柞原の里【地域密着型介護老人福祉施設入所者生活介護】大分県大分市弁天1丁目2番3号", "url": "https://www.kaigokensaku.mhlw.go.jp/44/index.php?action_kouhyou_detail_004_kani=true&JigyosyoCd=4490100353-00&ServiceCd=540&Type=search", "url2": "https://www.sekidenyusuhara.jp" }, "geometry": { "type": "Point", "coordinates": [ 131.613560399999983, 33.2517099 ] } },
{ "type": "Feature", "properties": { "内容": "特別養護老人ホーム明治清流苑【地域密着型介護老人福祉施設入所者生活介護】大分県大分市大字猪野729番地1", "url": "https://www.kaigokensaku.mhlw.go.jp/44/index.php?action_kouhyou_detail_004_kani=true&JigyosyoCd=4490100825-00&ServiceCd=540&Type=search", "url2": "https://seiryu-kyousei.org/" }, "geometry": { "type": "Point", "coordinates": [ 131.668828500000018, 33.23228 ] } },
{ "type": "Feature", "properties": { "内容": "地域密着型特別養護老人ホームリバーサイド桃花苑【地域密着型介護老人福祉施設入所者生活介護】大分県大分市大字曲字箕久保３２０番地域密着型特別養護老人ホームリバーサイド桃花苑", "url": "https://www.kaigokensaku.mhlw.go.jp/44/index.php?action_kouhyou_detail_004_kani=true&JigyosyoCd=4490100445-00&ServiceCd=540&Type=search", "url2": "http://www.riverside-toukaen.jp" }, "geometry": { "type": "Point", "coordinates": [ 131.618424510402974, 33.197937117107074 ] } },
{ "type": "Feature", "properties": { "内容": "特別養護老人ホームそうりんヴィレッジ【地域密着型介護老人福祉施設入所者生活介護】大分県大分市大字横瀬３７０番地", "url": "https://www.kaigokensaku.mhlw.go.jp/44/index.php?action_kouhyou_detail_004_kani=true&JigyosyoCd=4490101245-00&ServiceCd=540&Type=search", "url2": "https://sorinvillage.com/" }, "geometry": { "type": "Point", "coordinates": [ 131.549076480318433, 33.187252274112694 ] } },
{ "type": "Feature", "properties": { "内容": "特別養護老人ホーム　寿志の里　地域密着型【地域密着型介護老人福祉施設入所者生活介護】大分県大分市大字中判田１３４２番地の３", "url": "https://www.kaigokensaku.mhlw.go.jp/44/index.php?action_kouhyou_detail_004_kani=true&JigyosyoCd=4490100437-00&ServiceCd=540&Type=search", "url2": "http://jyushinosato.com/" }, "geometry": { "type": "Point", "coordinates": [ 131.626694300000054, 33.1675018 ] } },
{ "type": "Feature", "properties": { "内容": "特別養護老人ホーム偕楽園【地域密着型介護老人福祉施設入所者生活介護】大分県別府市南荘園町4番38号", "url": "https://www.kaigokensaku.mhlw.go.jp/44/index.php?action_kouhyou_detail_004_kani=true&JigyosyoCd=4490200047-00&ServiceCd=540&Type=search", "url2": "https://kikakukai.com/" }, "geometry": { "type": "Point", "coordinates": [ 131.479820300000029, 33.287380700000021 ] } },
{ "type": "Feature", "properties": { "内容": "特別養護老人ホーム　別府石垣園【地域密着型介護老人福祉施設入所者生活介護】大分県別府市石垣西２丁目１番３１号", "url": "https://www.kaigokensaku.mhlw.go.jp/44/index.php?action_kouhyou_detail_004_kani=true&JigyosyoCd=4490200237-00&ServiceCd=540&Type=search", "url2": "http://beppu-ishigakien.jp" }, "geometry": { "type": "Point", "coordinates": [ 131.495166400000016, 33.2918775 ] } },
{ "type": "Feature", "properties": { "内容": "地域密着型ナーシングホームはるかぜ【地域密着型介護老人福祉施設入所者生活介護】大分県別府市大字鶴見字五反4136番地の2", "url": "https://www.kaigokensaku.mhlw.go.jp/44/index.php?action_kouhyou_detail_004_kani=true&JigyosyoCd=4490200161-00&ServiceCd=540&Type=search", "url2": "http://www.harukaze.or.jp" }, "geometry": { "type": "Point", "coordinates": [ 131.479171643902646, 33.299401147560701 ] } },
{ "type": "Feature", "properties": { "内容": "地域密着型特別養護老人ホーム茶寿苑【地域密着型介護老人福祉施設入所者生活介護】大分県別府市大字1050番地", "url": "https://www.kaigokensaku.mhlw.go.jp/44/index.php?action_kouhyou_detail_004_kani=true&JigyosyoCd=4490200187-00&ServiceCd=540&Type=search", "url2": "http://sajuen.jp/" }, "geometry": { "type": "Point", "coordinates": [ 131.476249756889814, 33.319381104343677 ] } },
{ "type": "Feature", "properties": { "内容": "地域密着型特別養護老人ホーム静雲荘【地域密着型介護老人福祉施設入所者生活介護】大分県別府市大字野田字サッショウ原1293番地の1", "url": "https://www.kaigokensaku.mhlw.go.jp/44/index.php?action_kouhyou_detail_004_kani=true&JigyosyoCd=4490200179-00&ServiceCd=540&Type=search", "url2": "http://seiunso.com/" }, "geometry": { "type": "Point", "coordinates": [ 131.453705789135711, 33.323083276699727 ] } },
{ "type": "Feature", "properties": { "内容": "ユニット型　特別養護老人ホーム　悠久の里【地域密着型介護老人福祉施設入所者生活介護】大分県中津市永添945番地", "url": "https://www.kaigokensaku.mhlw.go.jp/44/index.php?action_kouhyou_detail_004_kani=true&JigyosyoCd=4490300151-00&ServiceCd=540&Type=search", "url2": "http://yukyunosato.org/yukyunosato/" }, "geometry": { "type": "Point", "coordinates": [ 131.2117872, 33.5738218 ] } },
{ "type": "Feature", "properties": { "内容": "望箭荘やまくに【地域密着型介護老人福祉施設入所者生活介護】大分県中津市山国町守実77番地1", "url": "https://www.kaigokensaku.mhlw.go.jp/44/index.php?action_kouhyou_detail_004_kani=true&JigyosyoCd=4470300627-00&ServiceCd=540&Type=search", "url2": "http://www.chokusin.jp" }, "geometry": { "type": "Point", "coordinates": [ 131.04245549999996, 33.403548 ] } },
{ "type": "Feature", "properties": { "内容": "サテライト型　特別養護老人ホーム　悠久の里【地域密着型介護老人福祉施設入所者生活介護】大分県中津市大字上如水字野田1824番地5", "url": "https://www.kaigokensaku.mhlw.go.jp/44/index.php?action_kouhyou_detail_004_kani=true&JigyosyoCd=4490300177-00&ServiceCd=540&Type=search", "url2": "http://yukyunosato.org/satellite/" }, "geometry": { "type": "Point", "coordinates": [ 131.240195238111937, 33.575613217950803 ] } },
{ "type": "Feature", "properties": { "内容": "社会福祉法人聖信会　特別養護老人ホームさ蕨【地域密着型介護老人福祉施設入所者生活介護】大分県中津市大字植野２４１番地1", "url": "https://www.kaigokensaku.mhlw.go.jp/44/index.php?action_kouhyou_detail_004_kani=true&JigyosyoCd=4490300185-00&ServiceCd=540&Type=search", "url2": "www.sawarabiansy.or.jp" }, "geometry": { "type": "Point", "coordinates": [ 131.264423500000021, 33.5616358 ] } },
{ "type": "Feature", "properties": { "内容": "特別養護老人ホームかえで【地域密着型介護老人福祉施設入所者生活介護】大分県中津市本耶馬溪町跡田430番地1", "url": "https://www.kaigokensaku.mhlw.go.jp/44/index.php?action_kouhyou_detail_004_kani=true&JigyosyoCd=4490300201-00&ServiceCd=540&Type=search", "url2": "http://www.taizenkai.com/" }, "geometry": { "type": "Point", "coordinates": [ 131.176674455819722, 33.482793618870119 ] } },
{ "type": "Feature", "properties": { "内容": "地域密着型特別養護老人ホーム花月園【地域密着型介護老人福祉施設入所者生活介護】大分県日田市日ノ出町133-1（大字渡里熊取）", "url": "https://www.kaigokensaku.mhlw.go.jp/44/index.php?action_kouhyou_detail_004_kani=true&JigyosyoCd=4490400100-00&ServiceCd=540&Type=search", "url2": "www.kagetsuen-swc.com/" }, "geometry": { "type": "Point", "coordinates": [ 130.936886796317367, 33.336555811991317 ] } },
{ "type": "Feature", "properties": { "内容": "特別養護老人ホーム　はたのうら【地域密着型介護老人福祉施設入所者生活介護】大分県佐伯市蒲江大字畑野浦596-32", "url": "https://www.kaigokensaku.mhlw.go.jp/44/index.php?action_kouhyou_detail_004_kani=true&JigyosyoCd=4490500305-00&ServiceCd=540&Type=search", "url2": "http://r.goope.jp/choyokai" }, "geometry": { "type": "Point", "coordinates": [ 131.950023200000032, 32.8563467 ] } },
{ "type": "Feature", "properties": { "内容": "佐伯市特別養護老人ホーム豊寿苑（地域密着型介護老人福祉施設）【地域密着型介護老人福祉施設入所者生活介護】大分県佐伯市弥生大字井崎1765番地", "url": "https://www.kaigokensaku.mhlw.go.jp/44/index.php?action_kouhyou_detail_004_kani=true&JigyosyoCd=4490500263-00&ServiceCd=540&Type=search", "url2": "http://sashakyo.or.jp" }, "geometry": { "type": "Point", "coordinates": [ 131.848402299999947, 32.9784082 ] } },
{ "type": "Feature", "properties": { "内容": "特別養護老人ホーム　彦岳の太陽【地域密着型介護老人福祉施設入所者生活介護】大分県佐伯市大字狩生４１８番地２", "url": "https://www.kaigokensaku.mhlw.go.jp/44/index.php?action_kouhyou_detail_004_kani=true&JigyosyoCd=4490500123-00&ServiceCd=540&Type=search", "url2": "http://www.hikodake.net" }, "geometry": { "type": "Point", "coordinates": [ 131.901705600000014, 33.0163783 ] } },
{ "type": "Feature", "properties": { "内容": "特別養護老人ホーム　彦岳の太陽　ユニット型【地域密着型介護老人福祉施設入所者生活介護】大分県佐伯市大字狩生４１８番地２", "url": "https://www.kaigokensaku.mhlw.go.jp/44/index.php?action_kouhyou_detail_004_kani=true&JigyosyoCd=4490500222-00&ServiceCd=540&Type=search", "url2": "http://www.hikodake.net/" }, "geometry": { "type": "Point", "coordinates": [ 131.901705600000014, 33.0163783 ] } },
{ "type": "Feature", "properties": { "内容": "特別養護老人ホーム長良苑【地域密着型介護老人福祉施設入所者生活介護】大分県佐伯市大字長良4956番地", "url": "https://www.kaigokensaku.mhlw.go.jp/44/index.php?action_kouhyou_detail_004_kani=true&JigyosyoCd=4490500255-00&ServiceCd=540&Type=search", "url2": "http://r.goope.jp/choyokai" }, "geometry": { "type": "Point", "coordinates": [ 131.911496100000022, 32.9360786 ] } },
{ "type": "Feature", "properties": { "内容": "特別養護老人ホーム白梅荘【地域密着型介護老人福祉施設入所者生活介護】大分県津久見市徳浦宮町420番地", "url": "https://www.kaigokensaku.mhlw.go.jp/44/index.php?action_kouhyou_detail_004_kani=true&JigyosyoCd=4490700061-00&ServiceCd=540&Type=search", "url2": "http://www.shiraume-fukushikai.com/" }, "geometry": { "type": "Point", "coordinates": [ 131.850849599999947, 33.0911334 ] } },
{ "type": "Feature", "properties": { "内容": "特別養護老人ホーム　美晴が丘【地域密着型介護老人福祉施設入所者生活介護】大分県竹田市直入町大字長湯9067番地4", "url": "https://www.kaigokensaku.mhlw.go.jp/44/index.php?action_kouhyou_detail_004_kani=true&JigyosyoCd=4490800143-00&ServiceCd=540&Type=search", "url2": "http://www.miharugaoka.com/" }, "geometry": { "type": "Point", "coordinates": [ 131.383855899999958, 33.082601 ] } },
{ "type": "Feature", "properties": { "内容": "介護老人福祉施設　荻の苑【地域密着型介護老人福祉施設入所者生活介護】大分県竹田市荻町恵良原７８０番地２", "url": "https://www.kaigokensaku.mhlw.go.jp/44/index.php?action_kouhyou_detail_004_kani=true&JigyosyoCd=4490800119-00&ServiceCd=540&Type=search", "url2": "http://oginoen.jp/" }, "geometry": { "type": "Point", "coordinates": [ 131.302958008970705, 32.922647797102648 ] } },
{ "type": "Feature", "properties": { "内容": "介護老人福祉施設　荻の苑【地域密着型介護老人福祉施設入所者生活介護】大分県竹田市荻町恵良原７８０番地２", "url": "https://www.kaigokensaku.mhlw.go.jp/44/index.php?action_kouhyou_detail_004_kani=true&JigyosyoCd=4490800127-00&ServiceCd=540&Type=search", "url2": "http://www.oginoen.jp/" }, "geometry": { "type": "Point", "coordinates": [ 131.302885589327303, 32.922795267605125 ] } },
{ "type": "Feature", "properties": { "内容": "特別養護老人ホームこころの郷【地域密着型介護老人福祉施設入所者生活介護】大分県竹田市大字飛田川1618番地23", "url": "https://www.kaigokensaku.mhlw.go.jp/44/index.php?action_kouhyou_detail_004_kani=true&JigyosyoCd=4490800101-00&ServiceCd=540&Type=search", "url2": "http://www.yuujinkai.com./co_index.html" }, "geometry": { "type": "Point", "coordinates": [ 131.384925800000019, 32.9650288 ] } },
{ "type": "Feature", "properties": { "内容": "地域密着型特別養護老人ホーム　心助園【地域密着型介護老人福祉施設入所者生活介護】大分県杵築市大字熊野1427-1", "url": "https://www.kaigokensaku.mhlw.go.jp/44/index.php?action_kouhyou_detail_004_kani=true&JigyosyoCd=4491000073-00&ServiceCd=540&Type=search", "url2": "http//isshinkai-oita-kitsuki.jp/" }, "geometry": { "type": "Point", "coordinates": [ 131.633335799999941, 33.3911843 ] } },
{ "type": "Feature", "properties": { "内容": "地域密着型特別養護老人ホーム安心院の郷妻垣【地域密着型介護老人福祉施設入所者生活介護】大分県宇佐市安心院町妻垣401番地", "url": "https://www.kaigokensaku.mhlw.go.jp/44/index.php?action_kouhyou_detail_004_kani=true&JigyosyoCd=4491100089-00&ServiceCd=540&Type=search", "url2": "http://care-net.biz/44/tumagaki" }, "geometry": { "type": "Point", "coordinates": [ 131.363286199999948, 33.4287233 ] } },
{ "type": "Feature", "properties": { "内容": "宇佐ナーシングホーム　ラ・シェネ泰生園【地域密着型介護老人福祉施設入所者生活介護】大分県宇佐市大字山下字下坂本２１００番地", "url": "https://www.kaigokensaku.mhlw.go.jp/44/index.php?action_kouhyou_detail_004_kani=true&JigyosyoCd=4491100097-00&ServiceCd=540&Type=search", "url2": "http://www.wellb.or.jp/usa/index.html" }, "geometry": { "type": "Point", "coordinates": [ 131.305439989640803, 33.535183323657684 ] } },
{ "type": "Feature", "properties": { "内容": "ユニット型特別養護老人ホーム偕生園【地域密着型介護老人福祉施設入所者生活介護】大分県豊後大野市大野町田中７００番地２", "url": "https://www.kaigokensaku.mhlw.go.jp/44/index.php?action_kouhyou_detail_004_kani=true&JigyosyoCd=4491200079-00&ServiceCd=540&Type=search", "url2": "http://www.kaiseien-bungo-ohno.com/" }, "geometry": { "type": "Point", "coordinates": [ 131.493298, 33.0379578 ] } },
{ "type": "Feature", "properties": { "内容": "特別養護老人ホーム若葉苑ユニット型【地域密着型介護老人福祉施設入所者生活介護】大分県由布市挾間町向原1215番地2", "url": "https://www.kaigokensaku.mhlw.go.jp/44/index.php?action_kouhyou_detail_004_kani=true&JigyosyoCd=4491300135-00&ServiceCd=540&Type=search", "url2": "http://cere-net.biz/44/wakabaen/" }, "geometry": { "type": "Point", "coordinates": [ 131.502917600000046, 33.1964659 ] } },
{ "type": "Feature", "properties": { "内容": "特別養護老人ホーム慶寿苑【地域密着型介護老人福祉施設入所者生活介護】大分県由布市庄内町柿原1569番地1", "url": "https://www.kaigokensaku.mhlw.go.jp/44/index.php?action_kouhyou_detail_004_kani=true&JigyosyoCd=4491300044-00&ServiceCd=540&Type=search", "url2": "http://www.jyueikai.jp/" }, "geometry": { "type": "Point", "coordinates": [ 131.420329572633221, 33.175872148624563 ] } },
{ "type": "Feature", "properties": { "内容": "サテライト型特別養護老人ホーム鈴鳴荘【地域密着型介護老人福祉施設入所者生活介護】国東市安岐町朝来144番地", "url": "https://www.kaigokensaku.mhlw.go.jp/44/index.php?action_kouhyou_detail_004_kani=true&JigyosyoCd=4491400034-00&ServiceCd=540&Type=search", "url2": "http://www.akinosato.com/" }, "geometry": { "type": "Point", "coordinates": [ 131.615325200000029, 33.5108842 ] } },
{ "type": "Feature", "properties": { "内容": "地域密着型特別養護老人ホームむさし苑【地域密着型介護老人福祉施設入所者生活介護】大分県国東市武蔵町糸原2368番地2", "url": "https://www.kaigokensaku.mhlw.go.jp/44/index.php?action_kouhyou_detail_004_kani=true&JigyosyoCd=4491400083-00&ServiceCd=540&Type=search", "url2": "http://www.akinosato.com/" }, "geometry": { "type": "Point", "coordinates": [ 131.715871399999969, 33.4908047 ] } },
{ "type": "Feature", "properties": { "内容": "地域密着型特別養護老人ホーム　鈴鳴荘【地域密着型介護老人福祉施設入所者生活介護】大分県国東市安岐町下山口５８番地", "url": "https://www.kaigokensaku.mhlw.go.jp/44/index.php?action_kouhyou_detail_004_kani=true&JigyosyoCd=4491400075-00&ServiceCd=540&Type=search", "url2": "http://www.akinosato.com/" }, "geometry": { "type": "Point", "coordinates": [ 131.690697009123284, 33.460306188233723 ] } },
{ "type": "Feature", "properties": { "内容": "姫島村老人福祉施設姫寿苑【地域密着型介護老人福祉施設入所者生活介護】大分県東国東郡姫島村1562", "url": "https://www.kaigokensaku.mhlw.go.jp/44/index.php?action_kouhyou_detail_004_kani=true&JigyosyoCd=4492100021-00&ServiceCd=540&Type=search", "url2": null }, "geometry": { "type": "Point", "coordinates": [ 131.645142, 33.724535 ] } },
{ "type": "Feature", "properties": { "内容": "地域密着型介護老人福祉施設　シルバーランドメルヘン【地域密着型介護老人福祉施設入所者生活介護】大分県玖珠郡九重町大字右田３１５６番地の７", "url": "https://www.kaigokensaku.mhlw.go.jp/44/index.php?action_kouhyou_detail_004_kani=true&JigyosyoCd=4492800026-00&ServiceCd=540&Type=search", "url2": "http://www.daiｊyukai-meruhen.com" }, "geometry": { "type": "Point", "coordinates": [ 131.174532799999952, 33.2522023 ] } },
{ "type": "Feature", "properties": { "内容": "地域密着型介護老人福祉施設共生の里メルヘン森栄館【地域密着型介護老人福祉施設入所者生活介護】大分県玖珠郡玖珠町大字森６９０－３", "url": "https://www.kaigokensaku.mhlw.go.jp/44/index.php?action_kouhyou_detail_004_kani=true&JigyosyoCd=4492800018-00&ServiceCd=540&Type=search", "url2": "http://www.daijyukai－meruhen.com" }, "geometry": { "type": "Point", "coordinates": [ 131.159879205557218, 33.299100967333082 ] } }
]
}
