{
"type": "FeatureCollection",
"name": "geo_44_福祉用具貸与",
"crs": { "type": "name", "properties": { "name": "urn:ogc:def:crs:OGC:1.3:CRS84" } },
"features": [
{ "type": "Feature", "properties": { "内容": "株式会社HumanPLUS【福祉用具貸与】牧2丁目16番地7号", "url": "https://www.kaigokensaku.mhlw.go.jp/44/index.php?action_kouhyou_detail_004_kani=true&JigyosyoCd=4470111412-00&ServiceCd=170&Type=search", "url2": "https://human-loop" }, "geometry": { "type": "Point", "coordinates": [ 131.641875964418006, 33.241208492232325 ] } },
{ "type": "Feature", "properties": { "内容": "ベストケア南大分【福祉用具貸与】大分県大分市市1049-1", "url": "https://www.kaigokensaku.mhlw.go.jp/44/index.php?action_kouhyou_detail_004_kani=true&JigyosyoCd=4470110737-00&ServiceCd=170&Type=search", "url2": null }, "geometry": { "type": "Point", "coordinates": [ 131.571561000543625, 33.187575463839835 ] } },
{ "type": "Feature", "properties": { "内容": "ベストケア大分【福祉用具貸与】大分県大分市三佐2421-10", "url": "https://www.kaigokensaku.mhlw.go.jp/44/index.php?action_kouhyou_detail_004_kani=true&JigyosyoCd=4470109820-00&ServiceCd=170&Type=search", "url2": "evahlife.jp" }, "geometry": { "type": "Point", "coordinates": [ 131.6818935, 33.2507204 ] } },
{ "type": "Feature", "properties": { "内容": "株式会社ライフマーケット【福祉用具貸与】大分県大分市弁天1-5-13", "url": "https://www.kaigokensaku.mhlw.go.jp/44/index.php?action_kouhyou_detail_004_kani=true&JigyosyoCd=4470105596-00&ServiceCd=170&Type=search", "url2": null }, "geometry": { "type": "Point", "coordinates": [ 131.612021700000014, 33.2527265 ] } },
{ "type": "Feature", "properties": { "内容": "ニチイケアセンター大分【福祉用具貸与】大分県大分市下郡東一丁目9番23号", "url": "https://www.kaigokensaku.mhlw.go.jp/44/index.php?action_kouhyou_detail_004_kani=true&JigyosyoCd=4470101553-00&ServiceCd=170&Type=search", "url2": null }, "geometry": { "type": "Point", "coordinates": [ 131.636019900000065, 33.2280264 ] } },
{ "type": "Feature", "properties": { "内容": "グリーンコープ自由自在店【福祉用具貸与】大分県大分市大字寒田４１５番地の1", "url": "https://www.kaigokensaku.mhlw.go.jp/44/index.php?action_kouhyou_detail_004_kani=true&JigyosyoCd=4470108079-00&ServiceCd=170&Type=search", "url2": "k0kydoh3@greencoop.or.jp" }, "geometry": { "type": "Point", "coordinates": [ 131.600540300000034, 33.1780077 ] } },
{ "type": "Feature", "properties": { "内容": "フォレスト・ジャパン合同会社　ＯＫアシスト【福祉用具貸与】大分市望みが丘45番５", "url": "https://www.kaigokensaku.mhlw.go.jp/44/index.php?action_kouhyou_detail_004_kani=true&JigyosyoCd=4470111040-00&ServiceCd=170&Type=search", "url2": "http://okassist.stars.ne.jp/" }, "geometry": { "type": "Point", "coordinates": [ 131.7127318, 33.2400524 ] } },
{ "type": "Feature", "properties": { "内容": "ダスキンヘルスレント大分南ステーション【福祉用具貸与】大分県大分市古国府１丁目２-３４", "url": "https://www.kaigokensaku.mhlw.go.jp/44/index.php?action_kouhyou_detail_004_kani=true&JigyosyoCd=4470107485-00&ServiceCd=170&Type=search", "url2": "https://healthrent.duskin.jp" }, "geometry": { "type": "Point", "coordinates": [ 131.613222649876406, 33.218941618535631 ] } },
{ "type": "Feature", "properties": { "内容": "ふくるん【福祉用具貸与】大分県大分市大字中判田１６５５番地1ゆいまーる", "url": "https://www.kaigokensaku.mhlw.go.jp/44/index.php?action_kouhyou_detail_004_kani=true&JigyosyoCd=4470111263-00&ServiceCd=170&Type=search", "url2": "http://www.oita-yuima-ru.com/" }, "geometry": { "type": "Point", "coordinates": [ 131.641347984269686, 33.166026918366342 ] } },
{ "type": "Feature", "properties": { "内容": "ケアバンク【福祉用具貸与】大分県大分市元町5-29", "url": "https://www.kaigokensaku.mhlw.go.jp/44/index.php?action_kouhyou_detail_004_kani=true&JigyosyoCd=4470102361-00&ServiceCd=170&Type=search", "url2": "http://www.carebank.jp" }, "geometry": { "type": "Point", "coordinates": [ 131.616480452045408, 33.220471278525679 ] } },
{ "type": "Feature", "properties": { "内容": "フランスベッド株式会社　メディカル大分営業所【福祉用具貸与】大分県大分市大字羽田字迫193-1", "url": "https://www.kaigokensaku.mhlw.go.jp/44/index.php?action_kouhyou_detail_004_kani=true&JigyosyoCd=4470105844-00&ServiceCd=170&Type=search", "url2": "http://www.francebed.co.jp/" }, "geometry": { "type": "Point", "coordinates": [ 131.6310982, 33.2200272 ] } },
{ "type": "Feature", "properties": { "内容": "MATSUURA＆Co.【福祉用具貸与】大分市大字三芳677番地1", "url": "https://www.kaigokensaku.mhlw.go.jp/44/index.php?action_kouhyou_detail_004_kani=true&JigyosyoCd=4470111784-00&ServiceCd=170&Type=search", "url2": "http://smile-lib.com/" }, "geometry": { "type": "Point", "coordinates": [ 131.591023799999988, 33.2253242 ] } },
{ "type": "Feature", "properties": { "内容": "株式会社　アズメディック【福祉用具貸与】大分県大分市大字羽田675番の3", "url": "https://www.kaigokensaku.mhlw.go.jp/44/index.php?action_kouhyou_detail_004_kani=true&JigyosyoCd=4470109507-00&ServiceCd=170&Type=search", "url2": "https://azumedic.com" }, "geometry": { "type": "Point", "coordinates": [ 131.63168440000004, 33.215875 ] } },
{ "type": "Feature", "properties": { "内容": "株式会社アナザーウェイ【福祉用具貸与】大分県大分市大字津留1938番地の1エルセゾン杉田Ⅱ", "url": "https://www.kaigokensaku.mhlw.go.jp/44/index.php?action_kouhyou_detail_004_kani=true&JigyosyoCd=4470110513-00&ServiceCd=170&Type=search", "url2": null }, "geometry": { "type": "Point", "coordinates": [ 131.628328499999952, 33.232634 ] } },
{ "type": "Feature", "properties": { "内容": "こーず【福祉用具貸与】大分県大分市大字葛木１３７－９", "url": "https://www.kaigokensaku.mhlw.go.jp/44/index.php?action_kouhyou_detail_004_kani=true&JigyosyoCd=4470111222-00&ServiceCd=170&Type=search", "url2": "https://maeda-komuten.com" }, "geometry": { "type": "Point", "coordinates": [ 131.6873622, 33.2350422 ] } },
{ "type": "Feature", "properties": { "内容": "株式会社大分白屋　介護事業部【福祉用具貸与】大分県大分市城崎町2丁目5番2号", "url": "https://www.kaigokensaku.mhlw.go.jp/44/index.php?action_kouhyou_detail_004_kani=true&JigyosyoCd=4470110653-00&ServiceCd=170&Type=search", "url2": "http://www.d-shiroya.jp/" }, "geometry": { "type": "Point", "coordinates": [ 131.614949310360203, 33.24071572835399 ] } },
{ "type": "Feature", "properties": { "内容": "株式会社　スズキ自販大分　本社　特販特機部【福祉用具貸与】大分県大分市元町４３０５－１", "url": "https://www.kaigokensaku.mhlw.go.jp/44/index.php?action_kouhyou_detail_004_kani=true&JigyosyoCd=4470102395-00&ServiceCd=170&Type=search", "url2": "http://sj-oita.jp/" }, "geometry": { "type": "Point", "coordinates": [ 131.619179899140931, 33.227167936384603 ] } },
{ "type": "Feature", "properties": { "内容": "福祉用具レンタル　アリエ【福祉用具貸与】大分県大分市下郡東一丁目2番12号", "url": "https://www.kaigokensaku.mhlw.go.jp/44/index.php?action_kouhyou_detail_004_kani=true&JigyosyoCd=4470111602-00&ServiceCd=170&Type=search", "url2": null }, "geometry": { "type": "Point", "coordinates": [ 131.6365523, 33.2312535 ] } },
{ "type": "Feature", "properties": { "内容": "ファンライフサポート【福祉用具貸与】大分県大分市敷戸台１丁目３７０番地４", "url": "https://www.kaigokensaku.mhlw.go.jp/44/index.php?action_kouhyou_detail_004_kani=true&JigyosyoCd=4470111404-00&ServiceCd=170&Type=search", "url2": null }, "geometry": { "type": "Point", "coordinates": [ 131.616462899999988, 33.1890287 ] } },
{ "type": "Feature", "properties": { "内容": "株式会社　フロンティア　大分営業所【福祉用具貸与】大分県大分市賀来西1丁目5番16号", "url": "https://www.kaigokensaku.mhlw.go.jp/44/index.php?action_kouhyou_detail_004_kani=true&JigyosyoCd=4470107998-00&ServiceCd=170&Type=search", "url2": "http://www.frontier-ph.com/" }, "geometry": { "type": "Point", "coordinates": [ 131.562182399999983, 33.2132358 ] } },
{ "type": "Feature", "properties": { "内容": "株式会社　ミタカ　　大分営業所【福祉用具貸与】南津留5-11メゾン・デ・ツル1階", "url": "https://www.kaigokensaku.mhlw.go.jp/44/index.php?action_kouhyou_detail_004_kani=true&JigyosyoCd=4470109317-00&ServiceCd=170&Type=search", "url2": "http://www.t-mitaka.com" }, "geometry": { "type": "Point", "coordinates": [ 131.625389700000028, 33.2385833 ] } },
{ "type": "Feature", "properties": { "内容": "九州福祉医療サービス株式会社　大分支店【福祉用具貸与】大分県大分市大字田尻446番地の3", "url": "https://www.kaigokensaku.mhlw.go.jp/44/index.php?action_kouhyou_detail_004_kani=true&JigyosyoCd=4470102338-00&ServiceCd=170&Type=search", "url2": "http://www.kyufuku.com" }, "geometry": { "type": "Point", "coordinates": [ 131.593008932375085, 33.188148631861488 ] } },
{ "type": "Feature", "properties": { "内容": "合同会社　つなぐ【福祉用具貸与】大分県大分市大字政所2227番地3ヤングヴィレッジⅠ104号", "url": "https://www.kaigokensaku.mhlw.go.jp/44/index.php?action_kouhyou_detail_004_kani=true&JigyosyoCd=4470110935-00&ServiceCd=170&Type=search", "url2": "https://tunagu-fukushi.jimdofree.com/" }, "geometry": { "type": "Point", "coordinates": [ 131.720532600000013, 33.2388766 ] } },
{ "type": "Feature", "properties": { "内容": "合同会社　サニーマーク【福祉用具貸与】大分県大分市今津留1丁目16番13号", "url": "https://www.kaigokensaku.mhlw.go.jp/44/index.php?action_kouhyou_detail_004_kani=true&JigyosyoCd=4470110802-00&ServiceCd=170&Type=search", "url2": null }, "geometry": { "type": "Point", "coordinates": [ 131.624268540475441, 33.242922923540661 ] } },
{ "type": "Feature", "properties": { "内容": "太陽シルバーサービス株式会社　大分営業所【福祉用具貸与】大分県大分市下郡東1-4-35", "url": "https://www.kaigokensaku.mhlw.go.jp/44/index.php?action_kouhyou_detail_004_kani=true&JigyosyoCd=4470105265-00&ServiceCd=170&Type=search", "url2": "http://www.taiyoss.co.jp" }, "geometry": { "type": "Point", "coordinates": [ 131.636492557641134, 33.230715429484931 ] } },
{ "type": "Feature", "properties": { "内容": "JAおおいた大分福祉サービスセンター【福祉用具貸与】大分県大分市大字丹生147番地の3", "url": "https://www.kaigokensaku.mhlw.go.jp/44/index.php?action_kouhyou_detail_004_kani=true&JigyosyoCd=4470112162-00&ServiceCd=170&Type=search", "url2": null }, "geometry": { "type": "Point", "coordinates": [ 131.7207076, 33.2183348 ] } },
{ "type": "Feature", "properties": { "内容": "ライフアップサポート福祉用具事業部【福祉用具貸与】大分県大分市三ケ田町1丁目6-4", "url": "https://www.kaigokensaku.mhlw.go.jp/44/index.php?action_kouhyou_detail_004_kani=true&JigyosyoCd=4470111966-00&ServiceCd=170&Type=search", "url2": null }, "geometry": { "type": "Point", "coordinates": [ 131.5920987, 33.2179202 ] } },
{ "type": "Feature", "properties": { "内容": "里の風福祉サービス【福祉用具貸与】大分県大分市六坊北町2番61号利光アパート", "url": "https://www.kaigokensaku.mhlw.go.jp/44/index.php?action_kouhyou_detail_004_kani=true&JigyosyoCd=4470105190-00&ServiceCd=170&Type=search", "url2": "www.satonokaze.jp/" }, "geometry": { "type": "Point", "coordinates": [ 131.6153243, 33.2276675 ] } },
{ "type": "Feature", "properties": { "内容": "日本ケア・テック　株式会社【福祉用具貸与】大分県大分市大字光吉362番地nctビル2F", "url": "https://www.kaigokensaku.mhlw.go.jp/44/index.php?action_kouhyou_detail_004_kani=true&JigyosyoCd=4470101876-00&ServiceCd=170&Type=search", "url2": "http://www11.ocn.ne.jp/~nct" }, "geometry": { "type": "Point", "coordinates": [ 131.606120199999964, 33.2012449 ] } },
{ "type": "Feature", "properties": { "内容": "ブンゴヤヘルスケア【福祉用具貸与】花津留２丁目１９－２３", "url": "https://www.kaigokensaku.mhlw.go.jp/44/index.php?action_kouhyou_detail_004_kani=true&JigyosyoCd=4470100712-00&ServiceCd=170&Type=search", "url2": "http://www.bungoya.co.jp" }, "geometry": { "type": "Point", "coordinates": [ 131.633219700000041, 33.2457525 ] } },
{ "type": "Feature", "properties": { "内容": "有限会社　左衛門【福祉用具貸与】大分県大分市南鶴崎2丁目6番5号", "url": "https://www.kaigokensaku.mhlw.go.jp/44/index.php?action_kouhyou_detail_004_kani=true&JigyosyoCd=4470104441-00&ServiceCd=170&Type=search", "url2": null }, "geometry": { "type": "Point", "coordinates": [ 131.690681899999959, 33.239111 ] } },
{ "type": "Feature", "properties": { "内容": "有限会社　大分エンゼル商事【福祉用具貸与】大分県大分市大字中戸次6062番地の1", "url": "https://www.kaigokensaku.mhlw.go.jp/44/index.php?action_kouhyou_detail_004_kani=true&JigyosyoCd=4470100696-00&ServiceCd=170&Type=search", "url2": "https://oitaangel.jp/" }, "geometry": { "type": "Point", "coordinates": [ 131.653758089549228, 33.158802833424915 ] } },
{ "type": "Feature", "properties": { "内容": "OPﾒﾃﾞｨｶﾙｻｰﾋﾞｽ【福祉用具貸与】大分市大津町1-22-12清友ﾋﾞﾙ103号", "url": "https://www.kaigokensaku.mhlw.go.jp/44/index.php?action_kouhyou_detail_004_kani=true&JigyosyoCd=4470110612-00&ServiceCd=170&Type=search", "url2": null }, "geometry": { "type": "Point", "coordinates": [ 131.625076300000046, 33.2498111 ] } },
{ "type": "Feature", "properties": { "内容": "ベストケア別府【福祉用具貸与】大分県別府市石垣東10丁目1-10", "url": "https://www.kaigokensaku.mhlw.go.jp/44/index.php?action_kouhyou_detail_004_kani=true&JigyosyoCd=4470203235-00&ServiceCd=170&Type=search", "url2": "http://evahlife.jp/" }, "geometry": { "type": "Point", "coordinates": [ 131.499016200000028, 33.304251 ] } },
{ "type": "Feature", "properties": { "内容": "福祉用具貸与　なの花【福祉用具貸与】大分県別府市大字鶴見3233番地11", "url": "https://www.kaigokensaku.mhlw.go.jp/44/index.php?action_kouhyou_detail_004_kani=true&JigyosyoCd=4470201650-00&ServiceCd=170&Type=search", "url2": null }, "geometry": { "type": "Point", "coordinates": [ 131.4808481, 33.3017985 ] } },
{ "type": "Feature", "properties": { "内容": "福祉のダイイチ【福祉用具貸与】大分県別府市石垣東2丁目2－15福祉のダイイチ", "url": "https://www.kaigokensaku.mhlw.go.jp/44/index.php?action_kouhyou_detail_004_kani=true&JigyosyoCd=4470203532-00&ServiceCd=170&Type=search", "url2": "daiichi4140@muse.ocn.ne．jp" }, "geometry": { "type": "Point", "coordinates": [ 131.498564499999986, 33.2911501 ] } },
{ "type": "Feature", "properties": { "内容": "ＪＡべっぷ【福祉用具貸与】大分県別府市大字鶴見45番地の3", "url": "https://www.kaigokensaku.mhlw.go.jp/44/index.php?action_kouhyou_detail_004_kani=true&JigyosyoCd=4470201734-00&ServiceCd=170&Type=search", "url2": "https://fukushi-bh-ja.com/" }, "geometry": { "type": "Point", "coordinates": [ 131.48448585767207, 33.310626597359231 ] } },
{ "type": "Feature", "properties": { "内容": "一燈園　福祉用具貸与事業所【福祉用具貸与】大分県別府市大字南立石３４７番地の７住宅型有料老人ホーム堀田一燈園", "url": "https://www.kaigokensaku.mhlw.go.jp/44/index.php?action_kouhyou_detail_004_kani=true&JigyosyoCd=4470203300-00&ServiceCd=170&Type=search", "url2": "http://www.ittouen.or.jp" }, "geometry": { "type": "Point", "coordinates": [ 131.45560009999997, 33.2940575 ] } },
{ "type": "Feature", "properties": { "内容": "有限会社　大分タキレンタル事業所【福祉用具貸与】大分県別府市大字内竈1392-2", "url": "https://www.kaigokensaku.mhlw.go.jp/44/index.php?action_kouhyou_detail_004_kani=true&JigyosyoCd=4470200355-00&ServiceCd=170&Type=search", "url2": "http://www.oita-taki.net/" }, "geometry": { "type": "Point", "coordinates": [ 131.484789399999954, 33.3319095 ] } },
{ "type": "Feature", "properties": { "内容": "福祉専門こうのとり【福祉用具貸与】大分県別府市朝見1丁目18-13", "url": "https://www.kaigokensaku.mhlw.go.jp/44/index.php?action_kouhyou_detail_004_kani=true&JigyosyoCd=4470204001-00&ServiceCd=170&Type=search", "url2": null }, "geometry": { "type": "Point", "coordinates": [ 131.4977072, 33.2706382 ] } },
{ "type": "Feature", "properties": { "内容": "ハッピーライフ福祉用具センター【福祉用具貸与】大字大悟法７５１番地３", "url": "https://www.kaigokensaku.mhlw.go.jp/44/index.php?action_kouhyou_detail_004_kani=true&JigyosyoCd=4470300981-00&ServiceCd=170&Type=search", "url2": null }, "geometry": { "type": "Point", "coordinates": [ 131.2154678, 33.5727891 ] } },
{ "type": "Feature", "properties": { "内容": "歩みの会企業組合　バリアフリー便利堂【福祉用具貸与】大分県中津市新博多町2丁目1750番地", "url": "https://www.kaigokensaku.mhlw.go.jp/44/index.php?action_kouhyou_detail_004_kani=true&JigyosyoCd=4470300213-00&ServiceCd=170&Type=search", "url2": null }, "geometry": { "type": "Point", "coordinates": [ 131.186871121426407, 33.602381947558762 ] } },
{ "type": "Feature", "properties": { "内容": "ハッピーライフ福祉用具センター【福祉用具貸与】大分県中津市大字大悟法751番地", "url": "https://www.kaigokensaku.mhlw.go.jp/44/index.php?action_kouhyou_detail_004_kani=true&JigyosyoCd=4470300981-00&ServiceCd=170&Type=search", "url2": null }, "geometry": { "type": "Point", "coordinates": [ 131.215445199999976, 33.5728388 ] } },
{ "type": "Feature", "properties": { "内容": "かいご屋【福祉用具貸与】大分県中津市１１２８番地１", "url": "https://www.kaigokensaku.mhlw.go.jp/44/index.php?action_kouhyou_detail_004_kani=true&JigyosyoCd=4470300924-00&ServiceCd=170&Type=search", "url2": null }, "geometry": { "type": "Point", "coordinates": [ 131.189621406329366, 33.606100131018565 ] } },
{ "type": "Feature", "properties": { "内容": "福祉用具事業所　「洞門」【福祉用具貸与】大分県中津市本耶馬渓樋田182-5", "url": "https://www.kaigokensaku.mhlw.go.jp/44/index.php?action_kouhyou_detail_004_kani=true&JigyosyoCd=4470301179-00&ServiceCd=170&Type=search", "url2": null }, "geometry": { "type": "Point", "coordinates": [ 131.17176459999996, 33.5035738 ] } },
{ "type": "Feature", "properties": { "内容": "有限会社　西日本臨床医学研究所【福祉用具貸与】大分県中津市宮夫11-1", "url": "https://www.kaigokensaku.mhlw.go.jp/44/index.php?action_kouhyou_detail_004_kani=true&JigyosyoCd=4470300270-00&ServiceCd=170&Type=search", "url2": null }, "geometry": { "type": "Point", "coordinates": [ 131.2125393, 33.5928892 ] } },
{ "type": "Feature", "properties": { "内容": "合同会社　結.サポート【福祉用具貸与】大分県中津市大字大新田762", "url": "https://www.kaigokensaku.mhlw.go.jp/44/index.php?action_kouhyou_detail_004_kani=true&JigyosyoCd=4470301567-00&ServiceCd=170&Type=search", "url2": null }, "geometry": { "type": "Point", "coordinates": [ 131.2229685, 33.5949103 ] } },
{ "type": "Feature", "properties": { "内容": "Ｌ・Ｉ・Ｐ福祉用具センター【福祉用具貸与】大分県日田市大字十二町６０４番地３", "url": "https://www.kaigokensaku.mhlw.go.jp/44/index.php?action_kouhyou_detail_004_kani=true&JigyosyoCd=4470401383-00&ServiceCd=170&Type=search", "url2": "https://ast-crew.jp/" }, "geometry": { "type": "Point", "coordinates": [ 130.924936600000024, 33.3232459 ] } },
{ "type": "Feature", "properties": { "内容": "福祉用具・朋友【福祉用具貸与】大分県日田市城町１丁目3-19", "url": "https://www.kaigokensaku.mhlw.go.jp/44/index.php?action_kouhyou_detail_004_kani=true&JigyosyoCd=4470400401-00&ServiceCd=170&Type=search", "url2": "http://www.houyou-hita.jp/" }, "geometry": { "type": "Point", "coordinates": [ 130.939902, 33.3282487 ] } },
{ "type": "Feature", "properties": { "内容": "クローバー日田営業所【福祉用具貸与】大分県日田市北友田1丁目1352-1", "url": "https://www.kaigokensaku.mhlw.go.jp/44/index.php?action_kouhyou_detail_004_kani=true&JigyosyoCd=4470401664-00&ServiceCd=170&Type=search", "url2": "https://www.clover-w.co.jp/company.html" }, "geometry": { "type": "Point", "coordinates": [ 130.918320200000011, 33.3256061 ] } },
{ "type": "Feature", "properties": { "内容": "環世維　株式会社【福祉用具貸与】大分県日田市田島本町2番13号", "url": "https://www.kaigokensaku.mhlw.go.jp/44/index.php?action_kouhyou_detail_004_kani=true&JigyosyoCd=4470400062-00&ServiceCd=170&Type=search", "url2": null }, "geometry": { "type": "Point", "coordinates": [ 130.938796700000012, 33.318844 ] } },
{ "type": "Feature", "properties": { "内容": "日田市社協介護保険サービスセンター「ひた」【福祉用具貸与】大分県日田市上城内町1番8号日田市総合保健福祉センター（ウェルピア）3階", "url": "https://www.kaigokensaku.mhlw.go.jp/44/index.php?action_kouhyou_detail_004_kani=true&JigyosyoCd=4470400054-00&ServiceCd=170&Type=search", "url2": "http://www.hitashakyo.jp" }, "geometry": { "type": "Point", "coordinates": [ 130.941372377909801, 33.324208700413109 ] } },
{ "type": "Feature", "properties": { "内容": "有限会社　環彩【福祉用具貸与】大字日高1060番地10いろは館", "url": "https://www.kaigokensaku.mhlw.go.jp/44/index.php?action_kouhyou_detail_004_kani=true&JigyosyoCd=4470400633-00&ServiceCd=170&Type=search", "url2": "http;//kaigolease.com/" }, "geometry": { "type": "Point", "coordinates": [ 130.944377, 33.3080173 ] } },
{ "type": "Feature", "properties": { "内容": "有限会社　ハピネス【福祉用具貸与】大分県佐伯市長島町３丁目２０番１０号", "url": "https://www.kaigokensaku.mhlw.go.jp/44/index.php?action_kouhyou_detail_004_kani=true&JigyosyoCd=4470500341-00&ServiceCd=170&Type=search", "url2": null }, "geometry": { "type": "Point", "coordinates": [ 131.907848599999966, 32.9564788 ] } },
{ "type": "Feature", "properties": { "内容": "ライフケア楽ぞう【福祉用具貸与】佐伯市鶴望下川成116-17", "url": "https://www.kaigokensaku.mhlw.go.jp/44/index.php?action_kouhyou_detail_004_kani=true&JigyosyoCd=4470501182-00&ServiceCd=170&Type=search", "url2": null }, "geometry": { "type": "Point", "coordinates": [ 131.87076010681335, 32.959772773493519 ] } },
{ "type": "Feature", "properties": { "内容": "株式会社　サンヘルプ【福祉用具貸与】大分県佐伯市鶴岡西町1丁目291番地", "url": "https://www.kaigokensaku.mhlw.go.jp/44/index.php?action_kouhyou_detail_004_kani=true&JigyosyoCd=4470500085-00&ServiceCd=170&Type=search", "url2": "http://www.sanhelp.net" }, "geometry": { "type": "Point", "coordinates": [ 131.866435, 32.9625991 ] } },
{ "type": "Feature", "properties": { "内容": "九州福祉医療サービス株式会社　佐伯支店【福祉用具貸与】大分県佐伯市鶴岡西町2丁目272番地", "url": "https://www.kaigokensaku.mhlw.go.jp/44/index.php?action_kouhyou_detail_004_kani=true&JigyosyoCd=4470500457-00&ServiceCd=170&Type=search", "url2": "http://www.kyufuku.com" }, "geometry": { "type": "Point", "coordinates": [ 131.863835399999971, 32.9581384 ] } },
{ "type": "Feature", "properties": { "内容": "ＪＡおおいた　佐伯福祉サービスセンター　福祉用具貸与事業所【福祉用具貸与】大分県佐伯市長島町１－２－４", "url": "https://www.kaigokensaku.mhlw.go.jp/44/index.php?action_kouhyou_detail_004_kani=true&JigyosyoCd=4470500994-00&ServiceCd=170&Type=search", "url2": null }, "geometry": { "type": "Point", "coordinates": [ 131.9048709, 32.9642139 ] } },
{ "type": "Feature", "properties": { "内容": "ＪＡおおいた南部福祉用具事業所【福祉用具貸与】大分県臼杵市大字野田297-1", "url": "https://www.kaigokensaku.mhlw.go.jp/44/index.php?action_kouhyou_detail_004_kani=true&JigyosyoCd=4470600638-00&ServiceCd=170&Type=search", "url2": null }, "geometry": { "type": "Point", "coordinates": [ 131.780069841645712, 33.109845769517499 ] } },
{ "type": "Feature", "properties": { "内容": "メディケアサポート【福祉用具貸与】大分県臼杵市大字臼杵字洲崎７２番地３２", "url": "https://www.kaigokensaku.mhlw.go.jp/44/index.php?action_kouhyou_detail_004_kani=true&JigyosyoCd=4470600786-00&ServiceCd=170&Type=search", "url2": "http://hiiragikai.or.jp/" }, "geometry": { "type": "Point", "coordinates": [ 131.805454899999972, 33.1255477 ] } },
{ "type": "Feature", "properties": { "内容": "株式会社　マツモト・メディカル【福祉用具貸与】大分県臼杵市大字江無田１４８４番地の４", "url": "https://www.kaigokensaku.mhlw.go.jp/44/index.php?action_kouhyou_detail_004_kani=true&JigyosyoCd=4470600240-00&ServiceCd=170&Type=search", "url2": "http://www.MatsumotoMed.co.jp" }, "geometry": { "type": "Point", "coordinates": [ 131.78255450000006, 33.1279492 ] } },
{ "type": "Feature", "properties": { "内容": "マルコ商事株式会社シルバーケア事業部【福祉用具貸与】大分県津久見市大字上青江3773番地7", "url": "https://www.kaigokensaku.mhlw.go.jp/44/index.php?action_kouhyou_detail_004_kani=true&JigyosyoCd=4470700115-00&ServiceCd=170&Type=search", "url2": "ｈｔｔｐ://www.maruko-shoji.jp" }, "geometry": { "type": "Point", "coordinates": [ 131.838408800000025, 33.0839672 ] } },
{ "type": "Feature", "properties": { "内容": "すいおん福祉用具貸与事業所【福祉用具貸与】大分県竹田市大字挾田６７０", "url": "https://www.kaigokensaku.mhlw.go.jp/44/index.php?action_kouhyou_detail_004_kani=true&JigyosyoCd=4470800212-00&ServiceCd=170&Type=search", "url2": null }, "geometry": { "type": "Point", "coordinates": [ 131.403449, 32.978008 ] } },
{ "type": "Feature", "properties": { "内容": "介護ショップあわや　竹田事業所【福祉用具貸与】大分県竹田市竹田町389番地1", "url": "https://www.kaigokensaku.mhlw.go.jp/44/index.php?action_kouhyou_detail_004_kani=true&JigyosyoCd=4470800220-00&ServiceCd=170&Type=search", "url2": "http://awaya-fukushi.com" }, "geometry": { "type": "Point", "coordinates": [ 131.392741600000022, 32.9669677 ] } },
{ "type": "Feature", "properties": { "内容": "有限会社　池辺　陶器店【福祉用具貸与】大分県竹田市大字竹田町229番地", "url": "https://www.kaigokensaku.mhlw.go.jp/44/index.php?action_kouhyou_detail_004_kani=true&JigyosyoCd=4470800121-00&ServiceCd=170&Type=search", "url2": null }, "geometry": { "type": "Point", "coordinates": [ 131.393908199999942, 32.9669899 ] } },
{ "type": "Feature", "properties": { "内容": "ケアショップオリーブ【福祉用具貸与】大分県豊後高田市新地1157番地ケアプレイスオリーブ", "url": "https://www.kaigokensaku.mhlw.go.jp/44/index.php?action_kouhyou_detail_004_kani=true&JigyosyoCd=4470900178-00&ServiceCd=170&Type=search", "url2": "http://olive-care.com/" }, "geometry": { "type": "Point", "coordinates": [ 131.439779899999962, 33.5537768 ] } },
{ "type": "Feature", "properties": { "内容": "有限会社　かのう【福祉用具貸与】豊後高田市　田染　真中　88", "url": "https://www.kaigokensaku.mhlw.go.jp/44/index.php?action_kouhyou_detail_004_kani=true&JigyosyoCd=4470900194-00&ServiceCd=170&Type=search", "url2": "http://4r-kanou.jp/" }, "geometry": { "type": "Point", "coordinates": [ 131.516060700000054, 33.5166123 ] } },
{ "type": "Feature", "properties": { "内容": "株式会社ＪＡいこいの村生活福祉センター【福祉用具貸与】大分県杵築市大字大内7707番地2", "url": "https://www.kaigokensaku.mhlw.go.jp/44/index.php?action_kouhyou_detail_004_kani=true&JigyosyoCd=4471000556-00&ServiceCd=170&Type=search", "url2": null }, "geometry": { "type": "Point", "coordinates": [ 131.6319294, 33.4241979 ] } },
{ "type": "Feature", "properties": { "内容": "ハートケア　えがお【福祉用具貸与】大分県宇佐市大字下高家５７５番地の３", "url": "https://www.kaigokensaku.mhlw.go.jp/44/index.php?action_kouhyou_detail_004_kani=true&JigyosyoCd=4471100976-00&ServiceCd=170&Type=search", "url2": null }, "geometry": { "type": "Point", "coordinates": [ 131.3064412, 33.5746357 ] } },
{ "type": "Feature", "properties": { "内容": "ひびきレンタル【福祉用具貸与】大分県宇佐市大字四日市４４４２番地１", "url": "https://www.kaigokensaku.mhlw.go.jp/44/index.php?action_kouhyou_detail_004_kani=true&JigyosyoCd=4471101057-00&ServiceCd=170&Type=search", "url2": "http://www.meihokai.or.jp" }, "geometry": { "type": "Point", "coordinates": [ 131.318925300000046, 33.5229026 ] } },
{ "type": "Feature", "properties": { "内容": "有限会社ブループランニング【福祉用具貸与】大分県宇佐市大字葛原628番地の14", "url": "https://www.kaigokensaku.mhlw.go.jp/44/index.php?action_kouhyou_detail_004_kani=true&JigyosyoCd=4471101537-00&ServiceCd=170&Type=search", "url2": null }, "geometry": { "type": "Point", "coordinates": [ 131.333646888885539, 33.536339299955522 ] } },
{ "type": "Feature", "properties": { "内容": "福祉用具レンタル　Raid【福祉用具貸与】大分県宇佐市大字上乙女６９９番地", "url": "https://www.kaigokensaku.mhlw.go.jp/44/index.php?action_kouhyou_detail_004_kani=true&JigyosyoCd=4471101586-00&ServiceCd=170&Type=search", "url2": null }, "geometry": { "type": "Point", "coordinates": [ 131.3389048, 33.5603207 ] } },
{ "type": "Feature", "properties": { "内容": "ハートケアえがお【福祉用具貸与】大分県宇佐市大字樋田47番地パープル樋田4号", "url": "https://www.kaigokensaku.mhlw.go.jp/44/index.php?action_kouhyou_detail_004_kani=true&JigyosyoCd=4471200776-00&ServiceCd=170&Type=search", "url2": null }, "geometry": { "type": "Point", "coordinates": [ 131.3415678, 33.5259196 ] } },
{ "type": "Feature", "properties": { "内容": "福祉用具　玄々【福祉用具貸与】大分県宇佐市大字石田141番地", "url": "https://www.kaigokensaku.mhlw.go.jp/44/index.php?action_kouhyou_detail_004_kani=true&JigyosyoCd=4470300668-00&ServiceCd=170&Type=search", "url2": "https://ag-holdings.jp/actcare/PDF/fukushiyougu_gengen.pdf" }, "geometry": { "type": "Point", "coordinates": [ 131.334215299999983, 33.532488100000016 ] } },
{ "type": "Feature", "properties": { "内容": "株式会社　セカンドケア【福祉用具貸与】大分県宇佐市大字下高家202番地", "url": "https://www.kaigokensaku.mhlw.go.jp/44/index.php?action_kouhyou_detail_004_kani=true&JigyosyoCd=4470202534-00&ServiceCd=170&Type=search", "url2": "https://www.second-care.com/" }, "geometry": { "type": "Point", "coordinates": [ 131.298094045798706, 33.576491343453405 ] } },
{ "type": "Feature", "properties": { "内容": "株式会社エヴァ・ライフ　ベストケア宇佐【福祉用具貸与】大分県宇佐市大字四日市字駄廻408-1", "url": "https://www.kaigokensaku.mhlw.go.jp/44/index.php?action_kouhyou_detail_004_kani=true&JigyosyoCd=4471101388-00&ServiceCd=170&Type=search", "url2": "http://evahlife.jp/" }, "geometry": { "type": "Point", "coordinates": [ 131.32262449708287, 33.535970481481137 ] } },
{ "type": "Feature", "properties": { "内容": "ＪＡおおいた北部福祉用具事業所【福祉用具貸与】大分県宇佐市大字長洲９２１番地の３", "url": "https://www.kaigokensaku.mhlw.go.jp/44/index.php?action_kouhyou_detail_004_kani=true&JigyosyoCd=4471101222-00&ServiceCd=170&Type=search", "url2": null }, "geometry": { "type": "Point", "coordinates": [ 131.38421070000004, 33.565455 ] } },
{ "type": "Feature", "properties": { "内容": "有限会社オーツー【福祉用具貸与】大分県宇佐市大字下元重92番地の22", "url": "https://www.kaigokensaku.mhlw.go.jp/44/index.php?action_kouhyou_detail_004_kani=true&JigyosyoCd=4470900186-00&ServiceCd=170&Type=search", "url2": null }, "geometry": { "type": "Point", "coordinates": [ 131.312037, 33.523805099999983 ] } },
{ "type": "Feature", "properties": { "内容": "徳永装器【福祉用具貸与】大分県宇佐市大字大根川３１８番地", "url": "https://www.kaigokensaku.mhlw.go.jp/44/index.php?action_kouhyou_detail_004_kani=true&JigyosyoCd=4471100554-00&ServiceCd=170&Type=search", "url2": "https://tokso.net/" }, "geometry": { "type": "Point", "coordinates": [ 131.282352899999978, 33.5444573 ] } },
{ "type": "Feature", "properties": { "内容": "株式会社　ダイトー【福祉用具貸与】大分県豊後大野市三重町市場405番地", "url": "https://www.kaigokensaku.mhlw.go.jp/44/index.php?action_kouhyou_detail_004_kani=true&JigyosyoCd=4471200594-00&ServiceCd=170&Type=search", "url2": null }, "geometry": { "type": "Point", "coordinates": [ 131.584555499999965, 32.981491200000022 ] } },
{ "type": "Feature", "properties": { "内容": "ケアステーションおおの【福祉用具貸与】大分県豊後大野市三重町菅生１番地154", "url": "https://www.kaigokensaku.mhlw.go.jp/44/index.php?action_kouhyou_detail_004_kani=true&JigyosyoCd=4472600818-00&ServiceCd=170&Type=search", "url2": null }, "geometry": { "type": "Point", "coordinates": [ 131.618757499999987, 32.9982409 ] } },
{ "type": "Feature", "properties": { "内容": "介護ショップあわや【福祉用具貸与】大分県豊後大野市朝地町下野747番地1", "url": "https://www.kaigokensaku.mhlw.go.jp/44/index.php?action_kouhyou_detail_004_kani=true&JigyosyoCd=4471200396-00&ServiceCd=170&Type=search", "url2": "http://www.awaya-fukushi.com" }, "geometry": { "type": "Point", "coordinates": [ 131.454303992642764, 33.0028981166177 ] } },
{ "type": "Feature", "properties": { "内容": "株式会社　ナガヨシ【福祉用具貸与】大分県豊後大野市緒方町馬場31番地1", "url": "https://www.kaigokensaku.mhlw.go.jp/44/index.php?action_kouhyou_detail_004_kani=true&JigyosyoCd=4472600701-00&ServiceCd=170&Type=search", "url2": "https://www.nagayoshi.info/" }, "geometry": { "type": "Point", "coordinates": [ 131.47444530000007, 32.971397 ] } },
{ "type": "Feature", "properties": { "内容": "帰巖会福祉用具センター【福祉用具貸与】大分県豊後大野市三重町市場1163番地", "url": "https://www.kaigokensaku.mhlw.go.jp/44/index.php?action_kouhyou_detail_004_kani=true&JigyosyoCd=4471200768-00&ServiceCd=170&Type=search", "url2": "http://www.kigankai.or.jp/" }, "geometry": { "type": "Point", "coordinates": [ 131.5830585, 32.9777999 ] } },
{ "type": "Feature", "properties": { "内容": "合同会社みゅーず【福祉用具貸与】大分県由布市挾間町挟間３９９番地", "url": "https://www.kaigokensaku.mhlw.go.jp/44/index.php?action_kouhyou_detail_004_kani=true&JigyosyoCd=4471300501-00&ServiceCd=170&Type=search", "url2": null }, "geometry": { "type": "Point", "coordinates": [ 131.514946900000041, 33.2014518 ] } },
{ "type": "Feature", "properties": { "内容": "株式会社大分白屋　介護事業部【福祉用具貸与】大分県由布市挾間町下市285-1", "url": "https://www.kaigokensaku.mhlw.go.jp/44/index.php?action_kouhyou_detail_004_kani=true&JigyosyoCd=4471300121-00&ServiceCd=170&Type=search", "url2": "http://www.d-shiroya.jp/" }, "geometry": { "type": "Point", "coordinates": [ 131.528004199999941, 33.1986803 ] } },
{ "type": "Feature", "properties": { "内容": "スマイルライフ【福祉用具貸与】大分県由布市庄内町東長宝５０５番３", "url": "https://www.kaigokensaku.mhlw.go.jp/44/index.php?action_kouhyou_detail_004_kani=true&JigyosyoCd=4472300773-00&ServiceCd=170&Type=search", "url2": null }, "geometry": { "type": "Point", "coordinates": [ 131.455234300000029, 33.1837803 ] } },
{ "type": "Feature", "properties": { "内容": "国東中央福祉センター福祉用具貸与事業所【福祉用具貸与】大分県国東市国東町北江３２４５－４", "url": "https://www.kaigokensaku.mhlw.go.jp/44/index.php?action_kouhyou_detail_004_kani=true&JigyosyoCd=4471400178-00&ServiceCd=170&Type=search", "url2": null }, "geometry": { "type": "Point", "coordinates": [ 131.7230535, 33.5880305 ] } },
{ "type": "Feature", "properties": { "内容": "ウェルビーイング国見【福祉用具貸与】大分県国東市国見町伊美1968番地", "url": "https://www.kaigokensaku.mhlw.go.jp/44/index.php?action_kouhyou_detail_004_kani=true&JigyosyoCd=4471400418-00&ServiceCd=170&Type=search", "url2": "https://nihoukai-kunimi.com/" }, "geometry": { "type": "Point", "coordinates": [ 131.5953132, 33.6856459 ] } },
{ "type": "Feature", "properties": { "内容": "姫島村福祉用具貸与事業所【福祉用具貸与】大分県東国東郡姫島村560番地の1", "url": "https://www.kaigokensaku.mhlw.go.jp/44/index.php?action_kouhyou_detail_004_kani=true&JigyosyoCd=4472100579-00&ServiceCd=170&Type=search", "url2": null }, "geometry": { "type": "Point", "coordinates": [ 131.645139, 33.7245374 ] } },
{ "type": "Feature", "properties": { "内容": "有限会社　介護ショップゴロちゃん【福祉用具貸与】大分県速見郡日出町大字大神8085番地", "url": "https://www.kaigokensaku.mhlw.go.jp/44/index.php?action_kouhyou_detail_004_kani=true&JigyosyoCd=4472200346-00&ServiceCd=170&Type=search", "url2": "http://www.gorochan-kaigo.sakura.ne.jp/?utm_source=kd" }, "geometry": { "type": "Point", "coordinates": [ 131.581703800000014, 33.3737744 ] } },
{ "type": "Feature", "properties": { "内容": "ＪＡ九重町飯田高齢者福祉用具センター【福祉用具貸与】大分県玖珠郡九重町大字田野1726-295", "url": "https://www.kaigokensaku.mhlw.go.jp/44/index.php?action_kouhyou_detail_004_kani=true&JigyosyoCd=4472800442-00&ServiceCd=170&Type=search", "url2": null }, "geometry": { "type": "Point", "coordinates": [ 131.240609899999981, 33.1566257 ] } },
{ "type": "Feature", "properties": { "内容": "ケアショップ・ドット【福祉用具貸与】大字塚脇２６０番地石田ビル　３Ｆ", "url": "https://www.kaigokensaku.mhlw.go.jp/44/index.php?action_kouhyou_detail_004_kani=true&JigyosyoCd=4472800541-00&ServiceCd=170&Type=search", "url2": null }, "geometry": { "type": "Point", "coordinates": [ 131.15288350000003, 33.2754856 ] } },
{ "type": "Feature", "properties": { "内容": "有限会社　家具の梶原【福祉用具貸与】大分県玖珠郡玖珠町大字塚脇447-17", "url": "https://www.kaigokensaku.mhlw.go.jp/44/index.php?action_kouhyou_detail_004_kani=true&JigyosyoCd=4472800202-00&ServiceCd=170&Type=search", "url2": null }, "geometry": { "type": "Point", "coordinates": [ 131.156155600000034, 33.2741359 ] } }
]
}
