{
"type": "FeatureCollection",
"name": "geo_44_看護小規模多機能型居宅介護（複合型サービス）",
"crs": { "type": "name", "properties": { "name": "urn:ogc:def:crs:OGC:1.3:CRS84" } },
"features": [
{ "type": "Feature", "properties": { "内容": "指定看護小規模多機能型居宅介護事業所【看護小規模多機能型居宅介護（複合型サービス）】大分市大字下宗方櫛引２５８番地", "url": "https://www.kaigokensaku.mhlw.go.jp/44/index.php?action_kouhyou_detail_004_kani=true&JigyosyoCd=4490100676-00&ServiceCd=&Type=search", "url2": "http://oita-hoyu.com" }, "geometry": { "type": "Point", "coordinates": [ 131.589577, 33.1956593 ] } },
{ "type": "Feature", "properties": { "内容": "複合型サービスゆいまーる【看護小規模多機能型居宅介護（複合型サービス）】大分県大分市高江北2丁目4712-8", "url": "https://www.kaigokensaku.mhlw.go.jp/44/index.php?action_kouhyou_detail_004_kani=true&JigyosyoCd=4490100593-00&ServiceCd=&Type=search", "url2": "http://www.oita-yuima-ru.com/" }, "geometry": { "type": "Point", "coordinates": [ 131.61516180000001, 33.1690705 ] } },
{ "type": "Feature", "properties": { "内容": "セントケア看護小規模大分古国府【看護小規模多機能型居宅介護（複合型サービス）】大分県大分市古国府三丁目12番6号", "url": "https://www.kaigokensaku.mhlw.go.jp/44/index.php?action_kouhyou_detail_004_kani=true&JigyosyoCd=4490100718-00&ServiceCd=&Type=search", "url2": "http://www.saint-care.com" }, "geometry": { "type": "Point", "coordinates": [ 131.605208038006964, 33.217723392774815 ] } },
{ "type": "Feature", "properties": { "内容": "看多機かえりえ鶴崎【看護小規模多機能型居宅介護（複合型サービス）】大分県大分市北鶴崎1-4-8", "url": "https://www.kaigokensaku.mhlw.go.jp/44/index.php?action_kouhyou_detail_004_kani=true&JigyosyoCd=4490101237-00&ServiceCd=&Type=search", "url2": "caerie_tsurusaki@yasashiite.com" }, "geometry": { "type": "Point", "coordinates": [ 131.688397068122867, 33.241943828852314 ] } },
{ "type": "Feature", "properties": { "内容": "看護小規模多機能型居宅介護　そら【看護小規模多機能型居宅介護（複合型サービス）】大分県大分市大字小池原1021番地", "url": "https://www.kaigokensaku.mhlw.go.jp/44/index.php?action_kouhyou_detail_004_kani=true&JigyosyoCd=4490100759-00&ServiceCd=&Type=search", "url2": "https://keiwakai.oita.jp" }, "geometry": { "type": "Point", "coordinates": [ 131.661845699999958, 33.2353043 ] } },
{ "type": "Feature", "properties": { "内容": "看護多機能ホームふじっこ【看護小規模多機能型居宅介護（複合型サービス）】大分県大分市大字田尻字高尾783-1", "url": "https://www.kaigokensaku.mhlw.go.jp/44/index.php?action_kouhyou_detail_004_kani=true&JigyosyoCd=4490100619-00&ServiceCd=&Type=search", "url2": "http://san-ai-kai.or.jp/" }, "geometry": { "type": "Point", "coordinates": [ 131.597372671927559, 33.184737500085937 ] } },
{ "type": "Feature", "properties": { "内容": "和みの家　いきいきカフェ【看護小規模多機能型居宅介護（複合型サービス）】大分県大分市緑が丘４丁目４－１", "url": "https://www.kaigokensaku.mhlw.go.jp/44/index.php?action_kouhyou_detail_004_kani=true&JigyosyoCd=4490100569-00&ServiceCd=&Type=search", "url2": null }, "geometry": { "type": "Point", "coordinates": [ 131.530571099999946, 33.1842293 ] } },
{ "type": "Feature", "properties": { "内容": "すくすくいきいき村　空と山【看護小規模多機能型居宅介護（複合型サービス）】大分県大分市緑が丘5-23-1すくすくいきいき村", "url": "https://www.kaigokensaku.mhlw.go.jp/44/index.php?action_kouhyou_detail_004_kani=true&JigyosyoCd=4490101260-00&ServiceCd=&Type=search", "url2": "https://sukuiki.com/" }, "geometry": { "type": "Point", "coordinates": [ 131.5265082, 33.1773397 ] } },
{ "type": "Feature", "properties": { "内容": "複合型サービスくろき【看護小規模多機能型居宅介護（複合型サービス）】大分県別府市平田町2番2号", "url": "https://www.kaigokensaku.mhlw.go.jp/44/index.php?action_kouhyou_detail_004_kani=true&JigyosyoCd=4490200229-00&ServiceCd=&Type=search", "url2": "http://www.kuroki-hp.or.jp" }, "geometry": { "type": "Point", "coordinates": [ 131.497468900000058, 33.3201942 ] } },
{ "type": "Feature", "properties": { "内容": "かんごしょうきぼたきのうがたきょたくかいごかいらくえん【看護小規模多機能型居宅介護（複合型サービス）】大分県別府市南荘園町4番18号エクラシア偕楽園", "url": "https://www.kaigokensaku.mhlw.go.jp/44/index.php?action_kouhyou_detail_004_kani=true&JigyosyoCd=4490200336-00&ServiceCd=&Type=search", "url2": "https://kikakukai.com/" }, "geometry": { "type": "Point", "coordinates": [ 131.480623774794537, 33.287483782880038 ] } },
{ "type": "Feature", "properties": { "内容": "看多機かえりえ中津【看護小規模多機能型居宅介護（複合型サービス）】大字下池永826", "url": "https://www.kaigokensaku.mhlw.go.jp/44/index.php?action_kouhyou_detail_004_kani=true&JigyosyoCd=4490300334-00&ServiceCd=&Type=search", "url2": "http://www.yasashiite.com" }, "geometry": { "type": "Point", "coordinates": [ 131.220447900000011, 33.587446 ] } },
{ "type": "Feature", "properties": { "内容": "看護小規模多機能型居宅介護　青藍【看護小規模多機能型居宅介護（複合型サービス）】大分県日田市日高町1471番地1", "url": "https://www.kaigokensaku.mhlw.go.jp/44/index.php?action_kouhyou_detail_004_kani=true&JigyosyoCd=4490400274-00&ServiceCd=&Type=search", "url2": "shusuido.or.jp" }, "geometry": { "type": "Point", "coordinates": [ 130.955687828558354, 33.303711246700828 ] } },
{ "type": "Feature", "properties": { "内容": "看護・介護総合サービス　佐伯の太陽【看護小規模多機能型居宅介護（複合型サービス）】大分県佐伯市駅前１丁目1-11地域包括ケアセンター佐伯の太陽", "url": "https://www.kaigokensaku.mhlw.go.jp/44/index.php?action_kouhyou_detail_004_kani=true&JigyosyoCd=4490500289-00&ServiceCd=&Type=search", "url2": "http://www.saikichuo.net" }, "geometry": { "type": "Point", "coordinates": [ 131.904434600000059, 32.9700688 ] } },
{ "type": "Feature", "properties": { "内容": "看護小規模多機能型居宅介護　つなぐ【看護小規模多機能型居宅介護（複合型サービス）】大分県佐伯市中の島3丁目12-27", "url": "https://www.kaigokensaku.mhlw.go.jp/44/index.php?action_kouhyou_detail_004_kani=true&JigyosyoCd=4490500354-00&ServiceCd=&Type=search", "url2": null }, "geometry": { "type": "Point", "coordinates": [ 131.9014455, 32.9517117 ] } },
{ "type": "Feature", "properties": { "内容": "複合型サービス安住【看護小規模多機能型居宅介護（複合型サービス）】大分県臼杵市大字深田676番地", "url": "https://www.kaigokensaku.mhlw.go.jp/44/index.php?action_kouhyou_detail_004_kani=true&JigyosyoCd=4490600055-00&ServiceCd=&Type=search", "url2": null }, "geometry": { "type": "Point", "coordinates": [ 131.7647786, 33.0949885 ] } },
{ "type": "Feature", "properties": { "内容": "デイサービスセンター喫茶去津久見【看護小規模多機能型居宅介護（複合型サービス）】大分県津久見市大字千怒字新地6201番地", "url": "https://www.kaigokensaku.mhlw.go.jp/44/index.php?action_kouhyou_detail_004_kani=true&JigyosyoCd=4470700271-00&ServiceCd=&Type=search", "url2": null }, "geometry": { "type": "Point", "coordinates": [ 131.887388, 33.0635489 ] } },
{ "type": "Feature", "properties": { "内容": "看護小規模多機能型居宅介護施設　ひまわりハウス【看護小規模多機能型居宅介護（複合型サービス）】大分県杵築市大字大内字塩浜7701番地1", "url": "https://www.kaigokensaku.mhlw.go.jp/44/index.php?action_kouhyou_detail_004_kani=true&JigyosyoCd=4491000115-00&ServiceCd=&Type=search", "url2": "http://etoh-g.jp/" }, "geometry": { "type": "Point", "coordinates": [ 131.632143300000052, 33.4229619 ] } }
]
}
