{
"type": "FeatureCollection",
"name": "geo_44_幼稚園",
"crs": { "type": "name", "properties": { "name": "urn:ogc:def:crs:EPSG::6668" } },
"features": [
{ "type": "Feature", "properties": { "P29_001": "44201", "P29_002": "A144110000011", "P29_003": "16011", "P29_004": "大分大学教育学部附属幼稚園", "P29_005": "大分県大分市王子新町1-1", "P29_006": "1", "P29_007": "0", "P29_008": "00", "P29_009": null }, "geometry": { "type": "Point", "coordinates": [ 131.592237865816571, 33.237969317794651 ] } },
{ "type": "Feature", "properties": { "P29_001": "44201", "P29_002": "A144210000037", "P29_003": "16011", "P29_004": "大分市立滝尾幼稚園", "P29_005": "大分県大分市羽田515-1", "P29_006": "3", "P29_007": "0", "P29_008": "00", "P29_009": null }, "geometry": { "type": "Point", "coordinates": [ 131.63320814582471, 33.213469926371481 ] } },
{ "type": "Feature", "properties": { "P29_001": "44201", "P29_002": "A144210000055", "P29_003": "16011", "P29_004": "大分市立春日町幼稚園", "P29_005": "大分県大分市西春日町1-48", "P29_006": "3", "P29_007": "0", "P29_008": "00", "P29_009": null }, "geometry": { "type": "Point", "coordinates": [ 131.597075302516942, 33.239832141924076 ] } },
{ "type": "Feature", "properties": { "P29_001": "44201", "P29_002": "A144210000073", "P29_003": "16011", "P29_004": "大分市立宗方幼稚園", "P29_005": "大分県大分市松が丘1-24-2", "P29_006": "3", "P29_007": "0", "P29_008": "00", "P29_009": null }, "geometry": { "type": "Point", "coordinates": [ 131.576840710662879, 33.204816063725033 ] } },
{ "type": "Feature", "properties": { "P29_001": "44201", "P29_002": "A144210000108", "P29_003": "16011", "P29_004": "大分市立大在幼稚園", "P29_005": "大分県大分市横田1-15-16", "P29_006": "3", "P29_007": "0", "P29_008": "00", "P29_009": null }, "geometry": { "type": "Point", "coordinates": [ 131.718727149606735, 33.248873682884536 ] } },
{ "type": "Feature", "properties": { "P29_001": "44202", "P29_002": "A144210000117", "P29_003": "16011", "P29_004": "別府市立南立石幼稚園", "P29_005": "大分県別府市大字南立石1907-1", "P29_006": "3", "P29_007": "0", "P29_008": "00", "P29_009": null }, "geometry": { "type": "Point", "coordinates": [ 131.473627335584297, 33.288721673313624 ] } },
{ "type": "Feature", "properties": { "P29_001": "44202", "P29_002": "A144210000126", "P29_003": "16011", "P29_004": "別府市立亀川幼稚園", "P29_005": "大分県別府市大字亀川24-1", "P29_006": "3", "P29_007": "0", "P29_008": "00", "P29_009": null }, "geometry": { "type": "Point", "coordinates": [ 131.490785998850271, 33.330479003355052 ] } },
{ "type": "Feature", "properties": { "P29_001": "44202", "P29_002": "A144210000135", "P29_003": "16011", "P29_004": "別府市立朝日幼稚園", "P29_005": "大分県別府市大字鶴見347", "P29_006": "3", "P29_007": "0", "P29_008": "00", "P29_009": null }, "geometry": { "type": "Point", "coordinates": [ 131.475227718812562, 33.309418156049524 ] } },
{ "type": "Feature", "properties": { "P29_001": "44202", "P29_002": "A144210000144", "P29_003": "16011", "P29_004": "別府市立石垣幼稚園", "P29_005": "大分県別府市石垣西7-6-7", "P29_006": "3", "P29_007": "0", "P29_008": "00", "P29_009": null }, "geometry": { "type": "Point", "coordinates": [ 131.49316899911102, 33.299812002519786 ] } },
{ "type": "Feature", "properties": { "P29_001": "44202", "P29_002": "A144210000153", "P29_003": "16011", "P29_004": "別府市立境川幼稚園", "P29_005": "大分県別府市石垣西1-2-43", "P29_006": "3", "P29_007": "0", "P29_008": "00", "P29_009": null }, "geometry": { "type": "Point", "coordinates": [ 131.49361511478881, 33.290240195097745 ] } },
{ "type": "Feature", "properties": { "P29_001": "44202", "P29_002": "A144210000162", "P29_003": "16011", "P29_004": "別府市立上人幼稚園", "P29_005": "大分県別府市大字北石垣171", "P29_006": "3", "P29_007": "0", "P29_008": "00", "P29_009": null }, "geometry": { "type": "Point", "coordinates": [ 131.491961737070142, 33.315760739077362 ] } },
{ "type": "Feature", "properties": { "P29_001": "44203", "P29_002": "A144210000171", "P29_003": "16011", "P29_004": "中津市立南部幼稚園", "P29_005": "大分県中津市1282-1", "P29_006": "3", "P29_007": "0", "P29_008": "00", "P29_009": null }, "geometry": { "type": "Point", "coordinates": [ 131.186442228988, 33.604802007627853 ] } },
{ "type": "Feature", "properties": { "P29_001": "44203", "P29_002": "A144210000180", "P29_003": "16011", "P29_004": "中津市立北部幼稚園", "P29_005": "大分県中津市大字大塚20-9", "P29_006": "3", "P29_007": "0", "P29_008": "00", "P29_009": null }, "geometry": { "type": "Point", "coordinates": [ 131.195323456785047, 33.605877318157646 ] } },
{ "type": "Feature", "properties": { "P29_001": "44203", "P29_002": "A144210000199", "P29_003": "16011", "P29_004": "中津市立豊田幼稚園", "P29_005": "大分県中津市大字島田699", "P29_006": "3", "P29_007": "0", "P29_008": "00", "P29_009": null }, "geometry": { "type": "Point", "coordinates": [ 131.185328108466194, 33.599233702399644 ] } },
{ "type": "Feature", "properties": { "P29_001": "44203", "P29_002": "A144210000206", "P29_003": "16011", "P29_004": "中津市立小楠幼稚園", "P29_005": "大分県中津市大字宮夫55-1", "P29_006": "3", "P29_007": "0", "P29_008": "00", "P29_009": null }, "geometry": { "type": "Point", "coordinates": [ 131.210082989790493, 33.594148787781094 ] } },
{ "type": "Feature", "properties": { "P29_001": "44203", "P29_002": "A144210000215", "P29_003": "16011", "P29_004": "中津市立鶴居幼稚園", "P29_005": "大分県中津市大字湯屋209-1", "P29_006": "3", "P29_007": "0", "P29_008": "00", "P29_009": null }, "geometry": { "type": "Point", "coordinates": [ 131.19045535722455, 33.575096606480081 ] } },
{ "type": "Feature", "properties": { "P29_001": "44203", "P29_002": "A144210000224", "P29_003": "16011", "P29_004": "中津市立大幡幼稚園", "P29_005": "大分県中津市大貞209-2-1", "P29_006": "3", "P29_007": "0", "P29_008": "00", "P29_009": null }, "geometry": { "type": "Point", "coordinates": [ 131.214056850244617, 33.567337330168037 ] } },
{ "type": "Feature", "properties": { "P29_001": "44203", "P29_002": "A144210000233", "P29_003": "16011", "P29_004": "中津市立如水幼稚園", "P29_005": "大分県中津市大字上如水83-1", "P29_006": "3", "P29_007": "0", "P29_008": "00", "P29_009": null }, "geometry": { "type": "Point", "coordinates": [ 131.224775692300142, 33.58394506174178 ] } },
{ "type": "Feature", "properties": { "P29_001": "44203", "P29_002": "A144210000242", "P29_003": "16011", "P29_004": "中津市立三保幼稚園", "P29_005": "大分県中津市大字福島1895", "P29_006": "3", "P29_007": "0", "P29_008": "00", "P29_009": null }, "geometry": { "type": "Point", "coordinates": [ 131.236567277226158, 33.564708891218224 ] } },
{ "type": "Feature", "properties": { "P29_001": "44203", "P29_002": "A144210000251", "P29_003": "16011", "P29_004": "中津市立今津幼稚園", "P29_005": "大分県中津市大字植野1371-2", "P29_006": "3", "P29_007": "0", "P29_008": "00", "P29_009": null }, "geometry": { "type": "Point", "coordinates": [ 131.263697466045386, 33.56971756388927 ] } },
{ "type": "Feature", "properties": { "P29_001": "44205", "P29_002": "A144210000260", "P29_003": "16011", "P29_004": "佐伯市立佐伯幼稚園", "P29_005": "大分県佐伯市城下西町2-45", "P29_006": "3", "P29_007": "0", "P29_008": "00", "P29_009": null }, "geometry": { "type": "Point", "coordinates": [ 131.892910936569251, 32.958517524957429 ] } },
{ "type": "Feature", "properties": { "P29_001": "44205", "P29_002": "A144210000279", "P29_003": "16011", "P29_004": "佐伯市立佐伯東幼稚園", "P29_005": "大分県佐伯市常盤西町5-1", "P29_006": "3", "P29_007": "0", "P29_008": "00", "P29_009": null }, "geometry": { "type": "Point", "coordinates": [ 131.89753011813599, 32.964244811057654 ] } },
{ "type": "Feature", "properties": { "P29_001": "44205", "P29_002": "A144210000288", "P29_003": "16011", "P29_004": "佐伯市立鶴岡幼稚園", "P29_005": "大分県佐伯市鶴岡町3-7-1", "P29_006": "3", "P29_007": "0", "P29_008": "00", "P29_009": null }, "geometry": { "type": "Point", "coordinates": [ 131.875078368411209, 32.960426459131995 ] } },
{ "type": "Feature", "properties": { "P29_001": "44205", "P29_002": "A144210000297", "P29_003": "16011", "P29_004": "佐伯市立八幡幼稚園", "P29_005": "大分県佐伯市大字戸穴2942", "P29_006": "3", "P29_007": "0", "P29_008": "00", "P29_009": null }, "geometry": { "type": "Point", "coordinates": [ 131.891984135013928, 33.002618114549129 ] } },
{ "type": "Feature", "properties": { "P29_001": "44205", "P29_002": "A144210000304", "P29_003": "16011", "P29_004": "佐伯市立木立幼稚園", "P29_005": "大分県佐伯市大字木立4480", "P29_006": "3", "P29_007": "0", "P29_008": "00", "P29_009": null }, "geometry": { "type": "Point", "coordinates": [ 131.930507012325791, 32.920001860666808 ] } },
{ "type": "Feature", "properties": { "P29_001": "44205", "P29_002": "A144210000313", "P29_003": "16011", "P29_004": "佐伯市立下堅田幼稚園", "P29_005": "大分県佐伯市大字堅田5521", "P29_006": "3", "P29_007": "0", "P29_008": "00", "P29_009": null }, "geometry": { "type": "Point", "coordinates": [ 131.875990380334457, 32.924486887817729 ] } },
{ "type": "Feature", "properties": { "P29_001": "44208", "P29_002": "A144210000322", "P29_003": "16011", "P29_004": "竹田市立竹田幼稚園", "P29_005": "大分県竹田市大字会々1636-122", "P29_006": "3", "P29_007": "0", "P29_008": "00", "P29_009": null }, "geometry": { "type": "Point", "coordinates": [ 131.398798337439331, 32.973972957036246 ] } },
{ "type": "Feature", "properties": { "P29_001": "44208", "P29_002": "A144210000331", "P29_003": "16011", "P29_004": "竹田市立南部幼稚園", "P29_005": "大分県竹田市大字君ケ園1158-3", "P29_006": "3", "P29_007": "0", "P29_008": "00", "P29_009": null }, "geometry": { "type": "Point", "coordinates": [ 131.368982876023381, 32.950391321684094 ] } },
{ "type": "Feature", "properties": { "P29_001": "44210", "P29_002": "A144210000340", "P29_003": "16011", "P29_004": "杵築市立杵築幼稚園", "P29_005": "大分県杵築市大字杵築242-1", "P29_006": "3", "P29_007": "0", "P29_008": "00", "P29_009": null }, "geometry": { "type": "Point", "coordinates": [ 131.619198625860463, 33.417526349975084 ] } },
{ "type": "Feature", "properties": { "P29_001": "44210", "P29_002": "A144210000359", "P29_003": "16011", "P29_004": "杵築市立大内幼稚園", "P29_005": "大分県杵築市大字大内4342", "P29_006": "3", "P29_007": "0", "P29_008": "00", "P29_009": null }, "geometry": { "type": "Point", "coordinates": [ 131.627232575081592, 33.426590416163869 ] } },
{ "type": "Feature", "properties": { "P29_001": "44210", "P29_002": "A144210000368", "P29_003": "16011", "P29_004": "杵築市立東幼稚園", "P29_005": "大分県杵築市片野1124", "P29_006": "3", "P29_007": "0", "P29_008": "00", "P29_009": null }, "geometry": { "type": "Point", "coordinates": [ 131.62934325612008, 33.403387936610329 ] } },
{ "type": "Feature", "properties": { "P29_001": "44210", "P29_002": "A144210000386", "P29_003": "16011", "P29_004": "杵築市立八坂幼稚園", "P29_005": "大分県杵築市八坂2786-3", "P29_006": "3", "P29_007": "0", "P29_008": "00", "P29_009": null }, "geometry": { "type": "Point", "coordinates": [ 131.587245996838163, 33.412139001106823 ] } },
{ "type": "Feature", "properties": { "P29_001": "44210", "P29_002": "A144210000395", "P29_003": "16011", "P29_004": "杵築市立北杵築幼稚園", "P29_005": "大分県杵築市大字溝井454", "P29_006": "3", "P29_007": "0", "P29_008": "00", "P29_009": null }, "geometry": { "type": "Point", "coordinates": [ 131.594407781459125, 33.439306262345518 ] } },
{ "type": "Feature", "properties": { "P29_001": "44210", "P29_002": "A144210000402", "P29_003": "16011", "P29_004": "杵築市立守江幼稚園", "P29_005": "大分県杵築市1824-65", "P29_006": "3", "P29_007": "0", "P29_008": "00", "P29_009": null }, "geometry": { "type": "Point", "coordinates": [ 131.66360599785051, 33.422721212260377 ] } },
{ "type": "Feature", "properties": { "P29_001": "44211", "P29_002": "A144210000420", "P29_003": "16011", "P29_004": "宇佐市立四日市幼稚園", "P29_005": "大分県宇佐市大字四日市1338-1", "P29_006": "3", "P29_007": "0", "P29_008": "00", "P29_009": null }, "geometry": { "type": "Point", "coordinates": [ 131.326974627424704, 33.531886810780577 ] } },
{ "type": "Feature", "properties": { "P29_001": "44214", "P29_002": "A144210000448", "P29_003": "16011", "P29_004": "国東市立安岐幼稚園", "P29_005": "大分県国東市安岐町下原2071", "P29_006": "3", "P29_007": "0", "P29_008": "00", "P29_009": null }, "geometry": { "type": "Point", "coordinates": [ 131.719786822074354, 33.467724203503074 ] } },
{ "type": "Feature", "properties": { "P29_001": "44341", "P29_002": "A144210000457", "P29_003": "16011", "P29_004": "日出町立日出幼稚園", "P29_005": "大分県速見郡日出町2674", "P29_006": "3", "P29_007": "0", "P29_008": "00", "P29_009": null }, "geometry": { "type": "Point", "coordinates": [ 131.534226059856167, 33.367190790345845 ] } },
{ "type": "Feature", "properties": { "P29_001": "44341", "P29_002": "A144210000466", "P29_003": "16011", "P29_004": "日出町立川崎幼稚園", "P29_005": "大分県速見郡日出町大字川崎1072-1", "P29_006": "3", "P29_007": "0", "P29_008": "00", "P29_009": null }, "geometry": { "type": "Point", "coordinates": [ 131.551144823746654, 33.369517603355121 ] } },
{ "type": "Feature", "properties": { "P29_001": "44341", "P29_002": "A144210000475", "P29_003": "16011", "P29_004": "日出町立豊岡幼稚園", "P29_005": "大分県速見郡日出町大字豊岡748-2", "P29_006": "3", "P29_007": "0", "P29_008": "00", "P29_009": null }, "geometry": { "type": "Point", "coordinates": [ 131.507300704687509, 33.365794401853421 ] } },
{ "type": "Feature", "properties": { "P29_001": "44341", "P29_002": "A144210000484", "P29_003": "16011", "P29_004": "日出町立藤原幼稚園", "P29_005": "大分県速見郡日出町大字藤原5268-1", "P29_006": "3", "P29_007": "0", "P29_008": "00", "P29_009": null }, "geometry": { "type": "Point", "coordinates": [ 131.550859346382936, 33.390537605630058 ] } },
{ "type": "Feature", "properties": { "P29_001": "44341", "P29_002": "A144210000493", "P29_003": "16011", "P29_004": "日出町立大神幼稚園", "P29_005": "大分県速見郡日出町大字大神2970-1", "P29_006": "3", "P29_007": "0", "P29_008": "00", "P29_009": null }, "geometry": { "type": "Point", "coordinates": [ 131.573910003208454, 33.37128000354447 ] } },
{ "type": "Feature", "properties": { "P29_001": "44213", "P29_002": "A144210000509", "P29_003": "16011", "P29_004": "由布市立挟間幼稚園", "P29_005": "大分県由布市挾間町挾間132-2", "P29_006": "3", "P29_007": "0", "P29_008": "00", "P29_009": null }, "geometry": { "type": "Point", "coordinates": [ 131.512887342307977, 33.201609136639682 ] } },
{ "type": "Feature", "properties": { "P29_001": "44213", "P29_002": "A144210000518", "P29_003": "16011", "P29_004": "由布市立谷幼稚園", "P29_005": "大分県由布市挾間町谷699", "P29_006": "3", "P29_007": "0", "P29_008": "00", "P29_009": null }, "geometry": { "type": "Point", "coordinates": [ 131.492793567534846, 33.186138326263936 ] } },
{ "type": "Feature", "properties": { "P29_001": "44213", "P29_002": "A144210000527", "P29_003": "16011", "P29_004": "由布市立石城幼稚園", "P29_005": "大分県由布市挾間町来鉢31-1", "P29_006": "3", "P29_007": "0", "P29_008": "00", "P29_009": null }, "geometry": { "type": "Point", "coordinates": [ 131.524192399018716, 33.222565665359575 ] } },
{ "type": "Feature", "properties": { "P29_001": "44213", "P29_002": "A144210000536", "P29_003": "16011", "P29_004": "由布市立由布院幼稚園", "P29_005": "大分県由布市湯布院町川南1075-1", "P29_006": "3", "P29_007": "0", "P29_008": "00", "P29_009": null }, "geometry": { "type": "Point", "coordinates": [ 131.348778005407809, 33.251147996441375 ] } },
{ "type": "Feature", "properties": { "P29_001": "44205", "P29_002": "A144210000572", "P29_003": "16011", "P29_004": "佐伯市立松浦幼稚園", "P29_005": "大分県佐伯市鶴見大字沖松浦761", "P29_006": "3", "P29_007": "0", "P29_008": "00", "P29_009": null }, "geometry": { "type": "Point", "coordinates": [ 131.962176663793116, 32.944952466078007 ] } },
{ "type": "Feature", "properties": { "P29_001": "44206", "P29_002": "A144210000590", "P29_003": "16011", "P29_004": "臼杵市立野津幼稚園", "P29_005": "大分県臼杵市野津町大字山頭3100", "P29_006": "3", "P29_007": "0", "P29_008": "00", "P29_009": null }, "geometry": { "type": "Point", "coordinates": [ 131.698431078167346, 33.045143480504528 ] } },
{ "type": "Feature", "properties": { "P29_001": "44212", "P29_002": "A144210000607", "P29_003": "16011", "P29_004": "豊後大野市立三重幼稚園", "P29_005": "大分県豊後大野市三重町市場1496", "P29_006": "3", "P29_007": "0", "P29_008": "00", "P29_009": null }, "geometry": { "type": "Point", "coordinates": [ 131.579347077055786, 32.978595511720428 ] } },
{ "type": "Feature", "properties": { "P29_001": "44212", "P29_002": "A144210000616", "P29_003": "16011", "P29_004": "豊後大野市立東幼稚園", "P29_005": "大分県豊後大野市三重町小坂3959", "P29_006": "3", "P29_007": "0", "P29_008": "00", "P29_009": null }, "geometry": { "type": "Point", "coordinates": [ 131.610340402648006, 32.990306545630418 ] } },
{ "type": "Feature", "properties": { "P29_001": "44212", "P29_002": "A144210000625", "P29_003": "16011", "P29_004": "豊後大野市立新田幼稚園", "P29_005": "大分県豊後大野市三重町久田1220", "P29_006": "3", "P29_007": "0", "P29_008": "00", "P29_009": null }, "geometry": { "type": "Point", "coordinates": [ 131.559036737252001, 32.969950167336904 ] } },
{ "type": "Feature", "properties": { "P29_001": "44462", "P29_002": "A144210000643", "P29_003": "16011", "P29_004": "玖珠町立森幼稚園", "P29_005": "大分県玖珠郡玖珠町大字森1-1", "P29_006": "3", "P29_007": "0", "P29_008": "00", "P29_009": null }, "geometry": { "type": "Point", "coordinates": [ 131.158704792450436, 33.293373334013246 ] } },
{ "type": "Feature", "properties": { "P29_001": "44205", "P29_002": "A144210000652", "P29_003": "16011", "P29_004": "佐伯市立上堅田幼稚園", "P29_005": "大分県佐伯市大字長谷9118", "P29_006": "3", "P29_007": "0", "P29_008": "00", "P29_009": null }, "geometry": { "type": "Point", "coordinates": [ 131.882026129042032, 32.937836474990071 ] } },
{ "type": "Feature", "properties": { "P29_001": "44203", "P29_002": "A144210000661", "P29_003": "16011", "P29_004": "中津市立和田幼稚園", "P29_005": "大分県中津市大字定留1944-1", "P29_006": "3", "P29_007": "0", "P29_008": "00", "P29_009": null }, "geometry": { "type": "Point", "coordinates": [ 131.245717946740854, 33.587544584204117 ] } },
{ "type": "Feature", "properties": { "P29_001": "44322", "P29_002": "A144210000689", "P29_003": "16011", "P29_004": "姫島村立姫島幼稚園", "P29_005": "大分県東国東郡姫島村1639-1", "P29_006": "3", "P29_007": "0", "P29_008": "00", "P29_009": null }, "geometry": { "type": "Point", "coordinates": [ 131.645000517422346, 33.724007904996043 ] } },
{ "type": "Feature", "properties": { "P29_001": "44214", "P29_002": "A144210000698", "P29_003": "16011", "P29_004": "国東市立熊毛幼稚園", "P29_005": "大分県国東市国見町小熊毛62-2", "P29_006": "3", "P29_007": "0", "P29_008": "00", "P29_009": null }, "geometry": { "type": "Point", "coordinates": [ 131.648994943277501, 33.660281962877136 ] } },
{ "type": "Feature", "properties": { "P29_001": "44214", "P29_002": "A144210000714", "P29_003": "16011", "P29_004": "国東市立竹田津幼稚園", "P29_005": "大分県国東市国見町竹田津3610-1", "P29_006": "3", "P29_007": "0", "P29_008": "00", "P29_009": null }, "geometry": { "type": "Point", "coordinates": [ 131.565009930903614, 33.671084858452254 ] } },
{ "type": "Feature", "properties": { "P29_001": "44201", "P29_002": "A144210000723", "P29_003": "16011", "P29_004": "大分市立戸次幼稚園", "P29_005": "大分県大分市中戸次本町4250", "P29_006": "3", "P29_007": "0", "P29_008": "00", "P29_009": null }, "geometry": { "type": "Point", "coordinates": [ 131.66218999723057, 33.155400000741913 ] } },
{ "type": "Feature", "properties": { "P29_001": "44202", "P29_002": "A144210000732", "P29_003": "16011", "P29_004": "別府市立鶴見幼稚園", "P29_005": "大分県別府市大字鶴見4028-2", "P29_006": "3", "P29_007": "0", "P29_008": "00", "P29_009": null }, "geometry": { "type": "Point", "coordinates": [ 131.469136385293382, 33.296257647346891 ] } },
{ "type": "Feature", "properties": { "P29_001": "44201", "P29_002": "A144210000741", "P29_003": "16011", "P29_004": "大分市立坂ノ市幼稚園", "P29_005": "大分県大分市坂ノ市中央5-8-30", "P29_006": "3", "P29_007": "0", "P29_008": "00", "P29_009": null }, "geometry": { "type": "Point", "coordinates": [ 131.75731699906629, 33.233018000996211 ] } },
{ "type": "Feature", "properties": { "P29_001": "44213", "P29_002": "A144210000750", "P29_003": "16011", "P29_004": "由布市立塚原幼稚園", "P29_005": "大分県由布市湯布院町塚原521-6", "P29_006": "3", "P29_007": "0", "P29_008": "00", "P29_009": null }, "geometry": { "type": "Point", "coordinates": [ 131.387083000908149, 33.306384004539012 ] } },
{ "type": "Feature", "properties": { "P29_001": "44213", "P29_002": "A144210000769", "P29_003": "16011", "P29_004": "由布市立由布川幼稚園", "P29_005": "大分県由布市挾間町古野211-1", "P29_006": "3", "P29_007": "0", "P29_008": "00", "P29_009": null }, "geometry": { "type": "Point", "coordinates": [ 131.528413801275008, 33.210451436654679 ] } },
{ "type": "Feature", "properties": { "P29_001": "44201", "P29_002": "A144210000787", "P29_003": "16011", "P29_004": "大分市立豊府幼稚園", "P29_005": "大分県大分市大字羽屋3-2-14", "P29_006": "3", "P29_007": "0", "P29_008": "00", "P29_009": null }, "geometry": { "type": "Point", "coordinates": [ 131.602944264755649, 33.215011418245155 ] } },
{ "type": "Feature", "properties": { "P29_001": "44201", "P29_002": "A144210000796", "P29_003": "16011", "P29_004": "大分市立明治幼稚園", "P29_005": "大分県大分市猪野22-1", "P29_006": "3", "P29_007": "0", "P29_008": "00", "P29_009": null }, "geometry": { "type": "Point", "coordinates": [ 131.664872300511064, 33.217942493230126 ] } },
{ "type": "Feature", "properties": { "P29_001": "44201", "P29_002": "A144210000803", "P29_003": "16011", "P29_004": "大分市立桃園幼稚園", "P29_005": "大分県大分市山津町2-5-32", "P29_006": "3", "P29_007": "0", "P29_008": "00", "P29_009": null }, "geometry": { "type": "Point", "coordinates": [ 131.668439002567482, 33.241895004901188 ] } },
{ "type": "Feature", "properties": { "P29_001": "44202", "P29_002": "A144210000812", "P29_003": "16011", "P29_004": "別府市立春木川幼稚園", "P29_005": "大分県別府市大字北石垣1230-1", "P29_006": "3", "P29_007": "0", "P29_008": "00", "P29_009": null }, "geometry": { "type": "Point", "coordinates": [ 131.496311997529148, 33.306761996152098 ] } },
{ "type": "Feature", "properties": { "P29_001": "44201", "P29_002": "A144210000821", "P29_003": "16011", "P29_004": "大分市立高田幼稚園", "P29_005": "大分県大分市大字下徳丸59", "P29_006": "3", "P29_007": "0", "P29_008": "00", "P29_009": null }, "geometry": { "type": "Point", "coordinates": [ 131.689667625792993, 33.211621972412523 ] } },
{ "type": "Feature", "properties": { "P29_001": "44214", "P29_002": "A144210000849", "P29_003": "16011", "P29_004": "国東市立国見中央幼稚園", "P29_005": "大分県国東市国見町中850", "P29_006": "3", "P29_007": "0", "P29_008": "00", "P29_009": null }, "geometry": { "type": "Point", "coordinates": [ 131.590046082133426, 33.668313992911351 ] } },
{ "type": "Feature", "properties": { "P29_001": "44214", "P29_002": "A144210000858", "P29_003": "16011", "P29_004": "国東市立富来幼稚園", "P29_005": "大分県国東市国東町富来浦677-4", "P29_006": "3", "P29_007": "0", "P29_008": "00", "P29_009": null }, "geometry": { "type": "Point", "coordinates": [ 131.701717998000248, 33.608104003729139 ] } },
{ "type": "Feature", "properties": { "P29_001": "44201", "P29_002": "A144210000867", "P29_003": "16011", "P29_004": "大分市立舞鶴幼稚園", "P29_005": "大分県大分市西浜2-1", "P29_006": "3", "P29_007": "0", "P29_008": "00", "P29_009": null }, "geometry": { "type": "Point", "coordinates": [ 131.62636239824073, 33.245967992621878 ] } },
{ "type": "Feature", "properties": { "P29_001": "44212", "P29_002": "A144210000876", "P29_003": "16011", "P29_004": "豊後大野市立千歳幼稚園", "P29_005": "大分県豊後大野市千歳町新殿770-1", "P29_006": "3", "P29_007": "0", "P29_008": "00", "P29_009": null }, "geometry": { "type": "Point", "coordinates": [ 131.597159293192135, 33.038903573326095 ] } },
{ "type": "Feature", "properties": { "P29_001": "44213", "P29_002": "A144210000885", "P29_003": "16011", "P29_004": "由布市立西庄内幼稚園", "P29_005": "大分県由布市庄内町高岡417-1", "P29_006": "3", "P29_007": "0", "P29_008": "00", "P29_009": null }, "geometry": { "type": "Point", "coordinates": [ 131.409532212056774, 33.184058992345534 ] } },
{ "type": "Feature", "properties": { "P29_001": "44213", "P29_002": "A144210000894", "P29_003": "16011", "P29_004": "由布市立阿南幼稚園", "P29_005": "大分県由布市庄内町東長宝558", "P29_006": "3", "P29_007": "0", "P29_008": "00", "P29_009": null }, "geometry": { "type": "Point", "coordinates": [ 131.453074899942379, 33.186932488717375 ] } },
{ "type": "Feature", "properties": { "P29_001": "44202", "P29_002": "A144210000901", "P29_003": "16011", "P29_004": "別府市立緑丘幼稚園", "P29_005": "大分県別府市鶴見4310-1", "P29_006": "3", "P29_007": "0", "P29_008": "00", "P29_009": null }, "geometry": { "type": "Point", "coordinates": [ 131.487803002352678, 33.297492998284959 ] } },
{ "type": "Feature", "properties": { "P29_001": "44205", "P29_002": "A144210000910", "P29_003": "16011", "P29_004": "佐伯市立渡町台幼稚園", "P29_005": "大分県佐伯市長島町3-16-1", "P29_006": "3", "P29_007": "0", "P29_008": "00", "P29_009": null }, "geometry": { "type": "Point", "coordinates": [ 131.908108870678916, 32.958859000055703 ] } },
{ "type": "Feature", "properties": { "P29_001": "44202", "P29_002": "A144210000929", "P29_003": "16011", "P29_004": "別府市立大平山幼稚園", "P29_005": "大分県別府市大字鶴見1991", "P29_006": "3", "P29_007": "0", "P29_008": "00", "P29_009": null }, "geometry": { "type": "Point", "coordinates": [ 131.466316488605031, 33.301608835501028 ] } },
{ "type": "Feature", "properties": { "P29_001": "44201", "P29_002": "A144210000938", "P29_003": "16011", "P29_004": "大分市立別保幼稚園", "P29_005": "大分県大分市大字森町963-3", "P29_006": "3", "P29_007": "0", "P29_008": "00", "P29_009": null }, "geometry": { "type": "Point", "coordinates": [ 131.68431299987202, 33.226848004023495 ] } },
{ "type": "Feature", "properties": { "P29_001": "44203", "P29_002": "A144210000956", "P29_003": "16011", "P29_004": "中津市立沖代幼稚園", "P29_005": "大分県中津市中央町2-3-33", "P29_006": "3", "P29_007": "0", "P29_008": "00", "P29_009": null }, "geometry": { "type": "Point", "coordinates": [ 131.193237693591641, 33.586623348238263 ] } },
{ "type": "Feature", "properties": { "P29_001": "44202", "P29_002": "A144210000974", "P29_003": "16011", "P29_004": "別府市立東山幼稚園", "P29_005": "大分県別府市大字別府4380-1", "P29_006": "3", "P29_007": "0", "P29_008": "00", "P29_009": null }, "geometry": { "type": "Point", "coordinates": [ 131.448847653235333, 33.267190544131779 ] } },
{ "type": "Feature", "properties": { "P29_001": "44202", "P29_002": "A144210000983", "P29_003": "16011", "P29_004": "別府市立南幼稚園", "P29_005": "大分県別府市浜脇3-7-13", "P29_006": "3", "P29_007": "0", "P29_008": "00", "P29_009": null }, "geometry": { "type": "Point", "coordinates": [ 131.502431484107262, 33.270745679939033 ] } },
{ "type": "Feature", "properties": { "P29_001": "44209", "P29_002": "A144210000992", "P29_003": "16011", "P29_004": "豊後高田市立キラリいろ幼稚園", "P29_005": "大分県豊後高田市中真玉5809", "P29_006": "3", "P29_007": "0", "P29_008": "00", "P29_009": null }, "geometry": { "type": "Point", "coordinates": [ 131.492787229345765, 33.599942635145673 ] } },
{ "type": "Feature", "properties": { "P29_001": "44209", "P29_002": "A144210001009", "P29_003": "16011", "P29_004": "豊後高田市立夢いろ幼稚園", "P29_005": "大分県豊後高田市美和1343", "P29_006": "3", "P29_007": "0", "P29_008": "00", "P29_009": null }, "geometry": { "type": "Point", "coordinates": [ 131.457845210683075, 33.550776210455759 ] } },
{ "type": "Feature", "properties": { "P29_001": "44205", "P29_002": "A144210001018", "P29_003": "16011", "P29_004": "佐伯市立よのうづ幼稚園", "P29_005": "大分県佐伯市米水津大字浦代浦1239-20", "P29_006": "3", "P29_007": "0", "P29_008": "00", "P29_009": null }, "geometry": { "type": "Point", "coordinates": [ 131.975739345759337, 32.920372707212834 ] } },
{ "type": "Feature", "properties": { "P29_001": "44212", "P29_002": "A144210001027", "P29_003": "16011", "P29_004": "豊後大野市立おおのさくら幼稚園", "P29_005": "大分県豊後大野市大野町田中2180-1", "P29_006": "3", "P29_007": "0", "P29_008": "00", "P29_009": null }, "geometry": { "type": "Point", "coordinates": [ 131.50362552793294, 33.043345868553352 ] } },
{ "type": "Feature", "properties": { "P29_001": "44214", "P29_002": "A144210001036", "P29_003": "16011", "P29_004": "国東市立安岐中央幼稚園", "P29_005": "大分県国東市安岐町中園210-1", "P29_006": "3", "P29_007": "0", "P29_008": "00", "P29_009": null }, "geometry": { "type": "Point", "coordinates": [ 131.694239025489139, 33.46367419400169 ] } },
{ "type": "Feature", "properties": { "P29_001": "44202", "P29_002": "A144210001045", "P29_003": "16011", "P29_004": "別府市立べっぷ幼稚園", "P29_005": "大分県別府市京町11-9", "P29_006": "3", "P29_007": "0", "P29_008": "00", "P29_009": null }, "geometry": { "type": "Point", "coordinates": [ 131.504950551109488, 33.288506936192796 ] } },
{ "type": "Feature", "properties": { "P29_001": "44202", "P29_002": "A144210001054", "P29_003": "16011", "P29_004": "別府市立山の手幼稚園", "P29_005": "大分県別府市青山町5-68", "P29_006": "3", "P29_007": "0", "P29_008": "00", "P29_009": null }, "geometry": { "type": "Point", "coordinates": [ 131.493436608641503, 33.278388036489069 ] } },
{ "type": "Feature", "properties": { "P29_001": "44201", "P29_002": "A144310000017", "P29_003": "16011", "P29_004": "ひまわり幼稚園", "P29_005": "大分県大分市中島中央1-2-18", "P29_006": "4", "P29_007": "0", "P29_008": "00", "P29_009": null }, "geometry": { "type": "Point", "coordinates": [ 131.614747217051899, 33.243206361350964 ] } },
{ "type": "Feature", "properties": { "P29_001": "44201", "P29_002": "A144310000026", "P29_003": "16011", "P29_004": "城南幼稚園", "P29_005": "大分県大分市永興弁財天604-30", "P29_006": "4", "P29_007": "0", "P29_008": "00", "P29_009": null }, "geometry": { "type": "Point", "coordinates": [ 131.583773790368411, 33.218812249940491 ] } },
{ "type": "Feature", "properties": { "P29_001": "44201", "P29_002": "A144310000035", "P29_003": "16011", "P29_004": "千代町幼稚園", "P29_005": "大分県大分市千代町3-3-8", "P29_006": "4", "P29_007": "0", "P29_008": "00", "P29_009": null }, "geometry": { "type": "Point", "coordinates": [ 131.604976539338168, 33.244365314366668 ] } },
{ "type": "Feature", "properties": { "P29_001": "44201", "P29_002": "A144310000044", "P29_003": "16011", "P29_004": "大分明星幼稚園", "P29_005": "大分県大分市大字城原2600-9", "P29_006": "4", "P29_007": "0", "P29_008": "00", "P29_009": null }, "geometry": { "type": "Point", "coordinates": [ 131.725556102935514, 33.239946620246251 ] } },
{ "type": "Feature", "properties": { "P29_001": "44201", "P29_002": "A144310000053", "P29_003": "16011", "P29_004": "明照幼稚園", "P29_005": "大分県大分市王子西町8-27", "P29_006": "4", "P29_007": "0", "P29_008": "00", "P29_009": null }, "geometry": { "type": "Point", "coordinates": [ 131.588973999616996, 33.24296200188536 ] } },
{ "type": "Feature", "properties": { "P29_001": "44201", "P29_002": "A144310000062", "P29_003": "16011", "P29_004": "カトリック坂ノ市幼稚園", "P29_005": "大分県大分市坂ノ市南3-3-30", "P29_006": "4", "P29_007": "0", "P29_008": "00", "P29_009": null }, "geometry": { "type": "Point", "coordinates": [ 131.752882131771401, 33.230873076142352 ] } },
{ "type": "Feature", "properties": { "P29_001": "44201", "P29_002": "A144310000071", "P29_003": "16011", "P29_004": "カトリック鶴崎幼稚園", "P29_005": "大分県大分市皆春213", "P29_006": "4", "P29_007": "0", "P29_008": "00", "P29_009": null }, "geometry": { "type": "Point", "coordinates": [ 131.680588151785685, 33.23829789284737 ] } },
{ "type": "Feature", "properties": { "P29_001": "44201", "P29_002": "A144310000080", "P29_003": "16011", "P29_004": "愛隣幼稚園", "P29_005": "大分県大分市南太平寺3-8-1", "P29_006": "4", "P29_007": "0", "P29_008": "00", "P29_009": null }, "geometry": { "type": "Point", "coordinates": [ 131.601770306657556, 33.217712390986371 ] } },
{ "type": "Feature", "properties": { "P29_001": "44201", "P29_002": "A144310000099", "P29_003": "16011", "P29_004": "聖公幼稚園", "P29_005": "大分県大分市中島西3-8-4", "P29_006": "4", "P29_007": "0", "P29_008": "00", "P29_009": null }, "geometry": { "type": "Point", "coordinates": [ 131.610224491812716, 33.245506023503175 ] } },
{ "type": "Feature", "properties": { "P29_001": "44201", "P29_002": "A144310000106", "P29_003": "16011", "P29_004": "カトリック海星幼稚園", "P29_005": "大分県大分市中央町3-7-30", "P29_006": "4", "P29_007": "0", "P29_008": "00", "P29_009": null }, "geometry": { "type": "Point", "coordinates": [ 131.604025199514496, 33.23868644022577 ] } },
{ "type": "Feature", "properties": { "P29_001": "44201", "P29_002": "A144310000115", "P29_003": "16011", "P29_004": "明野第一幼稚園", "P29_005": "大分県大分市明野西1-22-1", "P29_006": "4", "P29_007": "0", "P29_008": "00", "P29_009": null }, "geometry": { "type": "Point", "coordinates": [ 131.648184656269677, 33.227961542359864 ] } },
{ "type": "Feature", "properties": { "P29_001": "44201", "P29_002": "A144310000124", "P29_003": "16011", "P29_004": "ごとう幼稚園", "P29_005": "大分県大分市畑中4組", "P29_006": "4", "P29_007": "0", "P29_008": "00", "P29_009": null }, "geometry": { "type": "Point", "coordinates": [ 131.592517425915162, 33.206059297341547 ] } },
{ "type": "Feature", "properties": { "P29_001": "44202", "P29_002": "A144310000133", "P29_003": "16011", "P29_004": "別府大学附属幼稚園", "P29_005": "大分県別府市北石垣82", "P29_006": "4", "P29_007": "0", "P29_008": "00", "P29_009": null }, "geometry": { "type": "Point", "coordinates": [ 131.489315106473867, 33.311843580706096 ] } },
{ "type": "Feature", "properties": { "P29_001": "44202", "P29_002": "A144310000142", "P29_003": "16011", "P29_004": "明星幼稚園", "P29_005": "大分県別府市野口原3088", "P29_006": "4", "P29_007": "0", "P29_008": "00", "P29_009": null }, "geometry": { "type": "Point", "coordinates": [ 131.482912734233111, 33.284432592455168 ] } },
{ "type": "Feature", "properties": { "P29_001": "44202", "P29_002": "A144310000151", "P29_003": "16011", "P29_004": "真愛幼稚園", "P29_005": "大分県別府市上田の湯町7-4", "P29_006": "4", "P29_007": "0", "P29_008": "00", "P29_009": null }, "geometry": { "type": "Point", "coordinates": [ 131.496994004423499, 33.277752996457984 ] } },
{ "type": "Feature", "properties": { "P29_001": "44202", "P29_002": "A144310000160", "P29_003": "16011", "P29_004": "カトリック海の星幼稚園", "P29_005": "大分県別府市末広町1-14", "P29_006": "4", "P29_007": "0", "P29_008": "00", "P29_009": null }, "geometry": { "type": "Point", "coordinates": [ 131.502421998055127, 33.27445500067941 ] } },
{ "type": "Feature", "properties": { "P29_001": "44202", "P29_002": "A144310000179", "P29_003": "16011", "P29_004": "別府中央幼稚園", "P29_005": "大分県別府市中央町9-32", "P29_006": "4", "P29_007": "0", "P29_008": "00", "P29_009": null }, "geometry": { "type": "Point", "coordinates": [ 131.502271852211862, 33.277365775020023 ] } },
{ "type": "Feature", "properties": { "P29_001": "44202", "P29_002": "A144310000188", "P29_003": "16011", "P29_004": "わかば幼稚園", "P29_005": "大分県別府市大字北石垣881", "P29_006": "4", "P29_007": "0", "P29_008": "00", "P29_009": null }, "geometry": { "type": "Point", "coordinates": [ 131.497005547533035, 33.310023716359645 ] } },
{ "type": "Feature", "properties": { "P29_001": "44204", "P29_002": "A144310000197", "P29_003": "16011", "P29_004": "月隈こども園", "P29_005": "大分県日田市城町1-7-1", "P29_006": "4", "P29_007": "0", "P29_008": "00", "P29_009": null }, "geometry": { "type": "Point", "coordinates": [ 130.939108087045952, 33.326775039581506 ] } },
{ "type": "Feature", "properties": { "P29_001": "44204", "P29_002": "A144310000204", "P29_003": "16011", "P29_004": "緑ケ丘幼稚園", "P29_005": "大分県日田市中尾町699", "P29_006": "4", "P29_007": "0", "P29_008": "00", "P29_009": null }, "geometry": { "type": "Point", "coordinates": [ 130.963536828810135, 33.331833422929087 ] } },
{ "type": "Feature", "properties": { "P29_001": "44204", "P29_002": "A144310000213", "P29_003": "16011", "P29_004": "認定こども園カトリック日田幼稚園", "P29_005": "大分県日田市玉川町265-2", "P29_006": "4", "P29_007": "0", "P29_008": "00", "P29_009": null }, "geometry": { "type": "Point", "coordinates": [ 130.924344004517138, 33.320314003076142 ] } },
{ "type": "Feature", "properties": { "P29_001": "44204", "P29_002": "A144310000231", "P29_003": "16011", "P29_004": "認定こども園三隈幼稚園", "P29_005": "大分県日田市中央2-1-7", "P29_006": "4", "P29_007": "0", "P29_008": "00", "P29_009": null }, "geometry": { "type": "Point", "coordinates": [ 130.935247643043141, 33.316605310967141 ] } },
{ "type": "Feature", "properties": { "P29_001": "44204", "P29_002": "A144310000240", "P29_003": "16011", "P29_004": "日田幼稚園", "P29_005": "大分県日田市東町3-57", "P29_006": "4", "P29_007": "0", "P29_008": "00", "P29_009": null }, "geometry": { "type": "Point", "coordinates": [ 130.935339999177671, 33.312345995428998 ] } },
{ "type": "Feature", "properties": { "P29_001": "44204", "P29_002": "A144310000259", "P29_003": "16011", "P29_004": "日田幼稚園高瀬分園", "P29_005": "大分県日田市銭渕町223-10", "P29_006": "4", "P29_007": "0", "P29_008": "00", "P29_009": null }, "geometry": { "type": "Point", "coordinates": [ 130.931752001528594, 33.308116001423606 ] } },
{ "type": "Feature", "properties": { "P29_001": "44205", "P29_002": "A144310000277", "P29_003": "16011", "P29_004": "認定こども園カトリック佐伯幼稚園", "P29_005": "大分県佐伯市中村東町7-3", "P29_006": "4", "P29_007": "0", "P29_008": "00", "P29_009": null }, "geometry": { "type": "Point", "coordinates": [ 131.900640385900516, 32.961428059605765 ] } },
{ "type": "Feature", "properties": { "P29_001": "44205", "P29_002": "A144310000286", "P29_003": "16011", "P29_004": "みのり幼稚園", "P29_005": "大分県佐伯市大字長谷9682-17", "P29_006": "4", "P29_007": "0", "P29_008": "00", "P29_009": null }, "geometry": { "type": "Point", "coordinates": [ 131.882233206713096, 32.93971007291109 ] } },
{ "type": "Feature", "properties": { "P29_001": "44206", "P29_002": "A144310000302", "P29_003": "16011", "P29_004": "認定こども園カトリック臼杵幼稚園", "P29_005": "大分県臼杵市大字臼杵75-80", "P29_006": "4", "P29_007": "0", "P29_008": "00", "P29_009": null }, "geometry": { "type": "Point", "coordinates": [ 131.802931642004694, 33.122917093847931 ] } },
{ "type": "Feature", "properties": { "P29_001": "44207", "P29_002": "A144310000311", "P29_003": "16011", "P29_004": "認定こども園白蓮幼稚園", "P29_005": "大分県津久見市大友町4-1", "P29_006": "4", "P29_007": "0", "P29_008": "00", "P29_009": null }, "geometry": { "type": "Point", "coordinates": [ 131.864064281703236, 33.069609169362288 ] } },
{ "type": "Feature", "properties": { "P29_001": "44207", "P29_002": "A144310000320", "P29_003": "16011", "P29_004": "和順幼稚園", "P29_005": "大分県津久見市上宮本町18-10", "P29_006": "4", "P29_007": "0", "P29_008": "00", "P29_009": null }, "geometry": { "type": "Point", "coordinates": [ 131.859462281595853, 33.070589187617443 ] } },
{ "type": "Feature", "properties": { "P29_001": "44207", "P29_002": "A144310000339", "P29_003": "16011", "P29_004": "カトリック津久見幼稚園", "P29_005": "大分県津久見市中田町2-68", "P29_006": "4", "P29_007": "0", "P29_008": "00", "P29_009": null }, "geometry": { "type": "Point", "coordinates": [ 131.86189716238755, 33.068345524834228 ] } },
{ "type": "Feature", "properties": { "P29_001": "44207", "P29_002": "A144310000348", "P29_003": "16011", "P29_004": "認定こども園しらうめ幼稚園", "P29_005": "大分県津久見市地蔵町8-2", "P29_006": "4", "P29_007": "0", "P29_008": "00", "P29_009": null }, "geometry": { "type": "Point", "coordinates": [ 131.848190281008044, 33.078423151834627 ] } },
{ "type": "Feature", "properties": { "P29_001": "44208", "P29_002": "A144310000357", "P29_003": "16011", "P29_004": "しらゆり幼稚園", "P29_005": "大分県竹田市2509", "P29_006": "4", "P29_007": "0", "P29_008": "00", "P29_009": null }, "geometry": { "type": "Point", "coordinates": [ 131.398490999790198, 32.964987000320569 ] } },
{ "type": "Feature", "properties": { "P29_001": "44209", "P29_002": "A144310000366", "P29_003": "16011", "P29_004": "成蹊幼稚園", "P29_005": "大分県豊後高田市大字玉津236", "P29_006": "4", "P29_007": "0", "P29_008": "00", "P29_009": null }, "geometry": { "type": "Point", "coordinates": [ 131.44862000130189, 33.559730003817606 ] } },
{ "type": "Feature", "properties": { "P29_001": "44210", "P29_002": "A144310000375", "P29_003": "16011", "P29_004": "白百合幼稚園", "P29_005": "大分県杵築市大字杵築296", "P29_006": "4", "P29_007": "0", "P29_008": "00", "P29_009": null }, "geometry": { "type": "Point", "coordinates": [ 131.616979268523437, 33.417477828315384 ] } },
{ "type": "Feature", "properties": { "P29_001": "44211", "P29_002": "A144310000384", "P29_003": "16011", "P29_004": "認定こども園ことぶき幼稚園", "P29_005": "大分県宇佐市江須賀939", "P29_006": "4", "P29_007": "0", "P29_008": "00", "P29_009": null }, "geometry": { "type": "Point", "coordinates": [ 131.359112260214403, 33.557303168456002 ] } },
{ "type": "Feature", "properties": { "P29_001": "44214", "P29_002": "A144310000393", "P29_003": "16011", "P29_004": "ひともし幼稚園", "P29_005": "大分県国東市国東町鶴川1826", "P29_006": "4", "P29_007": "0", "P29_008": "00", "P29_009": null }, "geometry": { "type": "Point", "coordinates": [ 131.734137003459807, 33.559741004199452 ] } },
{ "type": "Feature", "properties": { "P29_001": "44212", "P29_002": "A144310000400", "P29_003": "16011", "P29_004": "犬飼幼稚園", "P29_005": "大分県豊後大野市犬飼町犬飼8-3", "P29_006": "4", "P29_007": "0", "P29_008": "00", "P29_009": null }, "geometry": { "type": "Point", "coordinates": [ 131.634634388578888, 33.070860355527905 ] } },
{ "type": "Feature", "properties": { "P29_001": "44462", "P29_002": "A144310000419", "P29_003": "16011", "P29_004": "カトリック玖珠幼稚園", "P29_005": "大分県玖珠郡玖珠町塚脇425", "P29_006": "4", "P29_007": "0", "P29_008": "00", "P29_009": null }, "geometry": { "type": "Point", "coordinates": [ 131.156617546095021, 33.276374893832021 ] } },
{ "type": "Feature", "properties": { "P29_001": "44204", "P29_002": "A144310000428", "P29_003": "16011", "P29_004": "三芳幼稚園", "P29_005": "大分県日田市大字日高923-1", "P29_006": "4", "P29_007": "0", "P29_008": "00", "P29_009": null }, "geometry": { "type": "Point", "coordinates": [ 130.947790000898749, 33.308505997096198 ] } },
{ "type": "Feature", "properties": { "P29_001": "44201", "P29_002": "A144310000437", "P29_003": "16011", "P29_004": "ひまわり明野幼稚園", "P29_005": "大分県大分市明野東1-2324-2", "P29_006": "4", "P29_007": "0", "P29_008": "00", "P29_009": null }, "geometry": { "type": "Point", "coordinates": [ 131.655437130562063, 33.221872093151248 ] } },
{ "type": "Feature", "properties": { "P29_001": "44201", "P29_002": "A144310000446", "P29_003": "16011", "P29_004": "まきの幼稚園", "P29_005": "大分県大分市明野北1-9-1", "P29_006": "4", "P29_007": "0", "P29_008": "00", "P29_009": null }, "geometry": { "type": "Point", "coordinates": [ 131.653611920443353, 33.228762342827658 ] } },
{ "type": "Feature", "properties": { "P29_001": "44201", "P29_002": "A144310000455", "P29_003": "16011", "P29_004": "敷戸ふない幼稚園", "P29_005": "大分県大分市敷戸東町6-1", "P29_006": "4", "P29_007": "0", "P29_008": "00", "P29_009": null }, "geometry": { "type": "Point", "coordinates": [ 131.625551870742072, 33.187579615758288 ] } },
{ "type": "Feature", "properties": { "P29_001": "44201", "P29_002": "A144310000464", "P29_003": "16011", "P29_004": "やまばと幼稚園", "P29_005": "大分県大分市大字下判田字馬場原3502", "P29_006": "4", "P29_007": "0", "P29_008": "00", "P29_009": null }, "geometry": { "type": "Point", "coordinates": [ 131.63194603315597, 33.154125186489523 ] } },
{ "type": "Feature", "properties": { "P29_001": "44201", "P29_002": "A144310000473", "P29_003": "16011", "P29_004": "すぎのこ幼稚園", "P29_005": "大分県大分市大字羽田988", "P29_006": "4", "P29_007": "0", "P29_008": "00", "P29_009": null }, "geometry": { "type": "Point", "coordinates": [ 131.628209365597371, 33.218906999604606 ] } },
{ "type": "Feature", "properties": { "P29_001": "44201", "P29_002": "A144310000482", "P29_003": "16011", "P29_004": "ふじが丘幼稚園", "P29_005": "大分県大分市大字田尻字相津原900", "P29_006": "4", "P29_007": "0", "P29_008": "00", "P29_009": null }, "geometry": { "type": "Point", "coordinates": [ 131.596523997135677, 33.179615000455421 ] } },
{ "type": "Feature", "properties": { "P29_001": "44201", "P29_002": "A144310000491", "P29_003": "16011", "P29_004": "ルナ幼稚園", "P29_005": "大分県大分市明野南1-21-1", "P29_006": "4", "P29_007": "0", "P29_008": "00", "P29_009": null }, "geometry": { "type": "Point", "coordinates": [ 131.649861524397295, 33.222144017881533 ] } },
{ "type": "Feature", "properties": { "P29_001": "44201", "P29_002": "A144310000516", "P29_003": "16011", "P29_004": "えのくま幼稚園", "P29_005": "大分県大分市大字荏隈字中洲1227", "P29_006": "4", "P29_007": "0", "P29_008": "00", "P29_009": null }, "geometry": { "type": "Point", "coordinates": [ 131.57528530496586, 33.211329926668483 ] } },
{ "type": "Feature", "properties": { "P29_001": "44203", "P29_002": "A144310000525", "P29_003": "16011", "P29_004": "東九州短期大学附属幼稚園", "P29_005": "大分県中津市大字一ツ松211", "P29_006": "4", "P29_007": "0", "P29_008": "00", "P29_009": null }, "geometry": { "type": "Point", "coordinates": [ 131.203887171536849, 33.587843616986362 ] } },
{ "type": "Feature", "properties": { "P29_001": "44211", "P29_002": "A144310000534", "P29_003": "16011", "P29_004": "なぎさ幼稚園", "P29_005": "大分県宇佐市辛島326", "P29_006": "4", "P29_007": "0", "P29_008": "00", "P29_009": null }, "geometry": { "type": "Point", "coordinates": [ 131.332328197002624, 33.529679049365036 ] } },
{ "type": "Feature", "properties": { "P29_001": "44201", "P29_002": "A144310000543", "P29_003": "16011", "P29_004": "のだ山幼稚園", "P29_005": "大分県大分市大字野田323-5", "P29_006": "4", "P29_007": "0", "P29_008": "00", "P29_009": null }, "geometry": { "type": "Point", "coordinates": [ 131.537615952315804, 33.203469652405467 ] } },
{ "type": "Feature", "properties": { "P29_001": "44211", "P29_002": "A144310000552", "P29_003": "16011", "P29_004": "むつみ幼稚園", "P29_005": "大分県宇佐市大字岩崎池の平883-3", "P29_006": "4", "P29_007": "0", "P29_008": "00", "P29_009": null }, "geometry": { "type": "Point", "coordinates": [ 131.404536026040574, 33.529944813195961 ] } },
{ "type": "Feature", "properties": { "P29_001": "44206", "P29_002": "A144310000561", "P29_003": "16011", "P29_004": "認定こども園アソカ幼稚園", "P29_005": "大分県臼杵市江無田408-9", "P29_006": "4", "P29_007": "0", "P29_008": "00", "P29_009": null }, "geometry": { "type": "Point", "coordinates": [ 131.78629199538446, 33.128176999658926 ] } },
{ "type": "Feature", "properties": { "P29_001": "44201", "P29_002": "A144310000570", "P29_003": "16011", "P29_004": "宮河内幼稚園", "P29_005": "大分県大分市宮河内ハイランド63-15", "P29_006": "4", "P29_007": "0", "P29_008": "00", "P29_009": null }, "geometry": { "type": "Point", "coordinates": [ 131.704166051374614, 33.190440509193195 ] } },
{ "type": "Feature", "properties": { "P29_001": "44203", "P29_002": "A144310000598", "P29_003": "16011", "P29_004": "双葉ヶ丘幼稚園", "P29_005": "大分県中津市三光原口690-1", "P29_006": "4", "P29_007": "0", "P29_008": "00", "P29_009": null }, "geometry": { "type": "Point", "coordinates": [ 131.200196149108734, 33.550239303010763 ] } },
{ "type": "Feature", "properties": { "P29_001": "44201", "P29_002": "A144310000605", "P29_003": "16011", "P29_004": "カトリック明野幼稚園", "P29_005": "大分県大分市明野北2-8-16", "P29_006": "4", "P29_007": "0", "P29_008": "00", "P29_009": null }, "geometry": { "type": "Point", "coordinates": [ 131.655296601006398, 33.232311059473112 ] } }
]
}
