{
"type": "FeatureCollection",
"name": "geo_44_幼保連携型認定こども園",
"crs": { "type": "name", "properties": { "name": "urn:ogc:def:crs:EPSG::6668" } },
"features": [
{ "type": "Feature", "properties": { "P29_001": "44210", "P29_002": "A244210000018", "P29_003": "16013", "P29_004": "大田こども園", "P29_005": "大分県杵築市大田石丸1433-1", "P29_006": "3", "P29_007": "0", "P29_008": "00", "P29_009": null }, "geometry": { "type": "Point", "coordinates": [ 131.557695641833419, 33.494538264224971 ] } },
{ "type": "Feature", "properties": { "P29_001": "44212", "P29_002": "A244210000027", "P29_003": "16013", "P29_004": "豊後大野市認定こども園緒方保育園", "P29_005": "大分県豊後大野市緒方町下自在157-1", "P29_006": "3", "P29_007": "0", "P29_008": "00", "P29_009": null }, "geometry": { "type": "Point", "coordinates": [ 131.472099996077446, 32.972155999520041 ] } },
{ "type": "Feature", "properties": { "P29_001": "44461", "P29_002": "A244210000036", "P29_003": "16013", "P29_004": "九重町立ここのえ飯田こども園", "P29_005": "大分県玖珠郡九重町大字田野1624-9", "P29_006": "3", "P29_007": "0", "P29_008": "00", "P29_009": null }, "geometry": { "type": "Point", "coordinates": [ 131.221079024521998, 33.157024430566331 ] } },
{ "type": "Feature", "properties": { "P29_001": "44461", "P29_002": "A244210000045", "P29_003": "16013", "P29_004": "九重町立ここのえみつばこども園", "P29_005": "大分県玖珠郡九重町大字引治508-1", "P29_006": "3", "P29_007": "0", "P29_008": "00", "P29_009": null }, "geometry": { "type": "Point", "coordinates": [ 131.180181914992744, 33.230427055498922 ] } },
{ "type": "Feature", "properties": { "P29_001": "44201", "P29_002": "A244210000054", "P29_003": "16013", "P29_004": "のつはる認定こども園", "P29_005": "大分県大分市野津原1731-3", "P29_006": "3", "P29_007": "0", "P29_008": "00", "P29_009": null }, "geometry": { "type": "Point", "coordinates": [ 131.528989862393303, 33.163957267706976 ] } },
{ "type": "Feature", "properties": { "P29_001": "44201", "P29_002": "A244210000063", "P29_003": "16013", "P29_004": "さがのせき認定こども園", "P29_005": "大分県大分市大字佐賀関1369-1", "P29_006": "3", "P29_007": "0", "P29_008": "00", "P29_009": null }, "geometry": { "type": "Point", "coordinates": [ 131.874617584641214, 33.247026249023868 ] } },
{ "type": "Feature", "properties": { "P29_001": "44201", "P29_002": "A244210000072", "P29_003": "16013", "P29_004": "大分市立かないけ認定こども園", "P29_005": "大分県大分市金池町3-1-90", "P29_006": "3", "P29_007": "0", "P29_008": "00", "P29_009": null }, "geometry": { "type": "Point", "coordinates": [ 131.612504641430831, 33.233491982504979 ] } },
{ "type": "Feature", "properties": { "P29_001": "44201", "P29_002": "A244310000016", "P29_003": "16013", "P29_004": "とぜん幼稚園", "P29_005": "大分県大分市日吉町10-22", "P29_006": "4", "P29_007": "0", "P29_008": "00", "P29_009": null }, "geometry": { "type": "Point", "coordinates": [ 131.651572702985902, 33.244514554747894 ] } },
{ "type": "Feature", "properties": { "P29_001": "44201", "P29_002": "A244310000025", "P29_003": "16013", "P29_004": "みどり幼稚園", "P29_005": "大分県大分市大字森字久保山1039-2", "P29_006": "4", "P29_007": "0", "P29_008": "00", "P29_009": null }, "geometry": { "type": "Point", "coordinates": [ 131.673001606299721, 33.215779768928641 ] } },
{ "type": "Feature", "properties": { "P29_001": "44201", "P29_002": "A244310000034", "P29_003": "16013", "P29_004": "富士見が丘幼稚園", "P29_005": "大分県大分市富士見が丘東2-8-6", "P29_006": "4", "P29_007": "0", "P29_008": "00", "P29_009": null }, "geometry": { "type": "Point", "coordinates": [ 131.551206200223845, 33.185371675367307 ] } },
{ "type": "Feature", "properties": { "P29_001": "44201", "P29_002": "A244310000043", "P29_003": "16013", "P29_004": "もりまち幼稚園", "P29_005": "大分県大分市森町403-2", "P29_006": "4", "P29_007": "0", "P29_008": "00", "P29_009": null }, "geometry": { "type": "Point", "coordinates": [ 131.67693600012683, 33.224584000571326 ] } },
{ "type": "Feature", "properties": { "P29_001": "44201", "P29_002": "A244310000052", "P29_003": "16013", "P29_004": "みんなの森こども園", "P29_005": "大分県大分市大字丹川字長福寺415", "P29_006": "4", "P29_007": "0", "P29_008": "00", "P29_009": null }, "geometry": { "type": "Point", "coordinates": [ 131.718456986679229, 33.213136757482324 ] } },
{ "type": "Feature", "properties": { "P29_001": "44201", "P29_002": "A244310000061", "P29_003": "16013", "P29_004": "明野こども園", "P29_005": "大分県大分市明野西1-5-4", "P29_006": "4", "P29_007": "0", "P29_008": "00", "P29_009": null }, "geometry": { "type": "Point", "coordinates": [ 131.650742762129227, 33.227901676523217 ] } },
{ "type": "Feature", "properties": { "P29_001": "44201", "P29_002": "A244310000070", "P29_003": "16013", "P29_004": "大在こども園", "P29_005": "大分県大分市横田1-14-38", "P29_006": "4", "P29_007": "0", "P29_008": "00", "P29_009": null }, "geometry": { "type": "Point", "coordinates": [ 131.720162998417834, 33.248636003877607 ] } },
{ "type": "Feature", "properties": { "P29_001": "44201", "P29_002": "A244310000089", "P29_003": "16013", "P29_004": "坂ノ市こども園", "P29_005": "大分県大分市久原中央2-8-16", "P29_006": "4", "P29_007": "0", "P29_008": "00", "P29_009": null }, "geometry": { "type": "Point", "coordinates": [ 131.760625267968294, 33.237511984303481 ] } },
{ "type": "Feature", "properties": { "P29_001": "44201", "P29_002": "A244310000098", "P29_003": "16013", "P29_004": "しきどこども園", "P29_005": "大分県大分市敷戸西町1-8", "P29_006": "4", "P29_007": "0", "P29_008": "00", "P29_009": null }, "geometry": { "type": "Point", "coordinates": [ 131.622291356522737, 33.187378581969291 ] } },
{ "type": "Feature", "properties": { "P29_001": "44201", "P29_002": "A244310000105", "P29_003": "16013", "P29_004": "しらとり子ども園", "P29_005": "大分県大分市仲西町1-14-8", "P29_006": "4", "P29_007": "0", "P29_008": "00", "P29_009": null }, "geometry": { "type": "Point", "coordinates": [ 131.663947789281792, 33.242063531637029 ] } },
{ "type": "Feature", "properties": { "P29_001": "44201", "P29_002": "A244310000114", "P29_003": "16013", "P29_004": "たかおこども園", "P29_005": "大分県大分市大字横尾4112-2", "P29_006": "4", "P29_007": "0", "P29_008": "00", "P29_009": null }, "geometry": { "type": "Point", "coordinates": [ 131.662119635517286, 33.208646999221124 ] } },
{ "type": "Feature", "properties": { "P29_001": "44201", "P29_002": "A244310000123", "P29_003": "16013", "P29_004": "緑が丘こども園", "P29_005": "大分県大分市緑が丘5-23-1", "P29_006": "4", "P29_007": "0", "P29_008": "00", "P29_009": null }, "geometry": { "type": "Point", "coordinates": [ 131.526529404146032, 33.177804638073134 ] } },
{ "type": "Feature", "properties": { "P29_001": "44201", "P29_002": "A244310000132", "P29_003": "16013", "P29_004": "ももぞのこども園", "P29_005": "大分県大分市大字千歳1892-1", "P29_006": "4", "P29_007": "0", "P29_008": "00", "P29_009": null }, "geometry": { "type": "Point", "coordinates": [ 131.672659178476437, 33.236339903434008 ] } },
{ "type": "Feature", "properties": { "P29_001": "44201", "P29_002": "A244310000141", "P29_003": "16013", "P29_004": "ゆりかごこども園", "P29_005": "大分県大分市田中町1組-3", "P29_006": "4", "P29_007": "0", "P29_008": "00", "P29_009": null }, "geometry": { "type": "Point", "coordinates": [ 131.58835562498524, 33.213138137416564 ] } },
{ "type": "Feature", "properties": { "P29_001": "44201", "P29_002": "A244310000150", "P29_003": "16013", "P29_004": "吉野こども園", "P29_005": "大分県大分市大字辻225-1", "P29_006": "4", "P29_007": "0", "P29_008": "00", "P29_009": null }, "geometry": { "type": "Point", "coordinates": [ 131.69513036135109, 33.11706253677437 ] } },
{ "type": "Feature", "properties": { "P29_001": "44201", "P29_002": "A244310000169", "P29_003": "16013", "P29_004": "高田のぞみこども園", "P29_005": "大分県大分市大字関園747", "P29_006": "4", "P29_007": "0", "P29_008": "00", "P29_009": null }, "geometry": { "type": "Point", "coordinates": [ 131.689263995179545, 33.212908364847429 ] } },
{ "type": "Feature", "properties": { "P29_001": "44201", "P29_002": "A244310000178", "P29_003": "16013", "P29_004": "どうわこども園", "P29_005": "大分県大分市大字本神崎871", "P29_006": "4", "P29_007": "0", "P29_008": "00", "P29_009": null }, "geometry": { "type": "Point", "coordinates": [ 131.798304402220083, 33.241118481301307 ] } },
{ "type": "Feature", "properties": { "P29_001": "44201", "P29_002": "A244310000187", "P29_003": "16013", "P29_004": "よい子の森こども園", "P29_005": "大分県大分市花江川4-12", "P29_006": "4", "P29_007": "0", "P29_008": "00", "P29_009": null }, "geometry": { "type": "Point", "coordinates": [ 131.707607181590561, 33.246366012035082 ] } },
{ "type": "Feature", "properties": { "P29_001": "44202", "P29_002": "A244310000196", "P29_003": "16013", "P29_004": "ひめやま幼稚園", "P29_005": "大分県別府市大字野田78", "P29_006": "4", "P29_007": "0", "P29_008": "00", "P29_009": null }, "geometry": { "type": "Point", "coordinates": [ 131.486153995318944, 33.328707957053474 ] } },
{ "type": "Feature", "properties": { "P29_001": "44204", "P29_002": "A244310000203", "P29_003": "16013", "P29_004": "認定こども園緑ヶ丘第二幼稚園", "P29_005": "大分県日田市天神町145", "P29_006": "4", "P29_007": "0", "P29_008": "00", "P29_009": null }, "geometry": { "type": "Point", "coordinates": [ 130.940495001489467, 33.338548003833658 ] } },
{ "type": "Feature", "properties": { "P29_001": "44204", "P29_002": "A244310000212", "P29_003": "16013", "P29_004": "ひまわり認定こども園", "P29_005": "大分県日田市田島本町5-11", "P29_006": "4", "P29_007": "0", "P29_008": "00", "P29_009": null }, "geometry": { "type": "Point", "coordinates": [ 130.939443983181064, 33.319649883394639 ] } },
{ "type": "Feature", "properties": { "P29_001": "44204", "P29_002": "A244310000221", "P29_003": "16013", "P29_004": "令和こどもの森", "P29_005": "大分県日田市大鶴本町861-1", "P29_006": "4", "P29_007": "0", "P29_008": "00", "P29_009": null }, "geometry": { "type": "Point", "coordinates": [ 130.914140596570661, 33.317364000181804 ] } },
{ "type": "Feature", "properties": { "P29_001": "44204", "P29_002": "A244310000230", "P29_003": "16013", "P29_004": "こども園るんびにい", "P29_005": "大分県日田市財津町3144-3", "P29_006": "4", "P29_007": "0", "P29_008": "00", "P29_009": null }, "geometry": { "type": "Point", "coordinates": [ 130.952172420979593, 33.355359183947101 ] } },
{ "type": "Feature", "properties": { "P29_001": "44204", "P29_002": "A244310000249", "P29_003": "16013", "P29_004": "すばるこども園", "P29_005": "大分県日田市竹田新町2-14", "P29_006": "4", "P29_007": "0", "P29_008": "00", "P29_009": null }, "geometry": { "type": "Point", "coordinates": [ 130.937981842170416, 33.31195430614904 ] } },
{ "type": "Feature", "properties": { "P29_001": "44210", "P29_002": "A244310000258", "P29_003": "16013", "P29_004": "山香こども園", "P29_005": "大分県杵築市山香町大字内河野2629-22", "P29_006": "4", "P29_007": "0", "P29_008": "00", "P29_009": null }, "geometry": { "type": "Point", "coordinates": [ 131.500553527675152, 33.451095218201722 ] } },
{ "type": "Feature", "properties": { "P29_001": "44210", "P29_002": "A244310000267", "P29_003": "16013", "P29_004": "中央こども園", "P29_005": "大分県杵築市大字南杵築972", "P29_006": "4", "P29_007": "0", "P29_008": "00", "P29_009": null }, "geometry": { "type": "Point", "coordinates": [ 131.605902717235296, 33.410821054233374 ] } },
{ "type": "Feature", "properties": { "P29_001": "44210", "P29_002": "A244310000276", "P29_003": "16013", "P29_004": "立石こども園", "P29_005": "大分県杵築市山香町大字立石2453-2", "P29_006": "4", "P29_007": "0", "P29_008": "00", "P29_009": null }, "geometry": { "type": "Point", "coordinates": [ 131.472182368475018, 33.483815427392521 ] } },
{ "type": "Feature", "properties": { "P29_001": "44211", "P29_002": "A244310000285", "P29_003": "16013", "P29_004": "宇佐こども園", "P29_005": "大分県宇佐市大字南宇佐2535", "P29_006": "4", "P29_007": "0", "P29_008": "00", "P29_009": null }, "geometry": { "type": "Point", "coordinates": [ 131.370570147138324, 33.525227767454254 ] } },
{ "type": "Feature", "properties": { "P29_001": "44211", "P29_002": "A244310000294", "P29_003": "16013", "P29_004": "四恩こども園", "P29_005": "大分県宇佐市大字上田520-2", "P29_006": "4", "P29_007": "0", "P29_008": "00", "P29_009": null }, "geometry": { "type": "Point", "coordinates": [ 131.344984261223431, 33.534395940559918 ] } },
{ "type": "Feature", "properties": { "P29_001": "44211", "P29_002": "A244310000301", "P29_003": "16013", "P29_004": "泉光こども園", "P29_005": "大分県宇佐市大字下庄955", "P29_006": "4", "P29_007": "0", "P29_008": "00", "P29_009": null }, "geometry": { "type": "Point", "coordinates": [ 131.290532004843783, 33.575473997907196 ] } },
{ "type": "Feature", "properties": { "P29_001": "44211", "P29_002": "A244310000310", "P29_003": "16013", "P29_004": "普照こども園", "P29_005": "大分県宇佐市大字江須賀1814", "P29_006": "4", "P29_007": "0", "P29_008": "00", "P29_009": null }, "geometry": { "type": "Point", "coordinates": [ 131.363036241932662, 33.556179220474711 ] } },
{ "type": "Feature", "properties": { "P29_001": "44211", "P29_002": "A244310000329", "P29_003": "16013", "P29_004": "めずらこども園", "P29_005": "大分県宇佐市大字下時枝100-3", "P29_006": "4", "P29_007": "0", "P29_008": "00", "P29_009": null }, "geometry": { "type": "Point", "coordinates": [ 131.307297639041366, 33.555118292090803 ] } },
{ "type": "Feature", "properties": { "P29_001": "44211", "P29_002": "A244310000338", "P29_003": "16013", "P29_004": "安心院こども園", "P29_005": "大分県宇佐市安心院下毛2138", "P29_006": "4", "P29_007": "0", "P29_008": "00", "P29_009": null }, "geometry": { "type": "Point", "coordinates": [ 131.353805998119327, 33.43737499807262 ] } },
{ "type": "Feature", "properties": { "P29_001": "44211", "P29_002": "A244310000347", "P29_003": "16013", "P29_004": "両川こども園", "P29_005": "大分県宇佐市院内町香下1492-2", "P29_006": "4", "P29_007": "0", "P29_008": "00", "P29_009": null }, "geometry": { "type": "Point", "coordinates": [ 131.326838876138424, 33.472673539499937 ] } },
{ "type": "Feature", "properties": { "P29_001": "44211", "P29_002": "A244310000356", "P29_003": "16013", "P29_004": "四日市こども園", "P29_005": "大分県宇佐市大字四日市3552-4", "P29_006": "4", "P29_007": "0", "P29_008": "00", "P29_009": null }, "geometry": { "type": "Point", "coordinates": [ 131.318027126292236, 33.526361464539164 ] } },
{ "type": "Feature", "properties": { "P29_001": "44212", "P29_002": "A244310000365", "P29_003": "16013", "P29_004": "ひがしこども園", "P29_005": "大分県豊後大野市三重町小坂3956", "P29_006": "4", "P29_007": "0", "P29_008": "00", "P29_009": null }, "geometry": { "type": "Point", "coordinates": [ 131.610778149117237, 32.989533769049594 ] } },
{ "type": "Feature", "properties": { "P29_001": "44212", "P29_002": "A244310000374", "P29_003": "16013", "P29_004": "ももえだこども園", "P29_005": "大分県豊後大野市三重町百枝1570", "P29_006": "4", "P29_007": "0", "P29_008": "00", "P29_009": null }, "geometry": { "type": "Point", "coordinates": [ 131.574611001673105, 32.999215002585103 ] } },
{ "type": "Feature", "properties": { "P29_001": "44212", "P29_002": "A244310000383", "P29_003": "16013", "P29_004": "すがおこども園", "P29_005": "大分県豊後大野市三重町菅生2398", "P29_006": "4", "P29_007": "0", "P29_008": "00", "P29_009": null }, "geometry": { "type": "Point", "coordinates": [ 131.613817801862467, 33.011207349287808 ] } },
{ "type": "Feature", "properties": { "P29_001": "44212", "P29_002": "A244310000392", "P29_003": "16013", "P29_004": "しいのみ保育園", "P29_005": "大分県豊後大野市清川町砂田1876-1", "P29_006": "4", "P29_007": "0", "P29_008": "00", "P29_009": null }, "geometry": { "type": "Point", "coordinates": [ 131.512002361326921, 32.968117566505256 ] } },
{ "type": "Feature", "properties": { "P29_001": "44212", "P29_002": "A244310000409", "P29_003": "16013", "P29_004": "あさじルンビニ保育園", "P29_005": "大分県豊後大野市朝地町坪泉526", "P29_006": "4", "P29_007": "0", "P29_008": "00", "P29_009": null }, "geometry": { "type": "Point", "coordinates": [ 131.43005712913029, 33.004765736791391 ] } },
{ "type": "Feature", "properties": { "P29_001": "44212", "P29_002": "A244310000418", "P29_003": "16013", "P29_004": "おおのルンビニこども園", "P29_005": "大分県豊後大野市大野町田中247-13", "P29_006": "4", "P29_007": "0", "P29_008": "00", "P29_009": null }, "geometry": { "type": "Point", "coordinates": [ 131.49692911463984, 33.040968601936214 ] } },
{ "type": "Feature", "properties": { "P29_001": "44212", "P29_002": "A244310000427", "P29_003": "16013", "P29_004": "いぬかいこども園", "P29_005": "大分県豊後大野市犬飼町田原1419", "P29_006": "4", "P29_007": "0", "P29_008": "00", "P29_009": null }, "geometry": { "type": "Point", "coordinates": [ 131.633201223330417, 33.066523898266631 ] } },
{ "type": "Feature", "properties": { "P29_001": "44214", "P29_002": "A244310000436", "P29_003": "16013", "P29_004": "むさしこども園", "P29_005": "大分県国東市武蔵町糸原498", "P29_006": "4", "P29_007": "0", "P29_008": "00", "P29_009": null }, "geometry": { "type": "Point", "coordinates": [ 131.720225915600082, 33.495477613237483 ] } },
{ "type": "Feature", "properties": { "P29_001": "44214", "P29_002": "A244310000445", "P29_003": "16013", "P29_004": "国東こども園", "P29_005": "大分県国東市国東町田深字安ヶ浜1571-14", "P29_006": "4", "P29_007": "0", "P29_008": "00", "P29_009": null }, "geometry": { "type": "Point", "coordinates": [ 131.733153254687778, 33.571754038583407 ] } },
{ "type": "Feature", "properties": { "P29_001": "44214", "P29_002": "A244310000454", "P29_003": "16013", "P29_004": "安岐中央こども園", "P29_005": "大分県国東市安岐町下山口606-3", "P29_006": "4", "P29_007": "0", "P29_008": "00", "P29_009": null }, "geometry": { "type": "Point", "coordinates": [ 131.684692871695461, 33.45730145647245 ] } },
{ "type": "Feature", "properties": { "P29_001": "44462", "P29_002": "A244310000463", "P29_003": "16013", "P29_004": "くるみの森愛児園", "P29_005": "大分県玖珠郡玖珠町大字帆足2207-6", "P29_006": "4", "P29_007": "0", "P29_008": "00", "P29_009": null }, "geometry": { "type": "Point", "coordinates": [ 131.157683100380979, 33.292579314760196 ] } },
{ "type": "Feature", "properties": { "P29_001": "44462", "P29_002": "A244310000472", "P29_003": "16013", "P29_004": "くるみ夢愛児園", "P29_005": "大分県玖珠郡玖珠町大字太田266-1", "P29_006": "4", "P29_007": "0", "P29_008": "00", "P29_009": null }, "geometry": { "type": "Point", "coordinates": [ 131.139371016894074, 33.308771387619778 ] } },
{ "type": "Feature", "properties": { "P29_001": "44462", "P29_002": "A244310000481", "P29_003": "16013", "P29_004": "くすのきこども園", "P29_005": "大分県玖珠郡玖珠町大字塚脇486", "P29_006": "4", "P29_007": "0", "P29_008": "00", "P29_009": null }, "geometry": { "type": "Point", "coordinates": [ 131.152656561198654, 33.27468942500898 ] } },
{ "type": "Feature", "properties": { "P29_001": "44462", "P29_002": "A244310000490", "P29_003": "16013", "P29_004": "杉ノ子こども園", "P29_005": "大分県玖珠郡玖珠町大字戸畑2858", "P29_006": "4", "P29_007": "0", "P29_008": "00", "P29_009": null }, "geometry": { "type": "Point", "coordinates": [ 131.096166284943706, 33.285040373796839 ] } },
{ "type": "Feature", "properties": { "P29_001": "44462", "P29_002": "A244310000506", "P29_003": "16013", "P29_004": "たかすこども園", "P29_005": "大分県玖珠郡玖珠町大字帆足216-1", "P29_006": "4", "P29_007": "0", "P29_008": "00", "P29_009": null }, "geometry": { "type": "Point", "coordinates": [ 131.150312538245771, 33.284457138269502 ] } },
{ "type": "Feature", "properties": { "P29_001": "44211", "P29_002": "A244310000515", "P29_003": "16013", "P29_004": "豊川こども園", "P29_005": "大分県宇佐市大字大塚876", "P29_006": "4", "P29_007": "0", "P29_008": "00", "P29_009": null }, "geometry": { "type": "Point", "coordinates": [ 131.334034615115002, 33.520016192469882 ] } },
{ "type": "Feature", "properties": { "P29_001": "44201", "P29_002": "A244310000524", "P29_003": "16013", "P29_004": "キッドワールドこども園", "P29_005": "大分県大分市大字片島字下津留412-2", "P29_006": "4", "P29_007": "0", "P29_008": "00", "P29_009": null }, "geometry": { "type": "Point", "coordinates": [ 131.625000892074212, 33.218981763132675 ] } },
{ "type": "Feature", "properties": { "P29_001": "44201", "P29_002": "A244310000533", "P29_003": "16013", "P29_004": "東稙田こども園", "P29_005": "大分県大分市田尻589-2", "P29_006": "4", "P29_007": "0", "P29_008": "00", "P29_009": null }, "geometry": { "type": "Point", "coordinates": [ 131.594377866824516, 33.186815112141254 ] } },
{ "type": "Feature", "properties": { "P29_001": "44201", "P29_002": "A244310000542", "P29_003": "16013", "P29_004": "かくこどもえん", "P29_005": "大分県大分市賀来南2-6-35", "P29_006": "4", "P29_007": "0", "P29_008": "00", "P29_009": null }, "geometry": { "type": "Point", "coordinates": [ 131.562777007197667, 33.210689773938476 ] } },
{ "type": "Feature", "properties": { "P29_001": "44201", "P29_002": "A244310000551", "P29_003": "16013", "P29_004": "旦の原保育園", "P29_005": "大分県大分市高江北2-8-1", "P29_006": "4", "P29_007": "0", "P29_008": "00", "P29_009": null }, "geometry": { "type": "Point", "coordinates": [ 131.616262999376772, 33.169547997675402 ] } },
{ "type": "Feature", "properties": { "P29_001": "44204", "P29_002": "A244310000560", "P29_003": "16013", "P29_004": "みそらこども園", "P29_005": "大分県日田市大字小迫字中村74-2", "P29_006": "4", "P29_007": "0", "P29_008": "00", "P29_009": null }, "geometry": { "type": "Point", "coordinates": [ 130.925559159858864, 33.334614566251602 ] } },
{ "type": "Feature", "properties": { "P29_001": "44208", "P29_002": "A244310000579", "P29_003": "16013", "P29_004": "なおいりこども園", "P29_005": "大分県竹田市直入町長湯8195-28", "P29_006": "4", "P29_007": "0", "P29_008": "00", "P29_009": null }, "geometry": { "type": "Point", "coordinates": [ 131.385368079863866, 33.078318488080022 ] } },
{ "type": "Feature", "properties": { "P29_001": "44210", "P29_002": "A244310000588", "P29_003": "16013", "P29_004": "恵城こども園", "P29_005": "大分県杵築市大字中580-2", "P29_006": "4", "P29_007": "0", "P29_008": "00", "P29_009": null }, "geometry": { "type": "Point", "coordinates": [ 131.582152893251504, 33.400635634210552 ] } },
{ "type": "Feature", "properties": { "P29_001": "44210", "P29_002": "A244310000597", "P29_003": "16013", "P29_004": "浄願寺こども園", "P29_005": "大分県杵築市大字猪尾1132-1", "P29_006": "4", "P29_007": "0", "P29_008": "00", "P29_009": null }, "geometry": { "type": "Point", "coordinates": [ 131.622005463031371, 33.403522665248211 ] } },
{ "type": "Feature", "properties": { "P29_001": "44210", "P29_002": "A244310000604", "P29_003": "16013", "P29_004": "大正こども園", "P29_005": "大分県杵築市大字南杵築406", "P29_006": "4", "P29_007": "0", "P29_008": "00", "P29_009": null }, "geometry": { "type": "Point", "coordinates": [ 131.613931000313897, 33.413573001814996 ] } },
{ "type": "Feature", "properties": { "P29_001": "44212", "P29_002": "A244310000613", "P29_003": "16013", "P29_004": "どんぐり幼稚園", "P29_005": "大分県豊後大野市三重町市場1477-4", "P29_006": "4", "P29_007": "0", "P29_008": "00", "P29_009": null }, "geometry": { "type": "Point", "coordinates": [ 131.579617064399088, 32.978974194261461 ] } },
{ "type": "Feature", "properties": { "P29_001": "44341", "P29_002": "A244310000622", "P29_003": "16013", "P29_004": "山茶花こども園", "P29_005": "大分県速見郡日出町大字大神7092-1", "P29_006": "4", "P29_007": "0", "P29_008": "00", "P29_009": null }, "geometry": { "type": "Point", "coordinates": [ 131.578666937828217, 33.368336576688087 ] } },
{ "type": "Feature", "properties": { "P29_001": "44341", "P29_002": "A244310000631", "P29_003": "16013", "P29_004": "日出やまとこども園", "P29_005": "大分県速見郡日出町1855-1", "P29_006": "4", "P29_007": "0", "P29_008": "00", "P29_009": null }, "geometry": { "type": "Point", "coordinates": [ 131.527699002662217, 33.370975004654206 ] } },
{ "type": "Feature", "properties": { "P29_001": "44203", "P29_002": "A244310000640", "P29_003": "16013", "P29_004": "如水こども園", "P29_005": "大分県中津市大字是則1246-2", "P29_006": "4", "P29_007": "0", "P29_008": "00", "P29_009": null }, "geometry": { "type": "Point", "coordinates": [ 131.237701977698379, 33.583490819660355 ] } },
{ "type": "Feature", "properties": { "P29_001": "44203", "P29_002": "A244310000659", "P29_003": "16013", "P29_004": "にしきこども園", "P29_005": "大分県中津市大字湯屋382", "P29_006": "4", "P29_007": "0", "P29_008": "00", "P29_009": null }, "geometry": { "type": "Point", "coordinates": [ 131.19045997546894, 33.579415622093855 ] } },
{ "type": "Feature", "properties": { "P29_001": "44204", "P29_002": "A244310000668", "P29_003": "16013", "P29_004": "ひかりこども園", "P29_005": "大分県日田市田島2-12-8", "P29_006": "4", "P29_007": "0", "P29_008": "00", "P29_009": null }, "geometry": { "type": "Point", "coordinates": [ 130.942797003318844, 33.318166092635558 ] } },
{ "type": "Feature", "properties": { "P29_001": "44341", "P29_002": "A244310000677", "P29_003": "16013", "P29_004": "藤原こども園", "P29_005": "大分県速見郡日出町大字藤原1836-1", "P29_006": "4", "P29_007": "0", "P29_008": "00", "P29_009": null }, "geometry": { "type": "Point", "coordinates": [ 131.542672153264817, 33.376557364142194 ] } },
{ "type": "Feature", "properties": { "P29_001": "44201", "P29_002": "A244310000686", "P29_003": "16013", "P29_004": "桜町こども園", "P29_005": "大分県大分市寿町1-19", "P29_006": "4", "P29_007": "0", "P29_008": "00", "P29_009": null }, "geometry": { "type": "Point", "coordinates": [ 131.602183509195925, 33.24016830904246 ] } },
{ "type": "Feature", "properties": { "P29_001": "44201", "P29_002": "A244310000695", "P29_003": "16013", "P29_004": "津守あすなろこども園", "P29_005": "大分県大分市津守12組", "P29_006": "4", "P29_007": "0", "P29_008": "00", "P29_009": null }, "geometry": { "type": "Point", "coordinates": [ 131.618939779557621, 33.212632723244901 ] } },
{ "type": "Feature", "properties": { "P29_001": "44201", "P29_002": "A244310000702", "P29_003": "16013", "P29_004": "明野台こども園", "P29_005": "大分県大分市大字猪野360-1", "P29_006": "4", "P29_007": "0", "P29_008": "00", "P29_009": null }, "geometry": { "type": "Point", "coordinates": [ 131.668846125600652, 33.226522692024666 ] } },
{ "type": "Feature", "properties": { "P29_001": "44201", "P29_002": "A244310000711", "P29_003": "16013", "P29_004": "稙田こども園", "P29_005": "大分県大分市大字市445-2", "P29_006": "4", "P29_007": "0", "P29_008": "00", "P29_009": null }, "geometry": { "type": "Point", "coordinates": [ 131.570565523141084, 33.188009662156944 ] } },
{ "type": "Feature", "properties": { "P29_001": "44202", "P29_002": "A244310000720", "P29_003": "16013", "P29_004": "あおばこども園", "P29_005": "大分県別府市大畑11組", "P29_006": "4", "P29_007": "0", "P29_008": "00", "P29_009": null }, "geometry": { "type": "Point", "coordinates": [ 131.472075003915393, 33.305700003661258 ] } },
{ "type": "Feature", "properties": { "P29_001": "44202", "P29_002": "A244310000739", "P29_003": "16013", "P29_004": "朝日こども園", "P29_005": "大分県別府市火売7組-2", "P29_006": "4", "P29_007": "0", "P29_008": "00", "P29_009": null }, "geometry": { "type": "Point", "coordinates": [ 131.470224000580345, 33.30996100301136 ] } },
{ "type": "Feature", "properties": { "P29_001": "44203", "P29_002": "A244310000748", "P29_003": "16013", "P29_004": "若草こども園", "P29_005": "大分県中津市殿町1436-1", "P29_006": "4", "P29_007": "0", "P29_008": "00", "P29_009": null }, "geometry": { "type": "Point", "coordinates": [ 131.184739203869356, 33.602547590485685 ] } },
{ "type": "Feature", "properties": { "P29_001": "44203", "P29_002": "A244310000757", "P29_003": "16013", "P29_004": "中殿こども園", "P29_005": "大分県中津市中殿町3-17-1", "P29_006": "4", "P29_007": "0", "P29_008": "00", "P29_009": null }, "geometry": { "type": "Point", "coordinates": [ 131.195626409877661, 33.595706154941929 ] } },
{ "type": "Feature", "properties": { "P29_001": "44203", "P29_002": "A244310000766", "P29_003": "16013", "P29_004": "沖代こども園", "P29_005": "大分県中津市沖代町1-4-55", "P29_006": "4", "P29_007": "0", "P29_008": "00", "P29_009": null }, "geometry": { "type": "Point", "coordinates": [ 131.200810001029822, 33.586600997286489 ] } },
{ "type": "Feature", "properties": { "P29_001": "44203", "P29_002": "A244310000775", "P29_003": "16013", "P29_004": "認定こども園めぐみ幼稚園", "P29_005": "大分県中津市大字是則1203-2", "P29_006": "4", "P29_007": "0", "P29_008": "00", "P29_009": null }, "geometry": { "type": "Point", "coordinates": [ 131.239409698928597, 33.582318259454105 ] } },
{ "type": "Feature", "properties": { "P29_001": "44204", "P29_002": "A244310000784", "P29_003": "16013", "P29_004": "認定こども園五和保育園", "P29_005": "大分県日田市石井町3-1244-1", "P29_006": "4", "P29_007": "0", "P29_008": "00", "P29_009": null }, "geometry": { "type": "Point", "coordinates": [ 130.90671688255344, 33.31177990286924 ] } },
{ "type": "Feature", "properties": { "P29_001": "44213", "P29_002": "A244310000793", "P29_003": "16013", "P29_004": "ひばりこども園", "P29_005": "大分県由布市庄内町柿原410-1", "P29_006": "4", "P29_007": "0", "P29_008": "00", "P29_009": null }, "geometry": { "type": "Point", "coordinates": [ 131.424340804304506, 33.17850540191688 ] } },
{ "type": "Feature", "properties": { "P29_001": "44341", "P29_002": "A244310000800", "P29_003": "16013", "P29_004": "川崎こども園", "P29_005": "大分県速見郡日出町大字川崎5066-1", "P29_006": "4", "P29_007": "0", "P29_008": "00", "P29_009": null }, "geometry": { "type": "Point", "coordinates": [ 131.549089635706309, 33.36686716608606 ] } },
{ "type": "Feature", "properties": { "P29_001": "44341", "P29_002": "A244310000819", "P29_003": "16013", "P29_004": "野に咲くこども幼児舎", "P29_005": "大分県速見郡日出町大字豊岡768-1", "P29_006": "4", "P29_007": "0", "P29_008": "00", "P29_009": null }, "geometry": { "type": "Point", "coordinates": [ 131.506949998523424, 33.36442900017331 ] } },
{ "type": "Feature", "properties": { "P29_001": "44201", "P29_002": "A244310000828", "P29_003": "16013", "P29_004": "稙田こども園さくらんぼ分園", "P29_005": "大分県大分市大字市442-1コーポラス市103", "P29_006": "4", "P29_007": "0", "P29_008": "00", "P29_009": null }, "geometry": { "type": "Point", "coordinates": [ 131.570549915745545, 33.187768596619456 ] } },
{ "type": "Feature", "properties": { "P29_001": "44201", "P29_002": "A244310000837", "P29_003": "16013", "P29_004": "たかおこども園分園", "P29_005": "大分県大分市大字横尾3766-1", "P29_006": "4", "P29_007": "0", "P29_008": "00", "P29_009": null }, "geometry": { "type": "Point", "coordinates": [ 131.664470319223483, 33.209939624094993 ] } },
{ "type": "Feature", "properties": { "P29_001": "44201", "P29_002": "A244310000846", "P29_003": "16013", "P29_004": "緑が丘こども園分園", "P29_005": "大分県大分市緑が丘2-23-5", "P29_006": "4", "P29_007": "0", "P29_008": "00", "P29_009": null }, "geometry": { "type": "Point", "coordinates": [ 131.529574002111815, 33.185879001980332 ] } },
{ "type": "Feature", "properties": { "P29_001": "44201", "P29_002": "A244310000855", "P29_003": "16013", "P29_004": "よいこの森こども園角子原分園", "P29_005": "大分県大分市角子原2-163", "P29_006": "4", "P29_007": "0", "P29_008": "00", "P29_009": null }, "geometry": { "type": "Point", "coordinates": [ 131.714079794499696, 33.248343652220733 ] } },
{ "type": "Feature", "properties": { "P29_001": "44201", "P29_002": "A244310000864", "P29_003": "16013", "P29_004": "キッドワールドこども園分園", "P29_005": "大分県大分市大字片島415-2", "P29_006": "4", "P29_007": "0", "P29_008": "00", "P29_009": null }, "geometry": { "type": "Point", "coordinates": [ 131.625798779821224, 33.218920922744616 ] } },
{ "type": "Feature", "properties": { "P29_001": "44210", "P29_002": "A244310000873", "P29_003": "16013", "P29_004": "山香こども園山浦分園", "P29_005": "大分県杵築市山香町大字山浦2493-3", "P29_006": "4", "P29_007": "0", "P29_008": "00", "P29_009": null }, "geometry": { "type": "Point", "coordinates": [ 131.440749999645789, 33.458530995147434 ] } },
{ "type": "Feature", "properties": { "P29_001": "44201", "P29_002": "A244310000882", "P29_003": "16013", "P29_004": "大分いちごこども園", "P29_005": "大分県大分市明磧10組3", "P29_006": "4", "P29_007": "0", "P29_008": "00", "P29_009": null }, "geometry": { "type": "Point", "coordinates": [ 131.588754886182471, 33.210536923394244 ] } },
{ "type": "Feature", "properties": { "P29_001": "44201", "P29_002": "A244310000891", "P29_003": "16013", "P29_004": "こざいこども園", "P29_005": "大分県大分市大字屋山1658-6", "P29_006": "4", "P29_007": "0", "P29_008": "00", "P29_009": null }, "geometry": { "type": "Point", "coordinates": [ 131.743252705902563, 33.219314548304233 ] } },
{ "type": "Feature", "properties": { "P29_001": "44201", "P29_002": "A244310000908", "P29_003": "16013", "P29_004": "コスモスこども園", "P29_005": "大分県大分市大字豊饒字切戸270-3", "P29_006": "4", "P29_007": "0", "P29_008": "00", "P29_009": null }, "geometry": { "type": "Point", "coordinates": [ 131.597758072514864, 33.209270126777994 ] } },
{ "type": "Feature", "properties": { "P29_001": "44201", "P29_002": "A244310000917", "P29_003": "16013", "P29_004": "コスモスこども園分園", "P29_005": "大分県大分市大字羽屋291-3", "P29_006": "4", "P29_007": "0", "P29_008": "00", "P29_009": null }, "geometry": { "type": "Point", "coordinates": [ 131.599310673087103, 33.21163405469904 ] } },
{ "type": "Feature", "properties": { "P29_001": "44201", "P29_002": "A244310000926", "P29_003": "16013", "P29_004": "やはたこども園", "P29_005": "大分県大分市生石44-4", "P29_006": "4", "P29_007": "0", "P29_008": "00", "P29_009": null }, "geometry": { "type": "Point", "coordinates": [ 131.578952587037264, 33.246786876464377 ] } },
{ "type": "Feature", "properties": { "P29_001": "44201", "P29_002": "A244310000935", "P29_003": "16013", "P29_004": "稙田ほまれこども園", "P29_005": "大分県大分市上宗方279-1", "P29_006": "4", "P29_007": "0", "P29_008": "00", "P29_009": null }, "geometry": { "type": "Point", "coordinates": [ 131.584261206670192, 33.199674534472749 ] } },
{ "type": "Feature", "properties": { "P29_001": "44205", "P29_002": "A244310000944", "P29_003": "16013", "P29_004": "ルンビニこども園", "P29_005": "大分県佐伯市城下東町5-4", "P29_006": "4", "P29_007": "0", "P29_008": "00", "P29_009": null }, "geometry": { "type": "Point", "coordinates": [ 131.895249250382193, 32.959396113786838 ] } },
{ "type": "Feature", "properties": { "P29_001": "44206", "P29_002": "A244310000953", "P29_003": "16013", "P29_004": "海辺こども園", "P29_005": "大分県臼杵市大字大浜526-2", "P29_006": "4", "P29_007": "0", "P29_008": "00", "P29_009": null }, "geometry": { "type": "Point", "coordinates": [ 131.806963848152861, 33.13672638152822 ] } },
{ "type": "Feature", "properties": { "P29_001": "44206", "P29_002": "A244310000962", "P29_003": "16013", "P29_004": "すみれこども園", "P29_005": "大分県臼杵市大字大野字友田大道西12", "P29_006": "4", "P29_007": "0", "P29_008": "00", "P29_009": null }, "geometry": { "type": "Point", "coordinates": [ 131.788973297415339, 33.140767527544696 ] } },
{ "type": "Feature", "properties": { "P29_001": "44206", "P29_002": "A244310000971", "P29_003": "16013", "P29_004": "野津こども園", "P29_005": "大分県臼杵市野津町宮原3950-1", "P29_006": "4", "P29_007": "0", "P29_008": "00", "P29_009": null }, "geometry": { "type": "Point", "coordinates": [ 131.692710536839087, 33.049942626890349 ] } },
{ "type": "Feature", "properties": { "P29_001": "44201", "P29_002": "A244310000980", "P29_003": "16013", "P29_004": "じょうとうこども園", "P29_005": "大分県大分市萩原3-17-16", "P29_006": "4", "P29_007": "0", "P29_008": "00", "P29_009": null }, "geometry": { "type": "Point", "coordinates": [ 131.644984727446371, 33.244968057443536 ] } },
{ "type": "Feature", "properties": { "P29_001": "44201", "P29_002": "A244310000999", "P29_003": "16013", "P29_004": "キッドワールドセカンドこども園", "P29_005": "大分県大分市大字片島字長三郎3005-3", "P29_006": "4", "P29_007": "0", "P29_008": "00", "P29_009": null }, "geometry": { "type": "Point", "coordinates": [ 131.634430438714531, 33.206615501486127 ] } },
{ "type": "Feature", "properties": { "P29_001": "44201", "P29_002": "A244310001006", "P29_003": "16013", "P29_004": "南大分に笑顔咲くえんわらひ", "P29_005": "大分県大分市畑中字無田921", "P29_006": "4", "P29_007": "0", "P29_008": "00", "P29_009": null }, "geometry": { "type": "Point", "coordinates": [ 131.597908778372926, 33.206065806742068 ] } },
{ "type": "Feature", "properties": { "P29_001": "44201", "P29_002": "A244310001015", "P29_003": "16013", "P29_004": "宗方こども園", "P29_005": "大分県大分市大字上宗方1045-1", "P29_006": "4", "P29_007": "0", "P29_008": "00", "P29_009": null }, "geometry": { "type": "Point", "coordinates": [ 131.579353720716085, 33.196458637361282 ] } },
{ "type": "Feature", "properties": { "P29_001": "44205", "P29_002": "A244310001024", "P29_003": "16013", "P29_004": "やよいこども園", "P29_005": "大分県佐伯市佐伯市弥生大字上小倉1201-1", "P29_006": "4", "P29_007": "0", "P29_008": "00", "P29_009": null }, "geometry": { "type": "Point", "coordinates": [ 131.84065599698863, 32.968603002902434 ] } },
{ "type": "Feature", "properties": { "P29_001": "44208", "P29_002": "A244310001033", "P29_003": "16013", "P29_004": "荻げんきこども園", "P29_005": "大分県竹田市竹田市荻町馬場452", "P29_006": "4", "P29_007": "0", "P29_008": "00", "P29_009": null }, "geometry": { "type": "Point", "coordinates": [ 131.297554000619044, 32.921621001972149 ] } },
{ "type": "Feature", "properties": { "P29_001": "44204", "P29_002": "A244310001042", "P29_003": "16013", "P29_004": "白毫こども園（令和こどもの森分園）", "P29_005": "大分県日田市大鶴本町861-1", "P29_006": "4", "P29_007": "0", "P29_008": "00", "P29_009": null }, "geometry": { "type": "Point", "coordinates": [ 130.889779001638544, 33.370479999938773 ] } },
{ "type": "Feature", "properties": { "P29_001": "44201", "P29_002": "A244310001051", "P29_003": "16013", "P29_004": "たかお第二こども園", "P29_005": "大分県大分市大字横尾4110", "P29_006": "4", "P29_007": "0", "P29_008": "00", "P29_009": null }, "geometry": { "type": "Point", "coordinates": [ 131.661846380092413, 33.208153884681799 ] } },
{ "type": "Feature", "properties": { "P29_001": "44213", "P29_002": "A244310001060", "P29_003": "16013", "P29_004": "きらりこども園", "P29_005": "大分県由布市挾間町挾間625-1", "P29_006": "4", "P29_007": "0", "P29_008": "00", "P29_009": null }, "geometry": { "type": "Point", "coordinates": [ 131.517143549104134, 33.199880403255925 ] } },
{ "type": "Feature", "properties": { "P29_001": "44213", "P29_002": "A244310001079", "P29_003": "16013", "P29_004": "はさまこども園", "P29_005": "大分県由布市挾間町挾間114", "P29_006": "4", "P29_007": "0", "P29_008": "00", "P29_009": null }, "geometry": { "type": "Point", "coordinates": [ 131.513275617744569, 33.201407791532638 ] } },
{ "type": "Feature", "properties": { "P29_001": "44213", "P29_002": "A244310001088", "P29_003": "16013", "P29_004": "湯布院すみれこども園", "P29_005": "大分県由布市湯布院町川上2542", "P29_006": "4", "P29_007": "0", "P29_008": "00", "P29_009": null }, "geometry": { "type": "Point", "coordinates": [ 131.366213663983899, 33.261708124194236 ] } },
{ "type": "Feature", "properties": { "P29_001": "44204", "P29_002": "A244310001097", "P29_003": "16013", "P29_004": "認定こども園日田ルーテルこども園", "P29_005": "大分県日田市日田市三本松2-3-39", "P29_006": "4", "P29_007": "0", "P29_008": "00", "P29_009": null }, "geometry": { "type": "Point", "coordinates": [ 130.92976111745736, 33.321946640913758 ] } },
{ "type": "Feature", "properties": { "P29_001": "44204", "P29_002": "A244310001104", "P29_003": "16013", "P29_004": "認定こども園みのり", "P29_005": "大分県日田市城町2-1-51", "P29_006": "4", "P29_007": "0", "P29_008": "00", "P29_009": null }, "geometry": { "type": "Point", "coordinates": [ 130.941117626682797, 33.33011858526725 ] } },
{ "type": "Feature", "properties": { "P29_001": "44211", "P29_002": "A244310001113", "P29_003": "16013", "P29_004": "金屋こども園", "P29_005": "大分県宇佐市金屋880", "P29_006": "4", "P29_007": "0", "P29_008": "00", "P29_009": null }, "geometry": { "type": "Point", "coordinates": [ 131.372894649073856, 33.560389538046607 ] } },
{ "type": "Feature", "properties": { "P29_001": "44201", "P29_002": "A244310001122", "P29_003": "16013", "P29_004": "宗方東こども園", "P29_005": "大分県大分市上宗方1495", "P29_006": "4", "P29_007": "0", "P29_008": "00", "P29_009": null }, "geometry": { "type": "Point", "coordinates": [ 131.579162862966086, 33.201858317555356 ] } },
{ "type": "Feature", "properties": { "P29_001": "44341", "P29_002": "A244310001131", "P29_003": "16013", "P29_004": "聖武幼稚園", "P29_005": "大分県速見郡日出町3898-5", "P29_006": "4", "P29_007": "0", "P29_008": "00", "P29_009": null }, "geometry": { "type": "Point", "coordinates": [ 131.531072529116045, 33.372672908104761 ] } },
{ "type": "Feature", "properties": { "P29_001": "44203", "P29_002": "A244310001140", "P29_003": "16013", "P29_004": "双葉中央こども園", "P29_005": "大分県中津市中央町1-455", "P29_006": "4", "P29_007": "0", "P29_008": "00", "P29_009": null }, "geometry": { "type": "Point", "coordinates": [ 131.188934820624382, 33.589682547822321 ] } }
]
}
