{
"type": "FeatureCollection",
"name": "geo_44_小規模多機能型居宅介護",
"crs": { "type": "name", "properties": { "name": "urn:ogc:def:crs:OGC:1.3:CRS84" } },
"features": [
{ "type": "Feature", "properties": { "内容": "サンハウス大手町【小規模多機能型居宅介護】大分県大分市大手町２丁目３－１７大手町太陽ビル１階及び２階", "url": "https://www.kaigokensaku.mhlw.go.jp/44/index.php?action_kouhyou_detail_004_kani=true&JigyosyoCd=4490100429-00&ServiceCd=730&Type=search", "url2": "http://www.taiyonoie.or.jp/" }, "geometry": { "type": "Point", "coordinates": [ 131.6134604, 33.2371219 ] } },
{ "type": "Feature", "properties": { "内容": "セントケア大分古国府【小規模多機能型居宅介護】大分県大分市大字古国府201－1", "url": "https://www.kaigokensaku.mhlw.go.jp/44/index.php?action_kouhyou_detail_004_kani=true&JigyosyoCd=4490100395-00&ServiceCd=730&Type=search", "url2": "scoitafurugo@saint-care.com" }, "geometry": { "type": "Point", "coordinates": [ 131.6051589, 33.2176598 ] } },
{ "type": "Feature", "properties": { "内容": "小規模多機能型居宅介護なでしこ【小規模多機能型居宅介護】大分県大分市大字千歳字林970-1", "url": "https://www.kaigokensaku.mhlw.go.jp/44/index.php?action_kouhyou_detail_004_kani=true&JigyosyoCd=4490100551-00&ServiceCd=730&Type=search", "url2": null }, "geometry": { "type": "Point", "coordinates": [ 131.663826749537634, 33.240640976940277 ] } },
{ "type": "Feature", "properties": { "内容": "小規模多機能ホームゆいまーる【小規模多機能型居宅介護】大分県大分市大字中判田1655番地1", "url": "https://www.kaigokensaku.mhlw.go.jp/44/index.php?action_kouhyou_detail_004_kani=true&JigyosyoCd=4490101047-00&ServiceCd=730&Type=search", "url2": "oita-yuima-ru.com" }, "geometry": { "type": "Point", "coordinates": [ 131.6415041, 33.166194 ] } },
{ "type": "Feature", "properties": { "内容": "小規模多機能型居宅介護　アドニスホーム賀来【小規模多機能型居宅介護】大分県大分市賀来西1-3-22", "url": "https://www.kaigokensaku.mhlw.go.jp/44/index.php?action_kouhyou_detail_004_kani=true&JigyosyoCd=4490100403-00&ServiceCd=730&Type=search", "url2": "http：//www．fukujyukai．net" }, "geometry": { "type": "Point", "coordinates": [ 131.562090799999964, 33.2138802 ] } },
{ "type": "Feature", "properties": { "内容": "陽だまりの郷　みなはる【小規模多機能型居宅介護】大分県大分市大字皆春1521番地の1", "url": "https://www.kaigokensaku.mhlw.go.jp/44/index.php?action_kouhyou_detail_004_kani=true&JigyosyoCd=4490100544-00&ServiceCd=730&Type=search", "url2": "www.hojuen.jp" }, "geometry": { "type": "Point", "coordinates": [ 131.684254983250412, 33.23604846816535 ] } },
{ "type": "Feature", "properties": { "内容": "小規模多機能型居宅介護施設　びわのす【小規模多機能型居宅介護】大分県大分市大字常行263番地", "url": "https://www.kaigokensaku.mhlw.go.jp/44/index.php?action_kouhyou_detail_004_kani=true&JigyosyoCd=4490100387-00&ServiceCd=730&Type=search", "url2": "https://seiryu-kyousei.org" }, "geometry": { "type": "Point", "coordinates": [ 131.688782700000047, 33.2193268 ] } },
{ "type": "Feature", "properties": { "内容": "多機能ホーム　碩田柞原の里【小規模多機能型居宅介護】大分県大分市弁天１丁目２番３号", "url": "https://www.kaigokensaku.mhlw.go.jp/44/index.php?action_kouhyou_detail_004_kani=true&JigyosyoCd=4490100361-00&ServiceCd=730&Type=search", "url2": "www.sekidenyusuhara.jp" }, "geometry": { "type": "Point", "coordinates": [ 131.613541, 33.2517572 ] } },
{ "type": "Feature", "properties": { "内容": "小規模多機能型居宅介護施設もみ【小規模多機能型居宅介護】大分県大分市大字猪野729番地の1", "url": "https://www.kaigokensaku.mhlw.go.jp/44/index.php?action_kouhyou_detail_004_kani=true&JigyosyoCd=4490100890-00&ServiceCd=730&Type=search", "url2": "https://seiryu-kyousei.org" }, "geometry": { "type": "Point", "coordinates": [ 131.669042, 33.2321607 ] } },
{ "type": "Feature", "properties": { "内容": "小規模多機能型居宅介護はなぞの【小規模多機能型居宅介護】大分県大分市花江川４－２８", "url": "https://www.kaigokensaku.mhlw.go.jp/44/index.php?action_kouhyou_detail_004_kani=true&JigyosyoCd=4490100411-00&ServiceCd=730&Type=search", "url2": "http://www.hyakkaen.or.jp/hyakkaen/z_hyakkaen.htm" }, "geometry": { "type": "Point", "coordinates": [ 131.70793290000006, 33.2458659 ] } },
{ "type": "Feature", "properties": { "内容": "小規模多機能はなみずき【小規模多機能型居宅介護】大分県大分市大字鴛野１１８３番地１", "url": "https://www.kaigokensaku.mhlw.go.jp/44/index.php?action_kouhyou_detail_004_kani=true&JigyosyoCd=4490100296-00&ServiceCd=730&Type=search", "url2": "https://care-net.biz/44/atene1212/" }, "geometry": { "type": "Point", "coordinates": [ 131.614586499999973, 33.1855023 ] } },
{ "type": "Feature", "properties": { "内容": "小規模多機能ホーム　つかがわ【小規模多機能型居宅介護】大分県大分市東春日町5-25", "url": "https://www.kaigokensaku.mhlw.go.jp/44/index.php?action_kouhyou_detail_004_kani=true&JigyosyoCd=4490100072-00&ServiceCd=730&Type=search", "url2": "http://www.hakkokai.com/" }, "geometry": { "type": "Point", "coordinates": [ 131.600009299999982, 33.240288 ] } },
{ "type": "Feature", "properties": { "内容": "小規模多機能型居宅介護事業所　福祉の森【小規模多機能型居宅介護】大分県別府市光町１１－５", "url": "https://www.kaigokensaku.mhlw.go.jp/44/index.php?action_kouhyou_detail_004_kani=true&JigyosyoCd=4490200070-00&ServiceCd=730&Type=search", "url2": "http//betsufukukai.com" }, "geometry": { "type": "Point", "coordinates": [ 131.498621500000013, 33.2749739 ] } },
{ "type": "Feature", "properties": { "内容": "小規模多機能型居宅介護　愛音【小規模多機能型居宅介護】大分県別府市石垣西9丁目1番-38", "url": "https://www.kaigokensaku.mhlw.go.jp/44/index.php?action_kouhyou_detail_004_kani=true&JigyosyoCd=4490200096-00&ServiceCd=730&Type=search", "url2": "http://kubota-clinic.com/aion/" }, "geometry": { "type": "Point", "coordinates": [ 131.494502600000033, 33.3034483 ] } },
{ "type": "Feature", "properties": { "内容": "小規模多機能型居宅介護両郡橋事業所福祉の森【小規模多機能型居宅介護】大分県別府市両郡橋１０組", "url": "https://www.kaigokensaku.mhlw.go.jp/44/index.php?action_kouhyou_detail_004_kani=true&JigyosyoCd=4490200245-00&ServiceCd=730&Type=search", "url2": "http://betsufukukai.com" }, "geometry": { "type": "Point", "coordinates": [ 131.517296161026394, 33.264677562241495 ] } },
{ "type": "Feature", "properties": { "内容": "小規模多機能型居宅介護事業所（サテライト型）光町事業所　福祉の森【小規模多機能型居宅介護】大分県別府市光町１１－５", "url": "https://www.kaigokensaku.mhlw.go.jp/44/index.php?action_kouhyou_detail_004_kani=true&JigyosyoCd=4490200286-00&ServiceCd=730&Type=search", "url2": "http://betsufukukai.com" }, "geometry": { "type": "Point", "coordinates": [ 131.498603600000024, 33.2749699 ] } },
{ "type": "Feature", "properties": { "内容": "小規模多機能型居宅介護事業所ほほえみ【小規模多機能型居宅介護】大分県別府市中島町17番６号", "url": "https://www.kaigokensaku.mhlw.go.jp/44/index.php?action_kouhyou_detail_004_kani=true&JigyosyoCd=4490200195-00&ServiceCd=730&Type=search", "url2": "http://www.hata.or.ip/" }, "geometry": { "type": "Point", "coordinates": [ 131.491258300000027, 33.2759294 ] } },
{ "type": "Feature", "properties": { "内容": "多機能型ｻｰﾋﾞｽ　一燈園【小規模多機能型居宅介護】大分県別府市大字南立石347番地7住宅型有料老人ﾎｰﾑ　堀田一燈園", "url": "https://www.kaigokensaku.mhlw.go.jp/44/index.php?action_kouhyou_detail_004_kani=true&JigyosyoCd=4490200278-00&ServiceCd=730&Type=search", "url2": "http://www.ittouen.or.jp/" }, "geometry": { "type": "Point", "coordinates": [ 131.455834149502948, 33.293821062306336 ] } },
{ "type": "Feature", "properties": { "内容": "小規模多機能型居宅介護施設茶寿苑【小規模多機能型居宅介護】大分県別府市鉄輪上4組", "url": "https://www.kaigokensaku.mhlw.go.jp/44/index.php?action_kouhyou_detail_004_kani=true&JigyosyoCd=4490200021-00&ServiceCd=730&Type=search", "url2": "http://sajuen.jp/" }, "geometry": { "type": "Point", "coordinates": [ 131.4757763, 33.3182357 ] } },
{ "type": "Feature", "properties": { "内容": "ケアホーム・里の手【小規模多機能型居宅介護】大分県中津市中央町1丁目8番29号", "url": "https://www.kaigokensaku.mhlw.go.jp/44/index.php?action_kouhyou_detail_004_kani=true&JigyosyoCd=4490300110-00&ServiceCd=730&Type=search", "url2": "http://www.eizenkai.jp" }, "geometry": { "type": "Point", "coordinates": [ 131.190358100000026, 33.5896192 ] } },
{ "type": "Feature", "properties": { "内容": "小規模多機能ホームだいごぼう【小規模多機能型居宅介護】大分県中津市大字大悟法662番地１", "url": "https://www.kaigokensaku.mhlw.go.jp/44/index.php?action_kouhyou_detail_004_kani=true&JigyosyoCd=4490300235-00&ServiceCd=730&Type=search", "url2": null }, "geometry": { "type": "Point", "coordinates": [ 131.217448477379293, 33.571356581901483 ] } },
{ "type": "Feature", "properties": { "内容": "小規模多機能施設さわらび【小規模多機能型居宅介護】大分県中津市大字植野1287番地1", "url": "https://www.kaigokensaku.mhlw.go.jp/44/index.php?action_kouhyou_detail_004_kani=true&JigyosyoCd=4490300243-00&ServiceCd=730&Type=search", "url2": "www.sawarabiansy.or.jp" }, "geometry": { "type": "Point", "coordinates": [ 131.2652439, 33.5620535 ] } },
{ "type": "Feature", "properties": { "内容": "小規模多機能の家　水車【小規模多機能型居宅介護】大分県中津市伊藤田1064番地１", "url": "https://www.kaigokensaku.mhlw.go.jp/44/index.php?action_kouhyou_detail_004_kani=true&JigyosyoCd=4490300102-00&ServiceCd=730&Type=search", "url2": "https://nakatsu-ouentai.com/" }, "geometry": { "type": "Point", "coordinates": [ 131.2403316, 33.5561804 ] } },
{ "type": "Feature", "properties": { "内容": "小規模多機能ホーム小祝【小規模多機能型居宅介護】大分県中津市字小祝525番地277", "url": "https://www.kaigokensaku.mhlw.go.jp/44/index.php?action_kouhyou_detail_004_kani=true&JigyosyoCd=4490300094-00&ServiceCd=730&Type=search", "url2": "https://leaf-kaigo.co.jp/" }, "geometry": { "type": "Point", "coordinates": [ 131.1861136, 33.6149866 ] } },
{ "type": "Feature", "properties": { "内容": "寄り合いセンターいずみ【小規模多機能型居宅介護】大分県中津市蛎瀬６４７－１", "url": "https://www.kaigokensaku.mhlw.go.jp/44/index.php?action_kouhyou_detail_004_kani=true&JigyosyoCd=4490300045-00&ServiceCd=730&Type=search", "url2": "http//www.izuminosono.jp" }, "geometry": { "type": "Point", "coordinates": [ 131.200560944082554, 33.603461660724435 ] } },
{ "type": "Feature", "properties": { "内容": "小規模多機能型居宅介護　陽だまり【小規模多機能型居宅介護】大分県日田市大字渡里1017番3", "url": "https://www.kaigokensaku.mhlw.go.jp/44/index.php?action_kouhyou_detail_004_kani=true&JigyosyoCd=4490400019-00&ServiceCd=730&Type=search", "url2": null }, "geometry": { "type": "Point", "coordinates": [ 130.9315193, 33.3355561 ] } },
{ "type": "Feature", "properties": { "内容": "小規模多機能型居宅介護事業所　ほうゆう・和の家【小規模多機能型居宅介護】大分県日田市城町2丁目7-12", "url": "https://www.kaigokensaku.mhlw.go.jp/44/index.php?action_kouhyou_detail_004_kani=true&JigyosyoCd=4490400027-00&ServiceCd=730&Type=search", "url2": "http://www.houyou-hita.jp/" }, "geometry": { "type": "Point", "coordinates": [ 130.9433656, 33.3303653 ] } },
{ "type": "Feature", "properties": { "内容": "小規模多機能すばる竹田園【小規模多機能型居宅介護】大分県日田市竹田新町2番33号", "url": "https://www.kaigokensaku.mhlw.go.jp/44/index.php?action_kouhyou_detail_004_kani=true&JigyosyoCd=4490400167-00&ServiceCd=730&Type=search", "url2": null }, "geometry": { "type": "Point", "coordinates": [ 130.937896511114502, 33.31119476123849 ] } },
{ "type": "Feature", "properties": { "内容": "さくらの郷日田【小規模多機能型居宅介護】大分県日田市有田町小金田455-1", "url": "https://www.kaigokensaku.mhlw.go.jp/44/index.php?action_kouhyou_detail_004_kani=true&JigyosyoCd=4490400159-00&ServiceCd=730&Type=search", "url2": null }, "geometry": { "type": "Point", "coordinates": [ 130.962280299999946, 33.3343522 ] } },
{ "type": "Feature", "properties": { "内容": "ビハーラ豆田【小規模多機能型居宅介護】大分県日田市港町8-36", "url": "https://www.kaigokensaku.mhlw.go.jp/44/index.php?action_kouhyou_detail_004_kani=true&JigyosyoCd=4490400035-00&ServiceCd=730&Type=search", "url2": "kokun-fukushikai.com" }, "geometry": { "type": "Point", "coordinates": [ 130.934159793392979, 33.326344278749424 ] } },
{ "type": "Feature", "properties": { "内容": "小規模多機能ホームきらくの湯【小規模多機能型居宅介護】大分県日田市天瀬町桜竹1115-87", "url": "https://www.kaigokensaku.mhlw.go.jp/44/index.php?action_kouhyou_detail_004_kani=true&JigyosyoCd=4490400084-00&ServiceCd=730&Type=search", "url2": "https://www.kiraku-en.or.jp/" }, "geometry": { "type": "Point", "coordinates": [ 131.011878799999977, 33.2425558 ] } },
{ "type": "Feature", "properties": { "内容": "日田園小規模多機能ケア【小規模多機能型居宅介護】大分県日田市大字石井字熊ノ下711番地の2", "url": "https://www.kaigokensaku.mhlw.go.jp/44/index.php?action_kouhyou_detail_004_kani=true&JigyosyoCd=4490400050-00&ServiceCd=730&Type=search", "url2": "http://hitaen.jp" }, "geometry": { "type": "Point", "coordinates": [ 130.906740055005912, 33.314242884738249 ] } },
{ "type": "Feature", "properties": { "内容": "小規模多機能型居宅介護施設はたのうら【小規模多機能型居宅介護】大分県佐伯市蒲江大字畑野浦596-32", "url": "https://www.kaigokensaku.mhlw.go.jp/44/index.php?action_kouhyou_detail_004_kani=true&JigyosyoCd=4490500313-00&ServiceCd=730&Type=search", "url2": "http://r.goope.jp/choyokai" }, "geometry": { "type": "Point", "coordinates": [ 131.950023200000032, 32.8563467 ] } },
{ "type": "Feature", "properties": { "内容": "ライフサポート城村【小規模多機能型居宅介護】佐伯市大字長谷5727番地", "url": "https://www.kaigokensaku.mhlw.go.jp/44/index.php?action_kouhyou_detail_004_kani=true&JigyosyoCd=4490500065-00&ServiceCd=730&Type=search", "url2": null }, "geometry": { "type": "Point", "coordinates": [ 131.862356200000022, 32.932666500000011 ] } },
{ "type": "Feature", "properties": { "内容": "サニーサイド明日風【小規模多機能型居宅介護】大分県臼杵市大字前田３６番地", "url": "https://www.kaigokensaku.mhlw.go.jp/44/index.php?action_kouhyou_detail_004_kani=true&JigyosyoCd=4490600097-00&ServiceCd=730&Type=search", "url2": "https://www.big-advance.site/s/207/1367" }, "geometry": { "type": "Point", "coordinates": [ 131.766760010311828, 33.103644912026155 ] } },
{ "type": "Feature", "properties": { "内容": "小規模多機能ホーム　こすもす【小規模多機能型居宅介護】大分県津久見市徳浦本町12番20号．介護ホーム秋桜〔101～111〕（104・109は除く）", "url": "https://www.kaigokensaku.mhlw.go.jp/44/index.php?action_kouhyou_detail_004_kani=true&JigyosyoCd=4490700053-00&ServiceCd=730&Type=search", "url2": "https://www.i-kkan-ken.jp/" }, "geometry": { "type": "Point", "coordinates": [ 131.847796900000048, 33.0920749 ] } },
{ "type": "Feature", "properties": { "内容": "くたみたきのう館【小規模多機能型居宅介護】大分県竹田市久住町大字栢木5834", "url": "https://www.kaigokensaku.mhlw.go.jp/44/index.php?action_kouhyou_detail_004_kani=true&JigyosyoCd=4490800028-00&ServiceCd=730&Type=search", "url2": "http:www.okubo-hp.com" }, "geometry": { "type": "Point", "coordinates": [ 131.3329463, 33.0553079 ] } },
{ "type": "Feature", "properties": { "内容": "小規模多機能型居宅介護ひばり【小規模多機能型居宅介護】大分県杵築市大字南杵築字大手内1941番地1", "url": "https://www.kaigokensaku.mhlw.go.jp/44/index.php?action_kouhyou_detail_004_kani=true&JigyosyoCd=4491000107-00&ServiceCd=730&Type=search", "url2": null }, "geometry": { "type": "Point", "coordinates": [ 131.61188089999996, 33.4167454 ] } },
{ "type": "Feature", "properties": { "内容": "小規模多機能施設　とどろきの里【小規模多機能型居宅介護】大分県杵築市大字船部字中津屋2167-32", "url": "https://www.kaigokensaku.mhlw.go.jp/44/index.php?action_kouhyou_detail_004_kani=true&JigyosyoCd=4491000081-00&ServiceCd=730&Type=search", "url2": "http://todoroki3.wixsite.com/kaigo" }, "geometry": { "type": "Point", "coordinates": [ 131.600117299999965, 33.4491504 ] } },
{ "type": "Feature", "properties": { "内容": "ヴィオラ【小規模多機能型居宅介護】大分県杵築市山香町大字野原字倉園1150番地1", "url": "https://www.kaigokensaku.mhlw.go.jp/44/index.php?action_kouhyou_detail_004_kani=true&JigyosyoCd=4491000040-00&ServiceCd=730&Type=search", "url2": null }, "geometry": { "type": "Point", "coordinates": [ 131.5063712, 33.4475774 ] } },
{ "type": "Feature", "properties": { "内容": "小規模多機能型施設ひまわり荘【小規模多機能型居宅介護】大分県杵築市大田沓掛2380番地", "url": "https://www.kaigokensaku.mhlw.go.jp/44/index.php?action_kouhyou_detail_004_kani=true&JigyosyoCd=4491000149-00&ServiceCd=730&Type=search", "url2": "https://note.com/himawari10616" }, "geometry": { "type": "Point", "coordinates": [ 131.5523976, 33.4984572 ] } },
{ "type": "Feature", "properties": { "内容": "小規模多機能ホームさらな【小規模多機能型居宅介護】大分県宇佐市大字四日市１４４２－１", "url": "https://www.kaigokensaku.mhlw.go.jp/44/index.php?action_kouhyou_detail_004_kani=true&JigyosyoCd=4491100139-00&ServiceCd=730&Type=search", "url2": "http://meihokai.or.jp" }, "geometry": { "type": "Point", "coordinates": [ 131.327562699999987, 33.5299812 ] } },
{ "type": "Feature", "properties": { "内容": "いぬかい偕生園【小規模多機能型居宅介護】大分県豊後大野市犬飼町田原2307番地1", "url": "https://www.kaigokensaku.mhlw.go.jp/44/index.php?action_kouhyou_detail_004_kani=true&JigyosyoCd=4491200046-00&ServiceCd=730&Type=search", "url2": "http://www.kaiseien-bungo-ohno.ｃoｍ/" }, "geometry": { "type": "Point", "coordinates": [ 131.634423199999986, 33.060621 ] } },
{ "type": "Feature", "properties": { "内容": "ほっとホーム　ももたろう【小規模多機能型居宅介護】大分県豊後大野市清川町三玉686番地", "url": "https://www.kaigokensaku.mhlw.go.jp/44/index.php?action_kouhyou_detail_004_kani=true&JigyosyoCd=4491200038-00&ServiceCd=730&Type=search", "url2": "https://www2.hp-ez.com/hp/mo2tarou/" }, "geometry": { "type": "Point", "coordinates": [ 131.506206600000041, 32.9612633 ] } },
{ "type": "Feature", "properties": { "内容": "小規模多機能型居宅介護　玲音【小規模多機能型居宅介護】庄内町庄内原838番地8", "url": "https://www.kaigokensaku.mhlw.go.jp/44/index.php?action_kouhyou_detail_004_kani=true&JigyosyoCd=4491300119-00&ServiceCd=730&Type=search", "url2": "http://ozaki-clinic.ecnet.jp/" }, "geometry": { "type": "Point", "coordinates": [ 131.398263400000019, 33.184332 ] } },
{ "type": "Feature", "properties": { "内容": "小規模多機能型居宅介護アドニスホーム【小規模多機能型居宅介護】大分県由布市湯布院町中川1062", "url": "https://www.kaigokensaku.mhlw.go.jp/44/index.php?action_kouhyou_detail_004_kani=true&JigyosyoCd=4491300101-00&ServiceCd=730&Type=search", "url2": "http://www.fukujyukai.net" }, "geometry": { "type": "Point", "coordinates": [ 131.335451700000021, 33.2426108 ] } },
{ "type": "Feature", "properties": { "内容": "小規模多機能型居宅介護施設豊友【小規模多機能型居宅介護】挾間町鬼崎4-16", "url": "https://www.kaigokensaku.mhlw.go.jp/44/index.php?action_kouhyou_detail_004_kani=true&JigyosyoCd=4491300069-00&ServiceCd=730&Type=search", "url2": "https//www.hojukai-oita.jp" }, "geometry": { "type": "Point", "coordinates": [ 131.52686, 33.1945502 ] } },
{ "type": "Feature", "properties": { "内容": "小規模多機能型居宅介護施設　カトレア【小規模多機能型居宅介護】大分県国東市国見町伊美2409番地1", "url": "https://www.kaigokensaku.mhlw.go.jp/44/index.php?action_kouhyou_detail_004_kani=true&JigyosyoCd=4491400018-00&ServiceCd=730&Type=search", "url2": "http://www.nihoukai.Com/hukuShi.html" }, "geometry": { "type": "Point", "coordinates": [ 131.595421499999929, 33.681932400000015 ] } },
{ "type": "Feature", "properties": { "内容": "朝来サポートセンター鈴鳴荘【小規模多機能型居宅介護】大分県国東市安岐町朝来144番地", "url": "https://www.kaigokensaku.mhlw.go.jp/44/index.php?action_kouhyou_detail_004_kani=true&JigyosyoCd=4491400026-00&ServiceCd=730&Type=search", "url2": "http://www.akinosato.com/" }, "geometry": { "type": "Point", "coordinates": [ 131.615325200000029, 33.5108842 ] } },
{ "type": "Feature", "properties": { "内容": "小規模多機能型居宅介護支援　Ｐｌｕｓはるかぜ【小規模多機能型居宅介護】大分県国東市国東町来浦2798番地小規模多機能型居宅介護支援　Ｐｌｕｓはるかぜ", "url": "https://www.kaigokensaku.mhlw.go.jp/44/index.php?action_kouhyou_detail_004_kani=true&JigyosyoCd=4491400125-00&ServiceCd=730&Type=search", "url2": "harukaze-med.jp" }, "geometry": { "type": "Point", "coordinates": [ 131.658063800000036, 33.6313919 ] } },
{ "type": "Feature", "properties": { "内容": "ケアホームすずらん【小規模多機能型居宅介護】大分県速見郡日出町大字藤原1691番地1", "url": "https://www.kaigokensaku.mhlw.go.jp/44/index.php?action_kouhyou_detail_004_kani=true&JigyosyoCd=4492200029-00&ServiceCd=730&Type=search", "url2": "http://www.suzuki-hp.or.jp" }, "geometry": { "type": "Point", "coordinates": [ 131.545824300000049, 33.3753931 ] } },
{ "type": "Feature", "properties": { "内容": "小規模多機能型居宅介護事業所　ジュエル藤原【小規模多機能型居宅介護】大分県速見郡日出町大字藤原９３０番地１", "url": "https://www.kaigokensaku.mhlw.go.jp/44/index.php?action_kouhyou_detail_004_kani=true&JigyosyoCd=4492200037-00&ServiceCd=730&Type=search", "url2": null }, "geometry": { "type": "Point", "coordinates": [ 131.5500538, 33.3898111 ] } }
]
}
