{
"type": "FeatureCollection",
"name": "geo_44_定期巡回・随時対応型訪問介護看護",
"crs": { "type": "name", "properties": { "name": "urn:ogc:def:crs:OGC:1.3:CRS84" } },
"features": [
{ "type": "Feature", "properties": { "内容": "在宅サポートゆいまーる【定期巡回・随時対応型訪問介護看護】大分市高江北1丁目8番1号", "url": "https://www.kaigokensaku.mhlw.go.jp/44/index.php?action_kouhyou_detail_004_kani=true&JigyosyoCd=4490101070-00&ServiceCd=760&Type=search", "url2": "https://www.oita-yuima-ru.com/" }, "geometry": { "type": "Point", "coordinates": [ 131.618022, 33.1718343 ] } },
{ "type": "Feature", "properties": { "内容": "２４時間対応型訪問介護看護ステーション清流苑【定期巡回・随時対応型訪問介護看護】大分県大分市大字種具字南谷１４４番地", "url": "https://www.kaigokensaku.mhlw.go.jp/44/index.php?action_kouhyou_detail_004_kani=true&JigyosyoCd=4490101054-00&ServiceCd=760&Type=search", "url2": "http://seiryu-kyousei.org/" }, "geometry": { "type": "Point", "coordinates": [ 131.6996566, 33.2157987 ] } },
{ "type": "Feature", "properties": { "内容": "ケアネットべっぷ【定期巡回・随時対応型訪問介護看護】内竈11-1", "url": "https://www.kaigokensaku.mhlw.go.jp/44/index.php?action_kouhyou_detail_004_kani=true&JigyosyoCd=4490200344-00&ServiceCd=760&Type=search", "url2": null }, "geometry": { "type": "Point", "coordinates": [ 131.4838364, 33.3303229 ] } },
{ "type": "Feature", "properties": { "内容": "定期巡回・随時対応型訪問介護看護ステーション　エミアス鉄輪【定期巡回・随時対応型訪問介護看護】大分県別府市大字鉄輪６２８番地の３", "url": "https://www.kaigokensaku.mhlw.go.jp/44/index.php?action_kouhyou_detail_004_kani=true&JigyosyoCd=4490200294-00&ServiceCd=760&Type=search", "url2": "www.bls-oita.co.jp" }, "geometry": { "type": "Point", "coordinates": [ 131.474833133343509, 33.316602373701983 ] } },
{ "type": "Feature", "properties": { "内容": "２４時間いつでもコール偕楽園【定期巡回・随時対応型訪問介護看護】大分県別府市南荘園町４番３８号", "url": "https://www.kaigokensaku.mhlw.go.jp/44/index.php?action_kouhyou_detail_004_kani=true&JigyosyoCd=4490200302-00&ServiceCd=760&Type=search", "url2": "https://kikakukai.com" }, "geometry": { "type": "Point", "coordinates": [ 131.480602691540554, 33.287521753823832 ] } },
{ "type": "Feature", "properties": { "内容": "ケアコールセンターめぐみ【定期巡回・随時対応型訪問介護看護】大分県別府市中島町2番4号", "url": "https://www.kaigokensaku.mhlw.go.jp/44/index.php?action_kouhyou_detail_004_kani=true&JigyosyoCd=4490200260-00&ServiceCd=760&Type=search", "url2": "https://meguminokai.co.jp" }, "geometry": { "type": "Point", "coordinates": [ 131.493162058902186, 33.273366957744699 ] } },
{ "type": "Feature", "properties": { "内容": "巡回訪問サポートセンター三光園【定期巡回・随時対応型訪問介護看護】大分県中津市中央町1丁目3番54号有料老人ホーム燦燦館中央5階", "url": "https://www.kaigokensaku.mhlw.go.jp/44/index.php?action_kouhyou_detail_004_kani=true&JigyosyoCd=4490300144-00&ServiceCd=760&Type=search", "url2": "http://www.matsunaga-hp.com/" }, "geometry": { "type": "Point", "coordinates": [ 131.192090158331439, 33.592365717536325 ] } },
{ "type": "Feature", "properties": { "内容": "いずみの園コールセンター24時間サービス【定期巡回・随時対応型訪問介護看護】大分県中津市永添2765-147", "url": "https://www.kaigokensaku.mhlw.go.jp/44/index.php?action_kouhyou_detail_004_kani=true&JigyosyoCd=4490300136-00&ServiceCd=760&Type=search", "url2": "http//www.izuminosono.jp" }, "geometry": { "type": "Point", "coordinates": [ 131.200104115655506, 33.559983430292519 ] } },
{ "type": "Feature", "properties": { "内容": "24時間ケアサポート佐伯の太陽【定期巡回・随時対応型訪問介護看護】大分県佐伯市駅前1丁目1番11号地域包括ケアセンター佐伯の太陽", "url": "https://www.kaigokensaku.mhlw.go.jp/44/index.php?action_kouhyou_detail_004_kani=true&JigyosyoCd=4490500271-00&ServiceCd=760&Type=search", "url2": "http://www.saikichuo.net/" }, "geometry": { "type": "Point", "coordinates": [ 131.904434600000059, 32.9700688 ] } },
{ "type": "Feature", "properties": { "内容": "定期巡回随時対応型訪問介護看護ながと【定期巡回・随時対応型訪問介護看護】大分県佐伯市鶴岡町1丁目6番3号ケアタウンながと", "url": "https://www.kaigokensaku.mhlw.go.jp/44/index.php?action_kouhyou_detail_004_kani=true&JigyosyoCd=4490500248-00&ServiceCd=760&Type=search", "url2": "ｈｔｔｐ：//www.nagato.or.jp/" }, "geometry": { "type": "Point", "coordinates": [ 131.88258959999996, 32.9582029 ] } },
{ "type": "Feature", "properties": { "内容": "24時間ケアサポート佐伯の太陽【定期巡回・随時対応型訪問介護看護】大分県佐伯市駅前1丁目1番11号地域包括ケアセンター佐伯の太陽", "url": "https://www.kaigokensaku.mhlw.go.jp/44/index.php?action_kouhyou_detail_004_kani=true&JigyosyoCd=4490500438-00&ServiceCd=760&Type=search", "url2": "http://www.saikichuo.net/" }, "geometry": { "type": "Point", "coordinates": [ 131.9044166, 32.9700809 ] } },
{ "type": "Feature", "properties": { "内容": "在宅ケアだんだん【定期巡回・随時対応型訪問介護看護】大分県臼杵市野津町大字都原2147番地", "url": "https://www.kaigokensaku.mhlw.go.jp/44/index.php?action_kouhyou_detail_004_kani=true&JigyosyoCd=4490600071-00&ServiceCd=760&Type=search", "url2": null }, "geometry": { "type": "Point", "coordinates": [ 131.709215742713951, 33.06457972043787 ] } },
{ "type": "Feature", "properties": { "内容": "ホームケアステーションI.C【定期巡回・随時対応型訪問介護看護】三重町芦刈1464", "url": "https://www.kaigokensaku.mhlw.go.jp/44/index.php?action_kouhyou_detail_004_kani=true&JigyosyoCd=4491200137-00&ServiceCd=760&Type=search", "url2": "https://www.individuality-care.jp/" }, "geometry": { "type": "Point", "coordinates": [ 131.599925355125436, 32.997665111914905 ] } },
{ "type": "Feature", "properties": { "内容": "帰巖会24時間ケアステーション【定期巡回・随時対応型訪問介護看護】大分県豊後大野市三重町赤嶺1259番地", "url": "https://www.kaigokensaku.mhlw.go.jp/44/index.php?action_kouhyou_detail_004_kani=true&JigyosyoCd=4491200053-00&ServiceCd=760&Type=search", "url2": "http://www.kigankai.or.jp/" }, "geometry": { "type": "Point", "coordinates": [ 131.599570699999958, 32.9873799 ] } },
{ "type": "Feature", "properties": { "内容": "訪問介護看護ステーション豊友【定期巡回・随時対応型訪問介護看護】挾間町鬼崎4番地16", "url": "https://www.kaigokensaku.mhlw.go.jp/44/index.php?action_kouhyou_detail_004_kani=true&JigyosyoCd=4491300176-00&ServiceCd=760&Type=search", "url2": "https://www.hoyukan.com/" }, "geometry": { "type": "Point", "coordinates": [ 131.5268184, 33.1945755 ] } }
]
}
