{
"type": "FeatureCollection",
"name": "geo_44_地域密着型特定施設入居者生活介護（有料老人ホーム）",
"crs": { "type": "name", "properties": { "name": "urn:ogc:def:crs:OGC:1.3:CRS84" } },
"features": [
{ "type": "Feature", "properties": { "内容": "地域密着型有料老人ホーム蹈青【地域密着型特定施設入居者生活介護（有料老人ホーム）】大分県日田市南元町304番2", "url": "https://www.kaigokensaku.mhlw.go.jp/44/index.php?action_kouhyou_detail_004_kani=true&JigyosyoCd=4490400134-00&ServiceCd=361&Type=search", "url2": "https://shusuido.or.jp" }, "geometry": { "type": "Point", "coordinates": [ 130.94204083786488, 33.312305136966337 ] } },
{ "type": "Feature", "properties": { "内容": "地域密着型特定施設入居者生活介護　陽だまり【地域密着型特定施設入居者生活介護（有料老人ホーム）】大分県日田市大字渡里1017-3", "url": "https://www.kaigokensaku.mhlw.go.jp/44/index.php?action_kouhyou_detail_004_kani=true&JigyosyoCd=4490400183-00&ServiceCd=361&Type=search", "url2": null }, "geometry": { "type": "Point", "coordinates": [ 130.931475469311522, 33.33561056327278 ] } },
{ "type": "Feature", "properties": { "内容": "介護付有料老人ホーム　ケアビレッジ朋友【地域密着型特定施設入居者生活介護（有料老人ホーム）】大分県日田市城町1丁目3-19", "url": "https://www.kaigokensaku.mhlw.go.jp/44/index.php?action_kouhyou_detail_004_kani=true&JigyosyoCd=4490400092-00&ServiceCd=361&Type=search", "url2": "http://www.houyou-hita.jp/" }, "geometry": { "type": "Point", "coordinates": [ 130.939902, 33.3282487 ] } },
{ "type": "Feature", "properties": { "内容": "介護付有料老人ホーム　あいあーる【地域密着型特定施設入居者生活介護（有料老人ホーム）】長良字小島4916番地2あーるず3階", "url": "https://www.kaigokensaku.mhlw.go.jp/44/index.php?action_kouhyou_detail_004_kani=true&JigyosyoCd=4490500420-00&ServiceCd=361&Type=search", "url2": "https://www.lets-begin.info/saiki/a-ruzu/ai.html" }, "geometry": { "type": "Point", "coordinates": [ 131.87599, 32.92906 ] } },
{ "type": "Feature", "properties": { "内容": "地域密着型特定施設　蒲江やすらぎケアセンター【地域密着型特定施設入居者生活介護（有料老人ホーム）】大分県佐伯市蒲江大字蒲江浦３９５１番地蒲江やすらぎケアセンター", "url": "https://www.kaigokensaku.mhlw.go.jp/44/index.php?action_kouhyou_detail_004_kani=true&JigyosyoCd=4490500214-00&ServiceCd=361&Type=search", "url2": "https://care-net.biz/44/yasuragi3951/" }, "geometry": { "type": "Point", "coordinates": [ 131.925074699999982, 32.8120755 ] } },
{ "type": "Feature", "properties": { "内容": "介護付有料老人ホーム秋桜【地域密着型特定施設入居者生活介護（有料老人ホーム）】大分県津久見市徳浦本町12番20号", "url": "https://www.kaigokensaku.mhlw.go.jp/44/index.php?action_kouhyou_detail_004_kani=true&JigyosyoCd=4490700046-00&ServiceCd=361&Type=search", "url2": "https://www.i-kkan-ken.jp/" }, "geometry": { "type": "Point", "coordinates": [ 131.847796900000048, 33.0920749 ] } },
{ "type": "Feature", "properties": { "内容": "地域密着型特定施設こころ【地域密着型特定施設入居者生活介護（有料老人ホーム）】大分県津久見市大字津久見5988-1", "url": "https://www.kaigokensaku.mhlw.go.jp/44/index.php?action_kouhyou_detail_004_kani=true&JigyosyoCd=4490700020-00&ServiceCd=361&Type=search", "url2": "http://mikan-cocoro.p-kit.com/" }, "geometry": { "type": "Point", "coordinates": [ 131.849283300000025, 33.0567647 ] } },
{ "type": "Feature", "properties": { "内容": "ケアホーム五つの実【地域密着型特定施設入居者生活介護（有料老人ホーム）】竹田市会々2576番地1", "url": "https://www.kaigokensaku.mhlw.go.jp/44/index.php?action_kouhyou_detail_004_kani=true&JigyosyoCd=4490800085-00&ServiceCd=361&Type=search", "url2": null }, "geometry": { "type": "Point", "coordinates": [ 131.386786499999971, 32.9704393 ] } },
{ "type": "Feature", "properties": { "内容": "介護付有料老人ホームおおたの郷【地域密着型特定施設入居者生活介護（有料老人ホーム）】大分県杵築市大田石丸１３９２番地", "url": "https://www.kaigokensaku.mhlw.go.jp/44/index.php?action_kouhyou_detail_004_kani=true&JigyosyoCd=4491000016-00&ServiceCd=361&Type=search", "url2": "http://ootanosato.jp/" }, "geometry": { "type": "Point", "coordinates": [ 131.558980199999951, 33.4928045 ] } },
{ "type": "Feature", "properties": { "内容": "ライフホームひさと【地域密着型特定施設入居者生活介護（有料老人ホーム）】大分県豊後大野市三重町内田3142番地1", "url": "https://www.kaigokensaku.mhlw.go.jp/44/index.php?action_kouhyou_detail_004_kani=true&JigyosyoCd=4491200061-00&ServiceCd=361&Type=search", "url2": "http://www.kcc-fukushi.co.jp" }, "geometry": { "type": "Point", "coordinates": [ 131.5960963, 32.9768226 ] } }
]
}
