{
"type": "FeatureCollection",
"name": "geo_44_地域密着型特定施設入居者生活介護（有料老人ホーム（サービス付き高齢者向け住宅））",
"crs": { "type": "name", "properties": { "name": "urn:ogc:def:crs:OGC:1.3:CRS84" } },
"features": [
{ "type": "Feature", "properties": { "内容": "地域密着型特定施設こころ【地域密着型特定施設入居者生活介護（有料老人ホーム（サービス付き高齢者向け住宅））】大分県津久見市大字津久見5988-1", "url": "https://www.kaigokensaku.mhlw.go.jp/44/index.php?action_kouhyou_detail_004_kani=true&JigyosyoCd=4490700020-00&ServiceCd=&Type=search", "url2": "http://mikan-cocoro.p-kit.com/" }, "geometry": { "type": "Point", "coordinates": [ 131.849447899999973, 33.0566399 ] } }
]
}
