{
"type": "FeatureCollection",
"name": "geo_44_介護老人保健施設",
"crs": { "type": "name", "properties": { "name": "urn:ogc:def:crs:OGC:1.3:CRS84" } },
"features": [
{ "type": "Feature", "properties": { "内容": "介護老人保健施設　サンテラスながとみ【介護老人保健施設】大分市西大道２丁目２－１", "url": "https://www.kaigokensaku.mhlw.go.jp/44/index.php?action_kouhyou_detail_004_kani=true&JigyosyoCd=4450180122-00&ServiceCd=520&Type=search", "url2": "http://www.nagatomi-cp.com" }, "geometry": { "type": "Point", "coordinates": [ 131.596020899999985, 33.2314219 ] } },
{ "type": "Feature", "properties": { "内容": "老健おおつか【介護老人保健施設】大分県大分市中島中央1丁目1番8号", "url": "https://www.kaigokensaku.mhlw.go.jp/44/index.php?action_kouhyou_detail_004_kani=true&JigyosyoCd=4450180130-00&ServiceCd=520&Type=search", "url2": null }, "geometry": { "type": "Point", "coordinates": [ 131.6127133, 33.2428799 ] } },
{ "type": "Feature", "properties": { "内容": "介護老人保健施設ふない【介護老人保健施設】大分県大分市府内町1丁目3番23号", "url": "https://www.kaigokensaku.mhlw.go.jp/44/index.php?action_kouhyou_detail_004_kani=true&JigyosyoCd=4470106644-00&ServiceCd=520&Type=search", "url2": "http://inobe.or.jp/funai/" }, "geometry": { "type": "Point", "coordinates": [ 131.609973484655683, 33.235156140179285 ] } },
{ "type": "Feature", "properties": { "内容": "介護老人保健施設狐兎如庵【介護老人保健施設】大分県大分市大字野田1085番地", "url": "https://www.kaigokensaku.mhlw.go.jp/44/index.php?action_kouhyou_detail_004_kani=true&JigyosyoCd=4470107360-00&ServiceCd=520&Type=search", "url2": "https://hakuai.org/sub1/sub2/kotokoto.html" }, "geometry": { "type": "Point", "coordinates": [ 131.537233158726167, 33.198174095743958 ] } },
{ "type": "Feature", "properties": { "内容": "介護老人保健施設　さくらハウスぜぜ【介護老人保健施設】大分県大分市牧1丁目25番1号", "url": "https://www.kaigokensaku.mhlw.go.jp/44/index.php?action_kouhyou_detail_004_kani=true&JigyosyoCd=4450100013-00&ServiceCd=520&Type=search", "url2": "https://www.sakurazz.or.jp" }, "geometry": { "type": "Point", "coordinates": [ 131.6381222, 33.2391308 ] } },
{ "type": "Feature", "properties": { "内容": "介護老人保健施設　親和園【介護老人保健施設】大分県大分市中判田1428番地の1", "url": "https://www.kaigokensaku.mhlw.go.jp/44/index.php?action_kouhyou_detail_004_kani=true&JigyosyoCd=4450180007-00&ServiceCd=520&Type=search", "url2": "https://shinwakai-hosp.com/" }, "geometry": { "type": "Point", "coordinates": [ 131.631516024560142, 33.167022762597782 ] } },
{ "type": "Feature", "properties": { "内容": "リバーサイド百々園【介護老人保健施設】大分県大分市大字津守字山崎2742-1", "url": "https://www.kaigokensaku.mhlw.go.jp/44/index.php?action_kouhyou_detail_004_kani=true&JigyosyoCd=4450180072-00&ServiceCd=520&Type=search", "url2": "https://momoen.jp/" }, "geometry": { "type": "Point", "coordinates": [ 131.62897045975501, 33.210807020794647 ] } },
{ "type": "Feature", "properties": { "内容": "介護老人保健施設　コスモス苑【介護老人保健施設】大分県大分市東鶴崎2-3-22", "url": "https://www.kaigokensaku.mhlw.go.jp/44/index.php?action_kouhyou_detail_004_kani=true&JigyosyoCd=4450180098-00&ServiceCd=520&Type=search", "url2": "www.oasis-hp.jp" }, "geometry": { "type": "Point", "coordinates": [ 131.696106399999962, 33.2383334 ] } },
{ "type": "Feature", "properties": { "内容": "介護老人保健施設　小野鶴養生院【介護老人保健施設】大分県大分市大字小野鶴１１５７番地の１", "url": "https://www.kaigokensaku.mhlw.go.jp/44/index.php?action_kouhyou_detail_004_kani=true&JigyosyoCd=4450180023-00&ServiceCd=520&Type=search", "url2": "https://soujyu-oita.con/" }, "geometry": { "type": "Point", "coordinates": [ 131.568115199999966, 33.1988818 ] } },
{ "type": "Feature", "properties": { "内容": "老人保健施設メディトピアこが【介護老人保健施設】大分県大分市南鶴崎2丁目6番22号", "url": "https://www.kaigokensaku.mhlw.go.jp/44/index.php?action_kouhyou_detail_004_kani=true&JigyosyoCd=4450180015-00&ServiceCd=520&Type=search", "url2": "http://www.kakuyukai.com/" }, "geometry": { "type": "Point", "coordinates": [ 131.690345799999932, 33.2390583 ] } },
{ "type": "Feature", "properties": { "内容": "介護老人保健施設　メディケアふじが丘【介護老人保健施設】大分県大分市ふじが丘南一丁目１６番１０号", "url": "https://www.kaigokensaku.mhlw.go.jp/44/index.php?action_kouhyou_detail_004_kani=true&JigyosyoCd=4450180056-00&ServiceCd=520&Type=search", "url2": null }, "geometry": { "type": "Point", "coordinates": [ 131.599761187835753, 33.177695952133114 ] } },
{ "type": "Feature", "properties": { "内容": "サテライト型介護老人保健施設メディケア山桜花【介護老人保健施設】大分県大分市大字寒田486番26", "url": "https://www.kaigokensaku.mhlw.go.jp/44/index.php?action_kouhyou_detail_004_kani=true&JigyosyoCd=4470108574-00&ServiceCd=520&Type=search", "url2": "http://tenjukai.com" }, "geometry": { "type": "Point", "coordinates": [ 131.606142699999964, 33.181168899999989 ] } },
{ "type": "Feature", "properties": { "内容": "介護老人保健施設やすらぎ苑【介護老人保健施設】大分県大分市大字松岡字道ノ下1946番地", "url": "https://www.kaigokensaku.mhlw.go.jp/44/index.php?action_kouhyou_detail_004_kani=true&JigyosyoCd=4470109960-00&ServiceCd=520&Type=search", "url2": "https://www.sekiaikai.jp/" }, "geometry": { "type": "Point", "coordinates": [ 131.671631899999966, 33.175463499999985 ] } },
{ "type": "Feature", "properties": { "内容": "介護老人保健施設たばる【介護老人保健施設】大分県大分市大字田原936番地1の1", "url": "https://www.kaigokensaku.mhlw.go.jp/44/index.php?action_kouhyou_detail_004_kani=true&JigyosyoCd=4470110026-00&ServiceCd=520&Type=search", "url2": "https://tabaru-san-ai.com/rouken/" }, "geometry": { "type": "Point", "coordinates": [ 131.558861106745894, 33.184183367001246 ] } },
{ "type": "Feature", "properties": { "内容": "大分豊寿苑【介護老人保健施設】大分県大分市大字皆春1521番地の1", "url": "https://www.kaigokensaku.mhlw.go.jp/44/index.php?action_kouhyou_detail_004_kani=true&JigyosyoCd=4450180114-00&ServiceCd=520&Type=search", "url2": "http://www.hojuen.jp/" }, "geometry": { "type": "Point", "coordinates": [ 131.6843437, 33.2359417 ] } },
{ "type": "Feature", "properties": { "内容": "介護老人保健施設　陽光苑【介護老人保健施設】大分県大分市大字中戸次4525番地", "url": "https://www.kaigokensaku.mhlw.go.jp/44/index.php?action_kouhyou_detail_004_kani=true&JigyosyoCd=4450180031-00&ServiceCd=520&Type=search", "url2": "http://www.tenshindo.org/" }, "geometry": { "type": "Point", "coordinates": [ 131.656100400000014, 33.1556287 ] } },
{ "type": "Feature", "properties": { "内容": "介護老人保健施設わさだケアセンター【介護老人保健施設】大分県大分市大字市字大坪11番地の2", "url": "https://www.kaigokensaku.mhlw.go.jp/44/index.php?action_kouhyou_detail_004_kani=true&JigyosyoCd=4450180064-00&ServiceCd=520&Type=search", "url2": "https://wasada-care-center.com" }, "geometry": { "type": "Point", "coordinates": [ 131.575392114003478, 33.187768031546845 ] } },
{ "type": "Feature", "properties": { "内容": "老健めいわ【介護老人保健施設】大分県大分市明野北1丁目2番18号", "url": "https://www.kaigokensaku.mhlw.go.jp/44/index.php?action_kouhyou_detail_004_kani=true&JigyosyoCd=4470106487-00&ServiceCd=520&Type=search", "url2": "www.meiwa-hp.jp" }, "geometry": { "type": "Point", "coordinates": [ 131.6558354, 33.2258495 ] } },
{ "type": "Feature", "properties": { "内容": "医療法人慈愛会　介護老人保健施設やまなみ苑【介護老人保健施設】大分県別府市大字南立石274-2", "url": "https://www.kaigokensaku.mhlw.go.jp/44/index.php?action_kouhyou_detail_004_kani=true&JigyosyoCd=4450280021-00&ServiceCd=520&Type=search", "url2": "http://www.yamanamien.com/" }, "geometry": { "type": "Point", "coordinates": [ 131.4571082, 33.2905051 ] } },
{ "type": "Feature", "properties": { "内容": "介護老人保健施設　メディケア別府【介護老人保健施設】大分県別府市中島町14番6号", "url": "https://www.kaigokensaku.mhlw.go.jp/44/index.php?action_kouhyou_detail_004_kani=true&JigyosyoCd=4450280047-00&ServiceCd=520&Type=search", "url2": "http://www.hata.or.jp" }, "geometry": { "type": "Point", "coordinates": [ 131.492812760852104, 33.275110089111607 ] } },
{ "type": "Feature", "properties": { "内容": "介護老人保健施設　いでゆの園【介護老人保健施設】大分県別府市上人ヶ浜９組", "url": "https://www.kaigokensaku.mhlw.go.jp/44/index.php?action_kouhyou_detail_004_kani=true&JigyosyoCd=4450280005-00&ServiceCd=520&Type=search", "url2": "http://b-gengendo.jp/ideyu/" }, "geometry": { "type": "Point", "coordinates": [ 131.500396418307474, 33.311368598747208 ] } },
{ "type": "Feature", "properties": { "内容": "介護老人保健施設　サン・ヘルスピア一燈園【介護老人保健施設】大分県別府市大字南立石347番地の４", "url": "https://www.kaigokensaku.mhlw.go.jp/44/index.php?action_kouhyou_detail_004_kani=true&JigyosyoCd=4450280013-00&ServiceCd=520&Type=search", "url2": "http://www.ittouen.or.jp/" }, "geometry": { "type": "Point", "coordinates": [ 131.455452799999989, 33.2927854 ] } },
{ "type": "Feature", "properties": { "内容": "大分県厚生連介護老人保健施設シェモア鶴見【介護老人保健施設】大分県別府市緑丘町１１番２７号大分県厚生連総合福祉センター", "url": "https://www.kaigokensaku.mhlw.go.jp/44/index.php?action_kouhyou_detail_004_kani=true&JigyosyoCd=4450280039-00&ServiceCd=520&Type=search", "url2": "http://www.ok-chezmoi.com" }, "geometry": { "type": "Point", "coordinates": [ 131.489547300000027, 33.298535 ] } },
{ "type": "Feature", "properties": { "内容": "老人保健施設　創生園【介護老人保健施設】大分県中津市大字上宮永298番地1", "url": "https://www.kaigokensaku.mhlw.go.jp/44/index.php?action_kouhyou_detail_004_kani=true&JigyosyoCd=4450380003-00&ServiceCd=520&Type=search", "url2": null }, "geometry": { "type": "Point", "coordinates": [ 131.1848281, 33.5859471 ] } },
{ "type": "Feature", "properties": { "内容": "介護老人保健施設　三光園【介護老人保健施設】大分県中津市大字永添９１９番地", "url": "https://www.kaigokensaku.mhlw.go.jp/44/index.php?action_kouhyou_detail_004_kani=true&JigyosyoCd=4450380011-00&ServiceCd=520&Type=search", "url2": "https://www.sankouen-rk.com" }, "geometry": { "type": "Point", "coordinates": [ 131.210648399999968, 33.5747161 ] } },
{ "type": "Feature", "properties": { "内容": "介護老人保健施設さつき苑【介護老人保健施設】大分県中津市三光土田1243番地の4", "url": "https://www.kaigokensaku.mhlw.go.jp/44/index.php?action_kouhyou_detail_004_kani=true&JigyosyoCd=4470301260-00&ServiceCd=520&Type=search", "url2": null }, "geometry": { "type": "Point", "coordinates": [ 131.175476900000035, 33.5306778 ] } },
{ "type": "Feature", "properties": { "内容": "介護老人保健施設　なのみ【介護老人保健施設】大分県中津市宮夫１４番地１", "url": "https://www.kaigokensaku.mhlw.go.jp/44/index.php?action_kouhyou_detail_004_kani=true&JigyosyoCd=4450380029-00&ServiceCd=520&Type=search", "url2": "www.kawashimahp.jp" }, "geometry": { "type": "Point", "coordinates": [ 131.213544800000022, 33.5929809 ] } },
{ "type": "Feature", "properties": { "内容": "介護老人保健施設　聖陵ストリーム【介護老人保健施設】大分県日田市中釣町485番地3", "url": "https://www.kaigokensaku.mhlw.go.jp/44/index.php?action_kouhyou_detail_004_kani=true&JigyosyoCd=4450480001-00&ServiceCd=520&Type=search", "url2": "https://seiryou-streem.jp/" }, "geometry": { "type": "Point", "coordinates": [ 130.919774458474762, 33.315088576241223 ] } },
{ "type": "Feature", "properties": { "内容": "老人保健施設　六和会センテナリアン【介護老人保健施設】大分県日田市大山町東大山14-4", "url": "https://www.kaigokensaku.mhlw.go.jp/44/index.php?action_kouhyou_detail_004_kani=true&JigyosyoCd=4452980008-00&ServiceCd=520&Type=search", "url2": null }, "geometry": { "type": "Point", "coordinates": [ 130.9570655, 33.2925247 ] } },
{ "type": "Feature", "properties": { "内容": "介護老人保健施設　ユニット鶴見の太陽【介護老人保健施設】大分県佐伯市鶴見大字沖松浦51番地", "url": "https://www.kaigokensaku.mhlw.go.jp/44/index.php?action_kouhyou_detail_004_kani=true&JigyosyoCd=4450580032-00&ServiceCd=520&Type=search", "url2": "http://www.saikichuo.net/" }, "geometry": { "type": "Point", "coordinates": [ 131.962688599999979, 32.9415545 ] } },
{ "type": "Feature", "properties": { "内容": "介護老人保健施設　鶴見の太陽【介護老人保健施設】大分県佐伯市鶴見大字沖松浦51番地", "url": "https://www.kaigokensaku.mhlw.go.jp/44/index.php?action_kouhyou_detail_004_kani=true&JigyosyoCd=4450580040-00&ServiceCd=520&Type=search", "url2": "http://www.saikichuo.net/" }, "geometry": { "type": "Point", "coordinates": [ 131.962688599999979, 32.9415545 ] } },
{ "type": "Feature", "properties": { "内容": "介護老人保健施設　和の風【介護老人保健施設】大分県佐伯市大字池田2260-1", "url": "https://www.kaigokensaku.mhlw.go.jp/44/index.php?action_kouhyou_detail_004_kani=true&JigyosyoCd=4450580024-00&ServiceCd=520&Type=search", "url2": "http://www.nagato.or.jp/" }, "geometry": { "type": "Point", "coordinates": [ 131.905273699999952, 32.9607949 ] } },
{ "type": "Feature", "properties": { "内容": "介護老人保健施設　鶴望野【介護老人保健施設】大分県佐伯市鶴岡町１丁目１１番５９号", "url": "https://www.kaigokensaku.mhlw.go.jp/44/index.php?action_kouhyou_detail_004_kani=true&JigyosyoCd=4450580008-00&ServiceCd=520&Type=search", "url2": "http://www.nagato.or.jp" }, "geometry": { "type": "Point", "coordinates": [ 131.8817146, 32.9589333 ] } },
{ "type": "Feature", "properties": { "内容": "南海医療センター附属介護老人保健施設【介護老人保健施設】大分県佐伯市常盤西町12番6号", "url": "https://www.kaigokensaku.mhlw.go.jp/44/index.php?action_kouhyou_detail_004_kani=true&JigyosyoCd=4450580016-00&ServiceCd=520&Type=search", "url2": "http://nankai.jcho.go.jp" }, "geometry": { "type": "Point", "coordinates": [ 131.90093509999997, 32.9659331 ] } },
{ "type": "Feature", "properties": { "内容": "介護老人保健施設　幸寿院【介護老人保健施設】大分県臼杵市大字市浜694番地の1", "url": "https://www.kaigokensaku.mhlw.go.jp/44/index.php?action_kouhyou_detail_004_kani=true&JigyosyoCd=4450680022-00&ServiceCd=520&Type=search", "url2": null }, "geometry": { "type": "Point", "coordinates": [ 131.792092499999967, 33.1198783 ] } },
{ "type": "Feature", "properties": { "内容": "介護老人保健施設　臼杵福寿苑【介護老人保健施設】大分県臼杵市大字末広285番地", "url": "https://www.kaigokensaku.mhlw.go.jp/44/index.php?action_kouhyou_detail_004_kani=true&JigyosyoCd=4450680014-00&ServiceCd=520&Type=search", "url2": null }, "geometry": { "type": "Point", "coordinates": [ 131.776988299999971, 33.1353426 ] } },
{ "type": "Feature", "properties": { "内容": "臼杵市医師会介護老人保健施設南山園【介護老人保健施設】大分県臼杵市大字海添250番地", "url": "https://www.kaigokensaku.mhlw.go.jp/44/index.php?action_kouhyou_detail_004_kani=true&JigyosyoCd=4450680030-00&ServiceCd=520&Type=search", "url2": "http://www.usukicosmos-med.or.jp" }, "geometry": { "type": "Point", "coordinates": [ 131.802397, 33.113235 ] } },
{ "type": "Feature", "properties": { "内容": "介護老人保健施設つくみかん　サテライトみなみ【介護老人保健施設】大分県津久見市大字四浦字久保泊2944番地", "url": "https://www.kaigokensaku.mhlw.go.jp/44/index.php?action_kouhyou_detail_004_kani=true&JigyosyoCd=4450780012-00&ServiceCd=520&Type=search", "url2": "https://tsukumikan.jp" }, "geometry": { "type": "Point", "coordinates": [ 131.964568, 33.0648166 ] } },
{ "type": "Feature", "properties": { "内容": "介護老人保健施設　つくみかん【介護老人保健施設】津久見市大字千怒6120番地", "url": "https://www.kaigokensaku.mhlw.go.jp/44/index.php?action_kouhyou_detail_004_kani=true&JigyosyoCd=4450780004-00&ServiceCd=520&Type=search", "url2": "https://tsukumikan.jp" }, "geometry": { "type": "Point", "coordinates": [ 131.8874164, 33.0726701 ] } },
{ "type": "Feature", "properties": { "内容": "介護老人保健施設　岡の苑【介護老人保健施設】大分県竹田市大字竹田1855", "url": "https://www.kaigokensaku.mhlw.go.jp/44/index.php?action_kouhyou_detail_004_kani=true&JigyosyoCd=4450880002-00&ServiceCd=520&Type=search", "url2": "http://www.yuujinkai.com" }, "geometry": { "type": "Point", "coordinates": [ 131.3925666, 32.9704867 ] } },
{ "type": "Feature", "properties": { "内容": "ヴァル・ド・グラスくじゅう【介護老人保健施設】大分県竹田市久住町大字栢木574-34", "url": "https://www.kaigokensaku.mhlw.go.jp/44/index.php?action_kouhyou_detail_004_kani=true&JigyosyoCd=4452780002-00&ServiceCd=520&Type=search", "url2": "http://www.okubo-hp.com" }, "geometry": { "type": "Point", "coordinates": [ 131.312120899999968, 33.0414476 ] } },
{ "type": "Feature", "properties": { "内容": "介護老人保健施設　サングレイス香々地【介護老人保健施設】大分県豊後高田市見目３９１５番地１", "url": "https://www.kaigokensaku.mhlw.go.jp/44/index.php?action_kouhyou_detail_004_kani=true&JigyosyoCd=4452080007-00&ServiceCd=520&Type=search", "url2": "http://www.takachuo.com/" }, "geometry": { "type": "Point", "coordinates": [ 131.5291158, 33.6722894 ] } },
{ "type": "Feature", "properties": { "内容": "老人保健施設　希の里【介護老人保健施設】大分県豊後高田市呉崎755番地", "url": "https://www.kaigokensaku.mhlw.go.jp/44/index.php?action_kouhyou_detail_004_kani=true&JigyosyoCd=4450980018-00&ServiceCd=520&Type=search", "url2": "http://nozomi-sekizen.com" }, "geometry": { "type": "Point", "coordinates": [ 131.4322072, 33.5764331 ] } },
{ "type": "Feature", "properties": { "内容": "介護老人保健施設　しおはま【介護老人保健施設】大分県杵築市大字大内字塩浜7703番地4", "url": "https://www.kaigokensaku.mhlw.go.jp/44/index.php?action_kouhyou_detail_004_kani=true&JigyosyoCd=4451080016-00&ServiceCd=520&Type=search", "url2": "https://shiohama-rouken.kc-hospital.or.jp/" }, "geometry": { "type": "Point", "coordinates": [ 131.6325974, 33.4239432 ] } },
{ "type": "Feature", "properties": { "内容": "杵築市介護老人保健施設グリーンケアやまが【介護老人保健施設】大分県杵築市山香町大字野原1612番地1杵築市介護老人保健施設グリーンケアやまが", "url": "https://www.kaigokensaku.mhlw.go.jp/44/index.php?action_kouhyou_detail_004_kani=true&JigyosyoCd=4452280011-00&ServiceCd=520&Type=search", "url2": "http://www.yamaga-hp.jp/" }, "geometry": { "type": "Point", "coordinates": [ 131.508643399999983, 33.445336 ] } },
{ "type": "Feature", "properties": { "内容": "介護老人保健施設　梅桃【介護老人保健施設】大字大内字塩浜7696番地1", "url": "https://www.kaigokensaku.mhlw.go.jp/44/index.php?action_kouhyou_detail_004_kani=true&JigyosyoCd=4471000648-00&ServiceCd=520&Type=search", "url2": "https://etoh-g.jp/" }, "geometry": { "type": "Point", "coordinates": [ 131.631386917057853, 33.42310069585178 ] } },
{ "type": "Feature", "properties": { "内容": "介護老人保健施設オアシス宇佐【介護老人保健施設】大分県宇佐市大字和気１８５番地", "url": "https://www.kaigokensaku.mhlw.go.jp/44/index.php?action_kouhyou_detail_004_kani=true&JigyosyoCd=4451180014-00&ServiceCd=520&Type=search", "url2": "https://oashisu-usa.com/" }, "geometry": { "type": "Point", "coordinates": [ 131.390788125794984, 33.538066405097005 ] } },
{ "type": "Feature", "properties": { "内容": "介護老人保健施設　和光園【介護老人保健施設】大分県宇佐市大字出光195番地介護老人保健施設　和光園", "url": "https://www.kaigokensaku.mhlw.go.jp/44/index.php?action_kouhyou_detail_004_kani=true&JigyosyoCd=4451180022-00&ServiceCd=520&Type=search", "url2": "https://wadahp.com/wakouen/" }, "geometry": { "type": "Point", "coordinates": [ 131.411185299999943, 33.5296789 ] } },
{ "type": "Feature", "properties": { "内容": "介護老人保健施設清流荘【介護老人保健施設】大分県宇佐市大字山本1658", "url": "https://www.kaigokensaku.mhlw.go.jp/44/index.php?action_kouhyou_detail_004_kani=true&JigyosyoCd=4451180006-00&ServiceCd=520&Type=search", "url2": "https://ritsuseikai.com/care" }, "geometry": { "type": "Point", "coordinates": [ 131.327639, 33.5081019 ] } },
{ "type": "Feature", "properties": { "内容": "介護老人保健施設ニコニコ銘水苑【介護老人保健施設】大分県豊後大野市三重町小坂4110-7", "url": "https://www.kaigokensaku.mhlw.go.jp/44/index.php?action_kouhyou_detail_004_kani=true&JigyosyoCd=4452680012-00&ServiceCd=520&Type=search", "url2": "http://www.nikoniko.or.jp" }, "geometry": { "type": "Point", "coordinates": [ 131.620850765964946, 32.997866833737774 ] } },
{ "type": "Feature", "properties": { "内容": "ユニット型介護老人保健施設ニコニコ銘水苑【介護老人保健施設】大分県豊後大野市三重町小坂4110-7", "url": "https://www.kaigokensaku.mhlw.go.jp/44/index.php?action_kouhyou_detail_004_kani=true&JigyosyoCd=4451280053-00&ServiceCd=520&Type=search", "url2": "http://www.nikoniko.or.jp" }, "geometry": { "type": "Point", "coordinates": [ 131.620860099999959, 32.9980077 ] } },
{ "type": "Feature", "properties": { "内容": "介護老人保健施設　ニライ・カナイ【介護老人保健施設】大分県豊後大野市三重町市場127番地", "url": "https://www.kaigokensaku.mhlw.go.jp/44/index.php?action_kouhyou_detail_004_kani=true&JigyosyoCd=4451280012-00&ServiceCd=520&Type=search", "url2": "https://www.naikafujishima.com/" }, "geometry": { "type": "Point", "coordinates": [ 131.5864914, 32.9823078 ] } },
{ "type": "Feature", "properties": { "内容": "豊後大野市医師会立介護老人保健施設　豊西苑【介護老人保健施設】大分県豊後大野市三重町百枝1086－12", "url": "https://www.kaigokensaku.mhlw.go.jp/44/index.php?action_kouhyou_detail_004_kani=true&JigyosyoCd=4452680020-00&ServiceCd=520&Type=search", "url2": "http://www.oono-med.jp" }, "geometry": { "type": "Point", "coordinates": [ 131.5844247, 32.9912734 ] } },
{ "type": "Feature", "properties": { "内容": "介護老人保健施設豊西苑なのはな【介護老人保健施設】大分県豊後大野市三重町百枝1086-12", "url": "https://www.kaigokensaku.mhlw.go.jp/44/index.php?action_kouhyou_detail_004_kani=true&JigyosyoCd=4451280046-00&ServiceCd=520&Type=search", "url2": "http://www.oono-med.jp" }, "geometry": { "type": "Point", "coordinates": [ 131.5844247, 32.9912734 ] } },
{ "type": "Feature", "properties": { "内容": "ユニット型介護老人保健施設泉の里【介護老人保健施設】大分県豊後大野市三重町赤嶺1254番地1", "url": "https://www.kaigokensaku.mhlw.go.jp/44/index.php?action_kouhyou_detail_004_kani=true&JigyosyoCd=4451280020-00&ServiceCd=520&Type=search", "url2": "http://www.kigankai.or.jp/" }, "geometry": { "type": "Point", "coordinates": [ 131.600176404055219, 32.98714544038944 ] } },
{ "type": "Feature", "properties": { "内容": "介護老人保健施設泉の里【介護老人保健施設】大分県豊後大野市三重町赤嶺1254番地1", "url": "https://www.kaigokensaku.mhlw.go.jp/44/index.php?action_kouhyou_detail_004_kani=true&JigyosyoCd=4452680004-00&ServiceCd=520&Type=search", "url2": "http://www.kigankai.or.jp" }, "geometry": { "type": "Point", "coordinates": [ 131.60032966551762, 32.987226838730649 ] } },
{ "type": "Feature", "properties": { "内容": "介護老人保健施設おおの郷【介護老人保健施設】大分県豊後大野市大野町田中２番地９", "url": "https://www.kaigokensaku.mhlw.go.jp/44/index.php?action_kouhyou_detail_004_kani=true&JigyosyoCd=4471200289-00&ServiceCd=520&Type=search", "url2": "http://tenshindo.org/web/" }, "geometry": { "type": "Point", "coordinates": [ 131.501963700000033, 33.0364029 ] } },
{ "type": "Feature", "properties": { "内容": "介護老人保健施設ひろせ【介護老人保健施設】大分県豊後大野市千歳町新殿771番地１", "url": "https://www.kaigokensaku.mhlw.go.jp/44/index.php?action_kouhyou_detail_004_kani=true&JigyosyoCd=4471200305-00&ServiceCd=520&Type=search", "url2": null }, "geometry": { "type": "Point", "coordinates": [ 131.597748050401265, 33.039338942878246 ] } },
{ "type": "Feature", "properties": { "内容": "介護老人保健施設　健寿荘【介護老人保健施設】大分県由布市挾間町鬼崎４番地1", "url": "https://www.kaigokensaku.mhlw.go.jp/44/index.php?action_kouhyou_detail_004_kani=true&JigyosyoCd=4452380019-00&ServiceCd=520&Type=search", "url2": "http://www.hoaki.jp/" }, "geometry": { "type": "Point", "coordinates": [ 131.527248800000052, 33.1950696 ] } },
{ "type": "Feature", "properties": { "内容": "介護老人保健施設　ケアポート川崎【介護老人保健施設】大分県由布市挾間町古野２６４番地", "url": "https://www.kaigokensaku.mhlw.go.jp/44/index.php?action_kouhyou_detail_004_kani=true&JigyosyoCd=4452380027-00&ServiceCd=520&Type=search", "url2": null }, "geometry": { "type": "Point", "coordinates": [ 131.531020600000033, 33.2100072 ] } },
{ "type": "Feature", "properties": { "内容": "介護老人保健施設　ゆふいん風香【介護老人保健施設】大分県由布市湯布院町川南280", "url": "https://www.kaigokensaku.mhlw.go.jp/44/index.php?action_kouhyou_detail_004_kani=true&JigyosyoCd=4451380002-00&ServiceCd=520&Type=search", "url2": "http://www.fukujyukai.net/" }, "geometry": { "type": "Point", "coordinates": [ 131.358704699999947, 33.2570872 ] } },
{ "type": "Feature", "properties": { "内容": "介護老人保険施設メディケアまほろば苑【介護老人保健施設】国東町田深６６５－４", "url": "https://www.kaigokensaku.mhlw.go.jp/44/index.php?action_kouhyou_detail_004_kani=true&JigyosyoCd=4471400087-00&ServiceCd=520&Type=search", "url2": "http://www.suetsuna-clinic.jp/clinic.htm" }, "geometry": { "type": "Point", "coordinates": [ 131.728593199999978, 33.5684796 ] } },
{ "type": "Feature", "properties": { "内容": "介護老人保健施設　大樹【介護老人保健施設】大分県国東市国見町伊美2617番地２介護老人保健施設　大樹", "url": "https://www.kaigokensaku.mhlw.go.jp/44/index.php?action_kouhyou_detail_004_kani=true&JigyosyoCd=4452180021-00&ServiceCd=520&Type=search", "url2": "http://www.horita.or.jp/index.html" }, "geometry": { "type": "Point", "coordinates": [ 131.5972574, 33.684532300000015 ] } },
{ "type": "Feature", "properties": { "内容": "介護老人保険施設メディケア亀寿苑【介護老人保健施設】大分県国東市国東町田深６６５番地１", "url": "https://www.kaigokensaku.mhlw.go.jp/44/index.php?action_kouhyou_detail_004_kani=true&JigyosyoCd=4452180005-00&ServiceCd=520&Type=search", "url2": "http://www.suetsuna-clinic:jp/" }, "geometry": { "type": "Point", "coordinates": [ 131.7290071, 33.5681269 ] } },
{ "type": "Feature", "properties": { "内容": "老人保健施設ウェルハウスしらさぎ【介護老人保健施設】大分県国東市安岐町瀬戸田1035番地9", "url": "https://www.kaigokensaku.mhlw.go.jp/44/index.php?action_kouhyou_detail_004_kani=true&JigyosyoCd=4452180013-00&ServiceCd=520&Type=search", "url2": "https://roken-shirasagi.com/" }, "geometry": { "type": "Point", "coordinates": [ 131.684871, 33.4730443 ] } },
{ "type": "Feature", "properties": { "内容": "介護老人保健施設みずき【介護老人保健施設】大分県速見郡日出町川崎507-3", "url": "https://www.kaigokensaku.mhlw.go.jp/44/index.php?action_kouhyou_detail_004_kani=true&JigyosyoCd=4452280029-00&ServiceCd=520&Type=search", "url2": "http://www.hiji-kodama.jp/mizuki.html" }, "geometry": { "type": "Point", "coordinates": [ 131.542455300000029, 33.373957 ] } },
{ "type": "Feature", "properties": { "内容": "介護老人保健施設　サンライズ・ビュー【介護老人保健施設】大分県速見郡日出町580番地2", "url": "https://www.kaigokensaku.mhlw.go.jp/44/index.php?action_kouhyou_detail_004_kani=true&JigyosyoCd=4452280003-00&ServiceCd=520&Type=search", "url2": "http://www.heiseikai.com/" }, "geometry": { "type": "Point", "coordinates": [ 131.520036148973759, 33.375336393268995 ] } },
{ "type": "Feature", "properties": { "内容": "介護老人保健施設　すずらん【介護老人保健施設】大分県速見郡日出町大字藤原1691-1", "url": "https://www.kaigokensaku.mhlw.go.jp/44/index.php?action_kouhyou_detail_004_kani=true&JigyosyoCd=4472200478-00&ServiceCd=520&Type=search", "url2": "http//www.suzuki-hp.or.jp" }, "geometry": { "type": "Point", "coordinates": [ 131.545824300000049, 33.3753931 ] } },
{ "type": "Feature", "properties": { "内容": "介護老人保健施設ケアポート渓和【介護老人保健施設】大分県玖珠郡九重町大字町田５４８１－３", "url": "https://www.kaigokensaku.mhlw.go.jp/44/index.php?action_kouhyou_detail_004_kani=true&JigyosyoCd=4452880000-00&ServiceCd=520&Type=search", "url2": "https://careport-keiwa.jp" }, "geometry": { "type": "Point", "coordinates": [ 131.18357519999995, 33.2306876 ] } },
{ "type": "Feature", "properties": { "内容": "玖珠郡医師会立　老人保健施設　はね【介護老人保健施設】大分県玖珠郡玖珠町大字山田2696", "url": "https://www.kaigokensaku.mhlw.go.jp/44/index.php?action_kouhyou_detail_004_kani=true&JigyosyoCd=4452880018-00&ServiceCd=520&Type=search", "url2": "http://hane.in/" }, "geometry": { "type": "Point", "coordinates": [ 131.130062100000032, 33.2790735 ] } }
]
}
