{
"type": "FeatureCollection",
"name": "geo_44_専修学校",
"crs": { "type": "name", "properties": { "name": "urn:ogc:def:crs:EPSG::6668" } },
"features": [
{ "type": "Feature", "properties": { "P29_001": "44212", "P29_002": "H144210000014", "P29_003": "16016", "P29_004": "大分県立農業大学校", "P29_005": "大分県豊後大野市三重町赤嶺2328-1", "P29_006": "2", "P29_007": "0", "P29_008": "00", "P29_009": null }, "geometry": { "type": "Point", "coordinates": [ 131.593110852199118, 32.98967869319371 ] } },
{ "type": "Feature", "properties": { "P29_001": "44201", "P29_002": "H144310000012", "P29_003": "16016", "P29_004": "朝来野学園女子専門学校", "P29_005": "大分県大分市金池南1-6-8", "P29_006": "4", "P29_007": "0", "P29_008": "00", "P29_009": null }, "geometry": { "type": "Point", "coordinates": [ 131.607156694971565, 33.229684319499476 ] } },
{ "type": "Feature", "properties": { "P29_001": "44201", "P29_002": "H144310000021", "P29_003": "16016", "P29_004": "大分市医師会看護専門学校", "P29_005": "大分県大分市大字宮崎1315", "P29_006": "4", "P29_007": "0", "P29_008": "00", "P29_009": null }, "geometry": { "type": "Point", "coordinates": [ 131.608941440369648, 33.19340261334743 ] } },
{ "type": "Feature", "properties": { "P29_001": "44202", "P29_002": "H144310000030", "P29_003": "16016", "P29_004": "大分県歯科技術専門学校", "P29_005": "大分県別府市大字野田78", "P29_006": "4", "P29_007": "0", "P29_008": "00", "P29_009": null }, "geometry": { "type": "Point", "coordinates": [ 131.487325420262522, 33.327783539822754 ] } },
{ "type": "Feature", "properties": { "P29_001": "44202", "P29_002": "H144310000049", "P29_003": "16016", "P29_004": "別府市医師会立別府青山看護学校", "P29_005": "大分県別府市上田の湯町10-21", "P29_006": "4", "P29_007": "0", "P29_008": "00", "P29_009": null }, "geometry": { "type": "Point", "coordinates": [ 131.494746168681729, 33.278038578739412 ] } },
{ "type": "Feature", "properties": { "P29_001": "44203", "P29_002": "H144310000058", "P29_003": "16016", "P29_004": "ハリマドレスメーカー専門学校", "P29_005": "大分県中津市中殿町581-3", "P29_006": "4", "P29_007": "0", "P29_008": "00", "P29_009": null }, "geometry": { "type": "Point", "coordinates": [ 131.195624400333116, 33.598440733052236 ] } },
{ "type": "Feature", "properties": { "P29_001": "44201", "P29_002": "H144310000067", "P29_003": "16016", "P29_004": "田北料理学院", "P29_005": "大分県大分市府内町2-3-23", "P29_006": "4", "P29_007": "0", "P29_008": "00", "P29_009": null }, "geometry": { "type": "Point", "coordinates": [ 131.609751714915149, 33.236641058889582 ] } },
{ "type": "Feature", "properties": { "P29_001": "44201", "P29_002": "H144310000076", "P29_003": "16016", "P29_004": "生野家政専門学校", "P29_005": "大分県大分市府内町1-4-8", "P29_006": "4", "P29_007": "0", "P29_008": "00", "P29_009": null }, "geometry": { "type": "Point", "coordinates": [ 131.609341753634936, 33.236122172264956 ] } },
{ "type": "Feature", "properties": { "P29_001": "44201", "P29_002": "H144310000085", "P29_003": "16016", "P29_004": "大分臨床検査技師専門学校", "P29_005": "大分県大分市千代町1-11", "P29_006": "4", "P29_007": "0", "P29_008": "00", "P29_009": null }, "geometry": { "type": "Point", "coordinates": [ 131.606542904668686, 33.242538315814677 ] } },
{ "type": "Feature", "properties": { "P29_001": "44201", "P29_002": "H144310000094", "P29_003": "16016", "P29_004": "大分歯科専門学校", "P29_005": "大分県大分市千代町3-3-8", "P29_006": "4", "P29_007": "0", "P29_008": "00", "P29_009": null }, "geometry": { "type": "Point", "coordinates": [ 131.604920269180184, 33.24442045421651 ] } },
{ "type": "Feature", "properties": { "P29_001": "44203", "P29_002": "H144310000110", "P29_003": "16016", "P29_004": "オーキドレスメーカー専門学校", "P29_005": "大分県中津市桜町1025", "P29_006": "4", "P29_007": "0", "P29_008": "00", "P29_009": null }, "geometry": { "type": "Point", "coordinates": [ 131.189877651684355, 33.604701535541466 ] } },
{ "type": "Feature", "properties": { "P29_001": "44204", "P29_002": "H144310000129", "P29_003": "16016", "P29_004": "日田香蘭高等専修学校", "P29_005": "大分県日田市田島本町10-3", "P29_006": "4", "P29_007": "0", "P29_008": "00", "P29_009": null }, "geometry": { "type": "Point", "coordinates": [ 130.938266250311784, 33.320471082240658 ] } },
{ "type": "Feature", "properties": { "P29_001": "44204", "P29_002": "H144310000138", "P29_003": "16016", "P29_004": "日田市医師会立日田准看護学院", "P29_005": "大分県日田市清水町802-5", "P29_006": "4", "P29_007": "0", "P29_008": "00", "P29_009": null }, "geometry": { "type": "Point", "coordinates": [ 130.942068396308144, 33.345824411267053 ] } },
{ "type": "Feature", "properties": { "P29_001": "44201", "P29_002": "H144310000147", "P29_003": "16016", "P29_004": "専修学校府内学園", "P29_005": "大分県大分市金池南1-8-5", "P29_006": "4", "P29_007": "0", "P29_008": "00", "P29_009": null }, "geometry": { "type": "Point", "coordinates": [ 131.605214676730839, 33.230113243957568 ] } },
{ "type": "Feature", "properties": { "P29_001": "44203", "P29_002": "H144310000156", "P29_003": "16016", "P29_004": "中津育英学館", "P29_005": "大分県中津市島田本町57", "P29_006": "4", "P29_007": "0", "P29_008": "00", "P29_009": null }, "geometry": { "type": "Point", "coordinates": [ 131.190468223240146, 33.600246363943022 ] } },
{ "type": "Feature", "properties": { "P29_001": "44201", "P29_002": "H144310000165", "P29_003": "16016", "P29_004": "田北調理師専門学校", "P29_005": "大分県大分市府内町2-3-23", "P29_006": "4", "P29_007": "0", "P29_008": "00", "P29_009": null }, "geometry": { "type": "Point", "coordinates": [ 131.609774008765953, 33.23658345395399 ] } },
{ "type": "Feature", "properties": { "P29_001": "44201", "P29_002": "H144310000174", "P29_003": "16016", "P29_004": "専門学校明日香美容文化専門大学校", "P29_005": "大分県大分市東大道1-4-22", "P29_006": "4", "P29_007": "0", "P29_008": "00", "P29_009": null }, "geometry": { "type": "Point", "coordinates": [ 131.604094023452973, 33.232748129249131 ] } },
{ "type": "Feature", "properties": { "P29_001": "44201", "P29_002": "H144310000183", "P29_003": "16016", "P29_004": "大分市医師会立大分准看護専門学院", "P29_005": "大分県大分市大字宮崎字古園1315", "P29_006": "4", "P29_007": "0", "P29_008": "00", "P29_009": null }, "geometry": { "type": "Point", "coordinates": [ 131.609203798628016, 33.193693213633694 ] } },
{ "type": "Feature", "properties": { "P29_001": "44201", "P29_002": "H144310000192", "P29_003": "16016", "P29_004": "専門学校ザイナスＩＴ専門大学校", "P29_005": "大分県大分市府内町2-3-23", "P29_006": "4", "P29_007": "0", "P29_008": "00", "P29_009": null }, "geometry": { "type": "Point", "coordinates": [ 131.60986380089463, 33.236641333405466 ] } },
{ "type": "Feature", "properties": { "P29_001": "44201", "P29_002": "H144310000209", "P29_003": "16016", "P29_004": "専修学校大分経理専門学校", "P29_005": "大分県大分市錦町3-7-28", "P29_006": "4", "P29_007": "0", "P29_008": "00", "P29_009": null }, "geometry": { "type": "Point", "coordinates": [ 131.621778255114577, 33.231702201687646 ] } },
{ "type": "Feature", "properties": { "P29_001": "44201", "P29_002": "H144310000218", "P29_003": "16016", "P29_004": "ＫＣＳ大分情報専門学校", "P29_005": "大分県大分市東春日町17-19", "P29_006": "4", "P29_007": "0", "P29_008": "00", "P29_009": null }, "geometry": { "type": "Point", "coordinates": [ 131.600320437165919, 33.240816253693765 ] } },
{ "type": "Feature", "properties": { "P29_001": "44201", "P29_002": "H144310000227", "P29_003": "16016", "P29_004": "ＩＶＹ大分高度コンピュータ専門学校", "P29_005": "大分県大分市東春日町17-21", "P29_006": "4", "P29_007": "0", "P29_008": "00", "P29_009": null }, "geometry": { "type": "Point", "coordinates": [ 131.599167703158514, 33.241916840993348 ] } },
{ "type": "Feature", "properties": { "P29_001": "44201", "P29_002": "H144310000236", "P29_003": "16016", "P29_004": "大分臨床工学技士専門学校", "P29_005": "大分県大分市千代町1-11", "P29_006": "4", "P29_007": "0", "P29_008": "00", "P29_009": null }, "geometry": { "type": "Point", "coordinates": [ 131.606604250859363, 33.242818555522952 ] } },
{ "type": "Feature", "properties": { "P29_001": "44201", "P29_002": "H144310000245", "P29_003": "16016", "P29_004": "大分視能訓練士専門学校", "P29_005": "大分県大分市千代町1-11", "P29_006": "4", "P29_007": "0", "P29_008": "00", "P29_009": null }, "geometry": { "type": "Point", "coordinates": [ 131.606885815679931, 33.242783333099894 ] } },
{ "type": "Feature", "properties": { "P29_001": "44212", "P29_002": "H144310000254", "P29_003": "16016", "P29_004": "藤華医療技術専門学校", "P29_005": "大分県豊後大野市三重町内田4000-1", "P29_006": "4", "P29_007": "0", "P29_008": "00", "P29_009": null }, "geometry": { "type": "Point", "coordinates": [ 131.60079604483451, 32.974593135972576 ] } },
{ "type": "Feature", "properties": { "P29_001": "44201", "P29_002": "H144310000263", "P29_003": "16016", "P29_004": "大分リハビリテーション専門学校", "P29_005": "大分県大分市千代町3-22", "P29_006": "4", "P29_007": "0", "P29_008": "00", "P29_009": null }, "geometry": { "type": "Point", "coordinates": [ 131.605006039571947, 33.242672082548246 ] } },
{ "type": "Feature", "properties": { "P29_001": "44201", "P29_002": "H144310000272", "P29_003": "16016", "P29_004": "専修学校明星国際ビューティカレッジ", "P29_005": "大分県大分市大津町1-1-1", "P29_006": "4", "P29_007": "0", "P29_008": "00", "P29_009": null }, "geometry": { "type": "Point", "coordinates": [ 131.621901011901855, 33.247563352144752 ] } },
{ "type": "Feature", "properties": { "P29_001": "44203", "P29_002": "H144310000281", "P29_003": "16016", "P29_004": "中津ファビオラ看護学校", "P29_005": "大分県中津市大字永添字小森2110", "P29_006": "4", "P29_007": "0", "P29_008": "00", "P29_009": null }, "geometry": { "type": "Point", "coordinates": [ 131.196492153630686, 33.562156541450399 ] } },
{ "type": "Feature", "properties": { "P29_001": "44201", "P29_002": "H144310000290", "P29_003": "16016", "P29_004": "大分介護福祉士専門学校", "P29_005": "大分県大分市新川西3組", "P29_006": "4", "P29_007": "0", "P29_008": "00", "P29_009": null }, "geometry": { "type": "Point", "coordinates": [ 131.605900608345053, 33.247463163790933 ] } },
{ "type": "Feature", "properties": { "P29_001": "44201", "P29_002": "H144310000307", "P29_003": "16016", "P29_004": "智泉福祉製菓専門学校", "P29_005": "大分県大分市荏隈字中島1135", "P29_006": "4", "P29_007": "0", "P29_008": "00", "P29_009": null }, "geometry": { "type": "Point", "coordinates": [ 131.573957326370021, 33.210925977347486 ] } },
{ "type": "Feature", "properties": { "P29_001": "44201", "P29_002": "H144310000316", "P29_003": "16016", "P29_004": "藤華医療事務専門学校", "P29_005": "大分県大分市桜ヶ丘5-2", "P29_006": "4", "P29_007": "0", "P29_008": "00", "P29_009": null }, "geometry": { "type": "Point", "coordinates": [ 131.605251601800319, 33.227562041340249 ] } },
{ "type": "Feature", "properties": { "P29_001": "44201", "P29_002": "H144310000325", "P29_003": "16016", "P29_004": "北九州予備校大分校", "P29_005": "大分県大分市金池町2-7-17", "P29_006": "4", "P29_007": "0", "P29_008": "00", "P29_009": null }, "geometry": { "type": "Point", "coordinates": [ 131.609954740782968, 33.233824878022162 ] } },
{ "type": "Feature", "properties": { "P29_001": "44201", "P29_002": "H144310000334", "P29_003": "16016", "P29_004": "大分医学技術専門学校", "P29_005": "大分県大分市千代町1-1-10", "P29_006": "4", "P29_007": "0", "P29_008": "00", "P29_009": null }, "geometry": { "type": "Point", "coordinates": [ 131.60654819427495, 33.242574376757425 ] } },
{ "type": "Feature", "properties": { "P29_001": "44201", "P29_002": "H144310000343", "P29_003": "16016", "P29_004": "日本文理大学医療専門学校", "P29_005": "大分県大分市一木1727", "P29_006": "4", "P29_007": "0", "P29_008": "00", "P29_009": null }, "geometry": { "type": "Point", "coordinates": [ 131.72171634408096, 33.232729943873736 ] } },
{ "type": "Feature", "properties": { "P29_001": "44202", "P29_002": "H144310000352", "P29_003": "16016", "P29_004": "別府医療センター附属大分中央看護学校", "P29_005": "大分県別府市大字内竈1473", "P29_006": "4", "P29_007": "0", "P29_008": "00", "P29_009": null }, "geometry": { "type": "Point", "coordinates": [ 131.488311313054737, 33.331588246200447 ] } },
{ "type": "Feature", "properties": { "P29_001": "44211", "P29_002": "H144310000361", "P29_003": "16016", "P29_004": "専門学校九州総合スポーツカレッジ", "P29_005": "大分県宇佐市大字金屋199-2", "P29_006": "4", "P29_007": "0", "P29_008": "00", "P29_009": null }, "geometry": { "type": "Point", "coordinates": [ 131.376463217440715, 33.563756253096628 ] } },
{ "type": "Feature", "properties": { "P29_001": "44201", "P29_002": "H144310000370", "P29_003": "16016", "P29_004": "国際調理師専修学校", "P29_005": "大分県大分市東大道町1-6-1", "P29_006": "4", "P29_007": "0", "P29_008": "00", "P29_009": null }, "geometry": { "type": "Point", "coordinates": [ 131.604111108456664, 33.232067890398682 ] } },
{ "type": "Feature", "properties": { "P29_001": "44201", "P29_002": "H144310000389", "P29_003": "16016", "P29_004": "アンビシャス国際美容学校", "P29_005": "大分県大分市大字市551", "P29_006": "4", "P29_007": "0", "P29_008": "00", "P29_009": null }, "geometry": { "type": "Point", "coordinates": [ 131.575141378491622, 33.1884958126698 ] } },
{ "type": "Feature", "properties": { "P29_001": "44202", "P29_002": "H144310000398", "P29_003": "16016", "P29_004": "大分ドッググルーミング専門学校", "P29_005": "大分県別府市京町1306-4", "P29_006": "4", "P29_007": "0", "P29_008": "00", "P29_009": null }, "geometry": { "type": "Point", "coordinates": [ 131.501780227713255, 33.286488026438214 ] } },
{ "type": "Feature", "properties": { "P29_001": "44201", "P29_002": "H144310000405", "P29_003": "16016", "P29_004": "明日香国際ブライダル＆ホテル観光専門学校", "P29_005": "大分県大分市東大道1-4-22", "P29_006": "4", "P29_007": "0", "P29_008": "00", "P29_009": null }, "geometry": { "type": "Point", "coordinates": [ 131.603971788305444, 33.232808180572192 ] } },
{ "type": "Feature", "properties": { "P29_001": "44201", "P29_002": "H144310000414", "P29_003": "16016", "P29_004": "大原簿記公務員専門学校大分校", "P29_005": "大分県大分市金池南1-2-24", "P29_006": "4", "P29_007": "0", "P29_008": "00", "P29_009": null }, "geometry": { "type": "Point", "coordinates": [ 131.607134598683103, 33.230942222958298 ] } },
{ "type": "Feature", "properties": { "P29_001": "44201", "P29_002": "H144310000423", "P29_003": "16016", "P29_004": "大原医療介護福祉専門学校大分校", "P29_005": "大分県大分市金池南1-2-24", "P29_006": "4", "P29_007": "0", "P29_008": "00", "P29_009": null }, "geometry": { "type": "Point", "coordinates": [ 131.607036392956672, 33.230994807447154 ] } },
{ "type": "Feature", "properties": { "P29_001": "44201", "P29_002": "H144310000432", "P29_003": "16016", "P29_004": "智泉幼児保育専門学校", "P29_005": "大分県大分市荏隈1229-1", "P29_006": "4", "P29_007": "0", "P29_008": "00", "P29_009": null }, "geometry": { "type": "Point", "coordinates": [ 131.574809638317276, 33.210980509062836 ] } },
{ "type": "Feature", "properties": { "P29_001": "44201", "P29_002": "H144310000441", "P29_003": "16016", "P29_004": "ＩＶＹ大分医療総合専門学校", "P29_005": "大分県大分市東春日町17-21", "P29_006": "4", "P29_007": "0", "P29_008": "00", "P29_009": null }, "geometry": { "type": "Point", "coordinates": [ 131.599006260510805, 33.241957520921879 ] } },
{ "type": "Feature", "properties": { "P29_001": "44201", "P29_002": "H144310000450", "P29_003": "16016", "P29_004": "大原自動車工科専門学校大分校", "P29_005": "大分県大分市金池南1-2-24", "P29_006": "4", "P29_007": "0", "P29_008": "00", "P29_009": null }, "geometry": { "type": "Point", "coordinates": [ 131.607210708121158, 33.230891700606271 ] } },
{ "type": "Feature", "properties": { "P29_001": "44201", "P29_002": "H144310000469", "P29_003": "16016", "P29_004": "藤華歯科衛生専門学校", "P29_005": "大分県大分市東大道1-6-1", "P29_006": "4", "P29_007": "0", "P29_008": "00", "P29_009": null }, "geometry": { "type": "Point", "coordinates": [ 131.604182604486368, 33.232029147609609 ] } },
{ "type": "Feature", "properties": { "P29_001": "44205", "P29_002": "H144310000478", "P29_003": "16016", "P29_004": "オペレーションズマネジメントシステムスクール", "P29_005": "大分県佐伯市城南町29-15", "P29_006": "4", "P29_007": "0", "P29_008": "00", "P29_009": null }, "geometry": { "type": "Point", "coordinates": [ 131.886087870138482, 32.954871614112996 ] } },
{ "type": "Feature", "properties": { "P29_001": "44201", "P29_002": "H144310000487", "P29_003": "16016", "P29_004": "明星ワールドビジネス観光専門学校", "P29_005": "大分県大分市大津町1-1-1", "P29_006": "4", "P29_007": "0", "P29_008": "00", "P29_009": null }, "geometry": { "type": "Point", "coordinates": [ 131.621917868336425, 33.247493977231386 ] } },
{ "type": "Feature", "properties": { "P29_001": "44201", "P29_002": "H144310000496", "P29_003": "16016", "P29_004": "大分平松総合医療専門学校", "P29_005": "大分県大分市千代町1-11", "P29_006": "4", "P29_007": "0", "P29_008": "00", "P29_009": null }, "geometry": { "type": "Point", "coordinates": [ 131.606884568382213, 33.242871654560503 ] } }
]
}
