{
"type": "FeatureCollection",
"name": "geo_44_各種学校",
"crs": { "type": "name", "properties": { "name": "urn:ogc:def:crs:EPSG::6668" } },
"features": [
{ "type": "Feature", "properties": { "P29_001": "44201", "P29_002": "H244210000013", "P29_003": "16015", "P29_004": "大分市立エスペランサコレジオ", "P29_005": "大分県大分市東鶴崎1-1-5", "P29_006": "3", "P29_007": "0", "P29_008": "00", "P29_009": null }, "geometry": { "type": "Point", "coordinates": [ 131.695640347596708, 33.241211798902924 ] } },
{ "type": "Feature", "properties": { "P29_001": "44214", "P29_002": "H244210000022", "P29_003": "16015", "P29_004": "国東市立国東自動車学校", "P29_005": "大分県国東市国東町北江4398", "P29_006": "3", "P29_007": "0", "P29_008": "00", "P29_009": null }, "geometry": { "type": "Point", "coordinates": [ 131.731198054484992, 33.578109625109718 ] } },
{ "type": "Feature", "properties": { "P29_001": "44201", "P29_002": "H244310000011", "P29_003": "16015", "P29_004": "大分電波通信専攻学校", "P29_005": "大分県大分市新貝11-40", "P29_006": "4", "P29_007": "0", "P29_008": "00", "P29_009": null }, "geometry": { "type": "Point", "coordinates": [ 131.647549834003456, 33.248067862287733 ] } },
{ "type": "Feature", "properties": { "P29_001": "44201", "P29_002": "H244310000020", "P29_003": "16015", "P29_004": "大分県自動車学校", "P29_005": "大分県大分市賀来北1-11-6", "P29_006": "4", "P29_007": "0", "P29_008": "00", "P29_009": null }, "geometry": { "type": "Point", "coordinates": [ 131.572088653652514, 33.213824937961398 ] } },
{ "type": "Feature", "properties": { "P29_001": "44201", "P29_002": "H244310000039", "P29_003": "16015", "P29_004": "堀井洋裁学院", "P29_005": "大分県大分市大手町3-2-28", "P29_006": "4", "P29_007": "0", "P29_008": "00", "P29_009": null }, "geometry": { "type": "Point", "coordinates": [ 131.613767794161703, 33.239030146748938 ] } },
{ "type": "Feature", "properties": { "P29_001": "44201", "P29_002": "H244310000048", "P29_003": "16015", "P29_004": "大分自動車学校", "P29_005": "大分県大分市大字津守564-4", "P29_006": "4", "P29_007": "0", "P29_008": "00", "P29_009": null }, "geometry": { "type": "Point", "coordinates": [ 131.618410906027179, 33.214470421923117 ] } },
{ "type": "Feature", "properties": { "P29_001": "44204", "P29_002": "H244310000057", "P29_003": "16015", "P29_004": "日田香蘭高等文化学院", "P29_005": "大分県日田市田島本町10-3", "P29_006": "4", "P29_007": "0", "P29_008": "00", "P29_009": null }, "geometry": { "type": "Point", "coordinates": [ 130.938356042440489, 33.320428988094122 ] } },
{ "type": "Feature", "properties": { "P29_001": "44204", "P29_002": "H244310000066", "P29_003": "16015", "P29_004": "日田自動車学校", "P29_005": "大分県日田市桃山町2441", "P29_006": "4", "P29_007": "0", "P29_008": "00", "P29_009": null }, "geometry": { "type": "Point", "coordinates": [ 130.952596274666035, 33.300619942034878 ] } },
{ "type": "Feature", "properties": { "P29_001": "44205", "P29_002": "H244310000075", "P29_003": "16015", "P29_004": "佐伯自動車学校", "P29_005": "大分県佐伯市6785", "P29_006": "4", "P29_007": "0", "P29_008": "00", "P29_009": null }, "geometry": { "type": "Point", "coordinates": [ 131.908077238710945, 32.950640278768205 ] } },
{ "type": "Feature", "properties": { "P29_001": "44205", "P29_002": "H244310000084", "P29_003": "16015", "P29_004": "佐伯市医師会立佐伯准看護学院", "P29_005": "大分県佐伯市鶴岡町2-2-1", "P29_006": "4", "P29_007": "0", "P29_008": "00", "P29_009": null }, "geometry": { "type": "Point", "coordinates": [ 131.883194215738342, 32.955199719410281 ] } },
{ "type": "Feature", "properties": { "P29_001": "44212", "P29_002": "H244310000093", "P29_003": "16015", "P29_004": "三重自動車学校", "P29_005": "大分県豊後大野市三重町内田1280", "P29_006": "4", "P29_007": "0", "P29_008": "00", "P29_009": null }, "geometry": { "type": "Point", "coordinates": [ 131.587046607956893, 32.97456344426304 ] } },
{ "type": "Feature", "properties": { "P29_001": "44212", "P29_002": "H244310000100", "P29_003": "16015", "P29_004": "豊後大野市竹田市医師会共立豊西准看護学院", "P29_005": "大分県豊後大野市緒方町下自在字大石137-1", "P29_006": "4", "P29_007": "0", "P29_008": "00", "P29_009": null }, "geometry": { "type": "Point", "coordinates": [ 131.471077519846745, 32.969971214668014 ] } },
{ "type": "Feature", "properties": { "P29_001": "44201", "P29_002": "H244310000119", "P29_003": "16015", "P29_004": "大分スクールオブビジネス", "P29_005": "大分県大分市千代町3-1-21", "P29_006": "4", "P29_007": "0", "P29_008": "00", "P29_009": null }, "geometry": { "type": "Point", "coordinates": [ 131.604534239995672, 33.242724098102457 ] } },
{ "type": "Feature", "properties": { "P29_001": "44201", "P29_002": "H244310000128", "P29_003": "16015", "P29_004": "明日香日本語学校", "P29_005": "大分県大分市東大道1-4-22", "P29_006": "4", "P29_007": "0", "P29_008": "00", "P29_009": null }, "geometry": { "type": "Point", "coordinates": [ 131.604197808012202, 33.232695826483884 ] } },
{ "type": "Feature", "properties": { "P29_001": "44201", "P29_002": "H244310000137", "P29_003": "16015", "P29_004": "ＩＶＹ大分公務員学院", "P29_005": "大分県大分市東春日町17-21", "P29_006": "4", "P29_007": "0", "P29_008": "00", "P29_009": null }, "geometry": { "type": "Point", "coordinates": [ 131.599398335512319, 33.241883909622644 ] } }
]
}
