{
"type": "FeatureCollection",
"name": "geo_44_義務教育学校",
"crs": { "type": "name", "properties": { "name": "urn:ogc:def:crs:EPSG::6668" } },
"features": [
{ "type": "Feature", "properties": { "P29_001": "44201", "P29_002": "C244210000014", "P29_003": "16014", "P29_004": "大分市立碩田学園", "P29_005": "大分県大分市碩田町2-5-60", "P29_006": "3", "P29_007": "1", "P29_008": "00", "P29_009": null }, "geometry": { "type": "Point", "coordinates": [ 131.611990329339221, 33.247765280358486 ] } },
{ "type": "Feature", "properties": { "P29_001": "44214", "P29_002": "C244210000023", "P29_003": "16014", "P29_004": "国東市立志成学園", "P29_005": "大分県国東市武蔵町成吉810", "P29_006": "3", "P29_007": "1", "P29_008": "00", "P29_009": null }, "geometry": { "type": "Point", "coordinates": [ 131.709530001345541, 33.506573003328178 ] } }
]
}
