{
"type": "FeatureCollection",
"name": "geo_44_中学校",
"crs": { "type": "name", "properties": { "name": "urn:ogc:def:crs:EPSG::6668" } },
"features": [
{ "type": "Feature", "properties": { "P29_001": "44201", "P29_002": "C144110000017", "P29_003": "16002", "P29_004": "大分大学教育学部附属中学校", "P29_005": "大分県大分市王子新町1-1", "P29_006": "1", "P29_007": "1", "P29_008": "00", "P29_009": null }, "geometry": { "type": "Point", "coordinates": [ 131.592046736396981, 33.23739487530878 ] } },
{ "type": "Feature", "properties": { "P29_001": "44201", "P29_002": "C144210000015", "P29_003": "16002", "P29_004": "大分市立上野ヶ丘中学校", "P29_005": "大分県大分市上野町4-5", "P29_006": "3", "P29_007": "1", "P29_008": "00", "P29_009": null }, "geometry": { "type": "Point", "coordinates": [ 131.612989891929146, 33.228265090736436 ] } },
{ "type": "Feature", "properties": { "P29_001": "44201", "P29_002": "C144210000024", "P29_003": "16002", "P29_004": "大分市立王子中学校", "P29_005": "大分県大分市南春日町6-1", "P29_006": "3", "P29_007": "1", "P29_008": "00", "P29_009": null }, "geometry": { "type": "Point", "coordinates": [ 131.594605984805099, 33.236575089820455 ] } },
{ "type": "Feature", "properties": { "P29_001": "44201", "P29_002": "C144210000033", "P29_003": "16002", "P29_004": "大分市立南大分中学校", "P29_005": "大分県大分市二又町1-4-53", "P29_006": "3", "P29_007": "1", "P29_008": "00", "P29_009": null }, "geometry": { "type": "Point", "coordinates": [ 131.594951595704259, 33.214905055801907 ] } },
{ "type": "Feature", "properties": { "P29_001": "44201", "P29_002": "C144210000042", "P29_003": "16002", "P29_004": "大分市立滝尾中学校", "P29_005": "大分県大分市大字羽田349", "P29_006": "3", "P29_007": "1", "P29_008": "00", "P29_009": null }, "geometry": { "type": "Point", "coordinates": [ 131.633666395878919, 33.214845106867962 ] } },
{ "type": "Feature", "properties": { "P29_001": "44201", "P29_002": "C144210000051", "P29_003": "16002", "P29_004": "大分市立城東中学校", "P29_005": "大分県大分市牧上町14-19", "P29_006": "3", "P29_007": "1", "P29_008": "00", "P29_009": null }, "geometry": { "type": "Point", "coordinates": [ 131.645833301674372, 33.239314729631595 ] } },
{ "type": "Feature", "properties": { "P29_001": "44201", "P29_002": "C144210000060", "P29_003": "16002", "P29_004": "大分市立鶴崎中学校", "P29_005": "大分県大分市大字皆春1200-1", "P29_006": "3", "P29_007": "1", "P29_008": "00", "P29_009": null }, "geometry": { "type": "Point", "coordinates": [ 131.687342302954931, 33.236507087624688 ] } },
{ "type": "Feature", "properties": { "P29_001": "44201", "P29_002": "C144210000079", "P29_003": "16002", "P29_004": "大分市立大東中学校", "P29_005": "大分県大分市横尾東町1-23-1", "P29_006": "3", "P29_007": "1", "P29_008": "00", "P29_009": null }, "geometry": { "type": "Point", "coordinates": [ 131.675930445089591, 33.209915549768404 ] } },
{ "type": "Feature", "properties": { "P29_001": "44201", "P29_002": "C144210000088", "P29_003": "16002", "P29_004": "大分市立戸次中学校", "P29_005": "大分県大分市中戸次4508-1", "P29_006": "3", "P29_007": "1", "P29_008": "00", "P29_009": null }, "geometry": { "type": "Point", "coordinates": [ 131.657976359809453, 33.156379731734688 ] } },
{ "type": "Feature", "properties": { "P29_001": "44201", "P29_002": "C144210000097", "P29_003": "16002", "P29_004": "大分市立吉野中学校", "P29_005": "大分県大分市辻812", "P29_006": "3", "P29_007": "1", "P29_008": "00", "P29_009": null }, "geometry": { "type": "Point", "coordinates": [ 131.693542015495353, 33.111492571106503 ] } },
{ "type": "Feature", "properties": { "P29_001": "44201", "P29_002": "C144210000104", "P29_003": "16002", "P29_004": "大分市立竹中中学校", "P29_005": "大分県大分市竹中3621", "P29_006": "3", "P29_007": "1", "P29_008": "00", "P29_009": null }, "geometry": { "type": "Point", "coordinates": [ 131.650886556528974, 33.133667250490348 ] } },
{ "type": "Feature", "properties": { "P29_001": "44201", "P29_002": "C144210000113", "P29_003": "16002", "P29_004": "大分市立判田中学校", "P29_005": "大分県大分市判田台北1-1-1", "P29_006": "3", "P29_007": "1", "P29_008": "00", "P29_009": null }, "geometry": { "type": "Point", "coordinates": [ 131.633565327591299, 33.165526154843022 ] } },
{ "type": "Feature", "properties": { "P29_001": "44201", "P29_002": "C144210000122", "P29_003": "16002", "P29_004": "大分市立稙田中学校", "P29_005": "大分県大分市大字市589-2", "P29_006": "3", "P29_007": "1", "P29_008": "00", "P29_009": null }, "geometry": { "type": "Point", "coordinates": [ 131.57666654273757, 33.190012066255747 ] } },
{ "type": "Feature", "properties": { "P29_001": "44201", "P29_002": "C144210000131", "P29_003": "16002", "P29_004": "大分市立賀来中学校", "P29_005": "大分県大分市大字賀来101-4", "P29_006": "3", "P29_007": "1", "P29_008": "00", "P29_009": null }, "geometry": { "type": "Point", "coordinates": [ 131.560268236057766, 33.206279930375281 ] } },
{ "type": "Feature", "properties": { "P29_001": "44201", "P29_002": "C144210000140", "P29_003": "16002", "P29_004": "大分市立大在中学校", "P29_005": "大分県大分市大字政所2602-12", "P29_006": "3", "P29_007": "1", "P29_008": "00", "P29_009": null }, "geometry": { "type": "Point", "coordinates": [ 131.721532858277698, 33.234185246952784 ] } },
{ "type": "Feature", "properties": { "P29_001": "44201", "P29_002": "C144210000159", "P29_003": "16002", "P29_004": "大分市立坂ノ市中学校", "P29_005": "大分県大分市坂ノ市南2-9-72", "P29_006": "3", "P29_007": "1", "P29_008": "00", "P29_009": null }, "geometry": { "type": "Point", "coordinates": [ 131.750372736313977, 33.22876686115255 ] } },
{ "type": "Feature", "properties": { "P29_001": "44201", "P29_002": "C144210000168", "P29_003": "16002", "P29_004": "大分市立明野中学校", "P29_005": "大分県大分市明野南3-7-1", "P29_006": "3", "P29_007": "1", "P29_008": "00", "P29_009": null }, "geometry": { "type": "Point", "coordinates": [ 131.651545025859662, 33.218619878600315 ] } },
{ "type": "Feature", "properties": { "P29_001": "44202", "P29_002": "C144210000186", "P29_003": "16002", "P29_004": "別府市立青山中学校", "P29_005": "大分県別府市大字別府3088-1", "P29_006": "3", "P29_007": "1", "P29_008": "00", "P29_009": null }, "geometry": { "type": "Point", "coordinates": [ 131.483037998742645, 33.289637998043602 ] } },
{ "type": "Feature", "properties": { "P29_001": "44202", "P29_002": "C144210000195", "P29_003": "16002", "P29_004": "別府市立中部中学校", "P29_005": "大分県別府市大字鶴見4530-1", "P29_006": "3", "P29_007": "1", "P29_008": "00", "P29_009": null }, "geometry": { "type": "Point", "coordinates": [ 131.489993083362549, 33.292726740777788 ] } },
{ "type": "Feature", "properties": { "P29_001": "44202", "P29_002": "C144210000202", "P29_003": "16002", "P29_004": "別府市立北部中学校", "P29_005": "大分県別府市大字亀川231", "P29_006": "3", "P29_007": "1", "P29_008": "00", "P29_009": null }, "geometry": { "type": "Point", "coordinates": [ 131.488048901704929, 33.326263762762537 ] } },
{ "type": "Feature", "properties": { "P29_001": "44202", "P29_002": "C144210000220", "P29_003": "16002", "P29_004": "別府市立朝日中学校", "P29_005": "大分県別府市大字鶴見950-5", "P29_006": "3", "P29_007": "1", "P29_008": "00", "P29_009": null }, "geometry": { "type": "Point", "coordinates": [ 131.466096678176285, 33.310989779155143 ] } },
{ "type": "Feature", "properties": { "P29_001": "44202", "P29_002": "C144210000239", "P29_003": "16002", "P29_004": "別府市立東山中学校", "P29_005": "大分県別府市大字別府4380-1", "P29_006": "3", "P29_007": "1", "P29_008": "00", "P29_009": null }, "geometry": { "type": "Point", "coordinates": [ 131.448987476052139, 33.267051620354252 ] } },
{ "type": "Feature", "properties": { "P29_001": "44203", "P29_002": "C144210000248", "P29_003": "16002", "P29_004": "中津市立豊陽中学校", "P29_005": "大分県中津市中央町1-4-50", "P29_006": "3", "P29_007": "1", "P29_008": "00", "P29_009": null }, "geometry": { "type": "Point", "coordinates": [ 131.193808530772316, 33.593143996602052 ] } },
{ "type": "Feature", "properties": { "P29_001": "44203", "P29_002": "C144210000257", "P29_003": "16002", "P29_004": "中津市立緑ヶ丘中学校", "P29_005": "大分県中津市大字永添2454-1", "P29_006": "3", "P29_007": "1", "P29_008": "00", "P29_009": null }, "geometry": { "type": "Point", "coordinates": [ 131.210071033204741, 33.570068602896313 ] } },
{ "type": "Feature", "properties": { "P29_001": "44203", "P29_002": "C144210000266", "P29_003": "16002", "P29_004": "中津市立中津中学校", "P29_005": "大分県中津市牛神459-2", "P29_006": "3", "P29_007": "1", "P29_008": "00", "P29_009": null }, "geometry": { "type": "Point", "coordinates": [ 131.202102240133001, 33.595592442865509 ] } },
{ "type": "Feature", "properties": { "P29_001": "44203", "P29_002": "C144210000275", "P29_003": "16002", "P29_004": "中津市立城北中学校", "P29_005": "大分県中津市字小祝525-11", "P29_006": "3", "P29_007": "1", "P29_008": "00", "P29_009": null }, "geometry": { "type": "Point", "coordinates": [ 131.188904825300057, 33.613017532724747 ] } },
{ "type": "Feature", "properties": { "P29_001": "44203", "P29_002": "C144210000284", "P29_003": "16002", "P29_004": "中津市立東中津中学校", "P29_005": "大分県中津市大字是則845", "P29_006": "3", "P29_007": "1", "P29_008": "00", "P29_009": null }, "geometry": { "type": "Point", "coordinates": [ 131.235182481830634, 33.58817026304726 ] } },
{ "type": "Feature", "properties": { "P29_001": "44203", "P29_002": "C144210000293", "P29_003": "16002", "P29_004": "中津市立今津中学校", "P29_005": "大分県中津市大字植野1889-2", "P29_006": "3", "P29_007": "1", "P29_008": "00", "P29_009": null }, "geometry": { "type": "Point", "coordinates": [ 131.267036473977925, 33.569183738548865 ] } },
{ "type": "Feature", "properties": { "P29_001": "44204", "P29_002": "C144210000300", "P29_003": "16002", "P29_004": "日田市立東部中学校", "P29_005": "大分県日田市田島2-12-8", "P29_006": "3", "P29_007": "1", "P29_008": "00", "P29_009": null }, "geometry": { "type": "Point", "coordinates": [ 130.944142547167331, 33.317511597551871 ] } },
{ "type": "Feature", "properties": { "P29_001": "44204", "P29_002": "C144210000319", "P29_003": "16002", "P29_004": "日田市立三隈中学校", "P29_005": "大分県日田市亀川町402-1", "P29_006": "3", "P29_007": "1", "P29_008": "00", "P29_009": null }, "geometry": { "type": "Point", "coordinates": [ 130.915688993518813, 33.316108078087197 ] } },
{ "type": "Feature", "properties": { "P29_001": "44204", "P29_002": "C144210000328", "P29_003": "16002", "P29_004": "日田市立南部中学校", "P29_005": "大分県日田市銭渕町288", "P29_006": "3", "P29_007": "1", "P29_008": "00", "P29_009": null }, "geometry": { "type": "Point", "coordinates": [ 130.931355098472665, 33.306833796550514 ] } },
{ "type": "Feature", "properties": { "P29_001": "44204", "P29_002": "C144210000337", "P29_003": "16002", "P29_004": "日田市立北部中学校", "P29_005": "大分県日田市上手町148-1", "P29_006": "3", "P29_007": "1", "P29_008": "00", "P29_009": null }, "geometry": { "type": "Point", "coordinates": [ 130.946061210859938, 33.335863322040446 ] } },
{ "type": "Feature", "properties": { "P29_001": "44204", "P29_002": "C144210000346", "P29_003": "16002", "P29_004": "日田市立戸山中学校", "P29_005": "大分県日田市藤山町213-1", "P29_006": "3", "P29_007": "1", "P29_008": "00", "P29_009": null }, "geometry": { "type": "Point", "coordinates": [ 130.957907582250897, 33.36155571067345 ] } },
{ "type": "Feature", "properties": { "P29_001": "44204", "P29_002": "C144210000355", "P29_003": "16002", "P29_004": "日田市立東有田中学校", "P29_005": "大分県日田市諸留町488-2", "P29_006": "3", "P29_007": "1", "P29_008": "00", "P29_009": null }, "geometry": { "type": "Point", "coordinates": [ 130.98295261848412, 33.331420676769092 ] } },
{ "type": "Feature", "properties": { "P29_001": "44204", "P29_002": "C144210000364", "P29_003": "16002", "P29_004": "日田市立大明中学校", "P29_005": "大分県日田市大肥本町1701", "P29_006": "3", "P29_007": "1", "P29_008": "00", "P29_009": null }, "geometry": { "type": "Point", "coordinates": [ 130.882514396782227, 33.365106317682255 ] } },
{ "type": "Feature", "properties": { "P29_001": "44205", "P29_002": "C144210000373", "P29_003": "16002", "P29_004": "佐伯市立鶴谷中学校", "P29_005": "大分県佐伯市長島町1-1-1", "P29_006": "3", "P29_007": "1", "P29_008": "00", "P29_009": null }, "geometry": { "type": "Point", "coordinates": [ 131.904374926045648, 32.962239423069192 ] } },
{ "type": "Feature", "properties": { "P29_001": "44205", "P29_002": "C144210000382", "P29_003": "16002", "P29_004": "佐伯市立佐伯城南中学校", "P29_005": "大分県佐伯市城南町17-1", "P29_006": "3", "P29_007": "1", "P29_008": "00", "P29_009": null }, "geometry": { "type": "Point", "coordinates": [ 131.889021533579239, 32.954956336953586 ] } },
{ "type": "Feature", "properties": { "P29_001": "44205", "P29_002": "C144210000391", "P29_003": "16002", "P29_004": "佐伯市立大入島中学校", "P29_005": "大分県佐伯市大字久保浦1088", "P29_006": "3", "P29_007": "9", "P29_008": "00", "P29_009": null }, "geometry": { "type": "Point", "coordinates": [ 131.924056443241511, 32.996442083827631 ] } },
{ "type": "Feature", "properties": { "P29_001": "44205", "P29_002": "C144210000408", "P29_003": "16002", "P29_004": "佐伯市立彦陽中学校", "P29_005": "大分県佐伯市大字戸穴2925", "P29_006": "3", "P29_007": "1", "P29_008": "00", "P29_009": null }, "geometry": { "type": "Point", "coordinates": [ 131.892670358713161, 33.00505127497749 ] } },
{ "type": "Feature", "properties": { "P29_001": "44206", "P29_002": "C144210000417", "P29_003": "16002", "P29_004": "臼杵市立北中学校", "P29_005": "大分県臼杵市大字江無田132-1", "P29_006": "3", "P29_007": "1", "P29_008": "00", "P29_009": null }, "geometry": { "type": "Point", "coordinates": [ 131.79027706698173, 33.130550955644829 ] } },
{ "type": "Feature", "properties": { "P29_001": "44206", "P29_002": "C144210000426", "P29_003": "16002", "P29_004": "臼杵市立南中学校", "P29_005": "大分県臼杵市大字掻懐2227", "P29_006": "3", "P29_007": "1", "P29_008": "00", "P29_009": null }, "geometry": { "type": "Point", "coordinates": [ 131.749493854315034, 33.097134311013257 ] } },
{ "type": "Feature", "properties": { "P29_001": "44206", "P29_002": "C144210000435", "P29_003": "16002", "P29_004": "臼杵市立西中学校", "P29_005": "大分県臼杵市大字戸室535", "P29_006": "3", "P29_007": "1", "P29_008": "00", "P29_009": null }, "geometry": { "type": "Point", "coordinates": [ 131.785969607088674, 33.119430612815513 ] } },
{ "type": "Feature", "properties": { "P29_001": "44206", "P29_002": "C144210000444", "P29_003": "16002", "P29_004": "臼杵市立東中学校", "P29_005": "大分県臼杵市大字臼杵71-18", "P29_006": "3", "P29_007": "1", "P29_008": "00", "P29_009": null }, "geometry": { "type": "Point", "coordinates": [ 131.803129464953969, 33.125051076197892 ] } },
{ "type": "Feature", "properties": { "P29_001": "44207", "P29_002": "C144210000453", "P29_003": "16002", "P29_004": "津久見市立第一中学校", "P29_005": "大分県津久見市文京町1-6", "P29_006": "3", "P29_007": "1", "P29_008": "00", "P29_009": null }, "geometry": { "type": "Point", "coordinates": [ 131.865095928905617, 33.068773348993105 ] } },
{ "type": "Feature", "properties": { "P29_001": "44207", "P29_002": "C144210000462", "P29_003": "16002", "P29_004": "津久見市立第二中学校", "P29_005": "大分県津久見市元町11-29", "P29_006": "3", "P29_007": "1", "P29_008": "00", "P29_009": null }, "geometry": { "type": "Point", "coordinates": [ 131.853364260356017, 33.073819427777991 ] } },
{ "type": "Feature", "properties": { "P29_001": "44207", "P29_002": "C144210000471", "P29_003": "16002", "P29_004": "津久見市立日代中学校", "P29_005": "大分県津久見市網代1538-7", "P29_006": "3", "P29_007": "1", "P29_008": "00", "P29_009": null }, "geometry": { "type": "Point", "coordinates": [ 131.918110995585437, 33.068784002335903 ] } },
{ "type": "Feature", "properties": { "P29_001": "44207", "P29_002": "C144210000480", "P29_003": "16002", "P29_004": "津久見市立四浦東中学校", "P29_005": "大分県津久見市大字四浦5893-2", "P29_006": "3", "P29_007": "1", "P29_008": "00", "P29_009": null }, "geometry": { "type": "Point", "coordinates": [ 131.989229116582777, 33.08369367453178 ] } },
{ "type": "Feature", "properties": { "P29_001": "44207", "P29_002": "C144210000499", "P29_003": "16002", "P29_004": "津久見市立保戸島中学校", "P29_005": "大分県津久見市保戸島21-36", "P29_006": "3", "P29_007": "1", "P29_008": "00", "P29_009": null }, "geometry": { "type": "Point", "coordinates": [ 132.006869191515136, 33.100707440816976 ] } },
{ "type": "Feature", "properties": { "P29_001": "44207", "P29_002": "C144210000505", "P29_003": "16002", "P29_004": "津久見市立無垢島中学校", "P29_005": "大分県津久見市大字長目2648-2", "P29_006": "3", "P29_007": "1", "P29_008": "00", "P29_009": null }, "geometry": { "type": "Point", "coordinates": [ 131.979628002240446, 33.160529998644968 ] } },
{ "type": "Feature", "properties": { "P29_001": "44208", "P29_002": "C144210000514", "P29_003": "16002", "P29_004": "竹田市立竹田中学校", "P29_005": "大分県竹田市大字会々2423-1", "P29_006": "3", "P29_007": "1", "P29_008": "00", "P29_009": null }, "geometry": { "type": "Point", "coordinates": [ 131.379720535190842, 32.972929184210216 ] } },
{ "type": "Feature", "properties": { "P29_001": "44209", "P29_002": "C144210000523", "P29_003": "16002", "P29_004": "豊後高田市立高田中学校", "P29_005": "大分県豊後高田市玉津473", "P29_006": "3", "P29_007": "1", "P29_008": "00", "P29_009": null }, "geometry": { "type": "Point", "coordinates": [ 131.446447021768194, 33.562320645536147 ] } },
{ "type": "Feature", "properties": { "P29_001": "44209", "P29_002": "C144210000532", "P29_003": "16002", "P29_004": "豊後高田市立河内中学校", "P29_005": "大分県豊後高田市佐野4993", "P29_006": "3", "P29_007": "1", "P29_008": "00", "P29_009": null }, "geometry": { "type": "Point", "coordinates": [ 131.465194669624793, 33.536598081324819 ] } },
{ "type": "Feature", "properties": { "P29_001": "44209", "P29_002": "C144210000541", "P29_003": "16002", "P29_004": "豊後高田市立都甲中学校", "P29_005": "大分県豊後高田市松行363", "P29_006": "3", "P29_007": "1", "P29_008": "00", "P29_009": null }, "geometry": { "type": "Point", "coordinates": [ 131.521319123516065, 33.565669132069146 ] } },
{ "type": "Feature", "properties": { "P29_001": "44209", "P29_002": "C144210000550", "P29_003": "16002", "P29_004": "豊後高田市立田染中学校", "P29_005": "大分県豊後高田市田染池部1742", "P29_006": "3", "P29_007": "1", "P29_008": "00", "P29_009": null }, "geometry": { "type": "Point", "coordinates": [ 131.519756075930161, 33.51576119702468 ] } },
{ "type": "Feature", "properties": { "P29_001": "44210", "P29_002": "C144210000569", "P29_003": "16002", "P29_004": "杵築市立宗近中学校", "P29_005": "大分県杵築市大字南杵築2063", "P29_006": "3", "P29_007": "1", "P29_008": "00", "P29_009": null }, "geometry": { "type": "Point", "coordinates": [ 131.607052827100262, 33.416395099292366 ] } },
{ "type": "Feature", "properties": { "P29_001": "44210", "P29_002": "C144210000578", "P29_003": "16002", "P29_004": "杵築市立杵築中学校", "P29_005": "大分県杵築市杵築1", "P29_006": "3", "P29_007": "1", "P29_008": "00", "P29_009": null }, "geometry": { "type": "Point", "coordinates": [ 131.626352418193704, 33.41759169835052 ] } },
{ "type": "Feature", "properties": { "P29_001": "44211", "P29_002": "C144210000587", "P29_003": "16002", "P29_004": "宇佐市立北部中学校", "P29_005": "大分県宇佐市下時枝369-1", "P29_006": "3", "P29_007": "1", "P29_008": "00", "P29_009": null }, "geometry": { "type": "Point", "coordinates": [ 131.307789120724266, 33.559945675311077 ] } },
{ "type": "Feature", "properties": { "P29_001": "44211", "P29_002": "C144210000596", "P29_003": "16002", "P29_004": "宇佐市立西部中学校", "P29_005": "大分県宇佐市大字四日市3315", "P29_006": "3", "P29_007": "1", "P29_008": "00", "P29_009": null }, "geometry": { "type": "Point", "coordinates": [ 131.319344749107216, 33.528971763274861 ] } },
{ "type": "Feature", "properties": { "P29_001": "44211", "P29_002": "C144210000603", "P29_003": "16002", "P29_004": "宇佐市立長洲中学校", "P29_005": "大分県宇佐市長洲1527", "P29_006": "3", "P29_007": "1", "P29_008": "00", "P29_009": null }, "geometry": { "type": "Point", "coordinates": [ 131.380689239574963, 33.567113793499807 ] } },
{ "type": "Feature", "properties": { "P29_001": "44211", "P29_002": "C144210000612", "P29_003": "16002", "P29_004": "宇佐市立宇佐中学校", "P29_005": "大分県宇佐市大字橋津434", "P29_006": "3", "P29_007": "1", "P29_008": "00", "P29_009": null }, "geometry": { "type": "Point", "coordinates": [ 131.395484838857413, 33.532896383437937 ] } },
{ "type": "Feature", "properties": { "P29_001": "44211", "P29_002": "C144210000621", "P29_003": "16002", "P29_004": "宇佐市立駅川中学校", "P29_005": "大分県宇佐市大字閤153", "P29_006": "3", "P29_007": "1", "P29_008": "00", "P29_009": null }, "geometry": { "type": "Point", "coordinates": [ 131.338678254229052, 33.524421410175023 ] } },
{ "type": "Feature", "properties": { "P29_001": "44209", "P29_002": "C144210000630", "P29_003": "16002", "P29_004": "豊後高田市立真玉中学校", "P29_005": "大分県豊後高田市中真玉117", "P29_006": "3", "P29_007": "1", "P29_008": "00", "P29_009": null }, "geometry": { "type": "Point", "coordinates": [ 131.476940599301656, 33.616765645564634 ] } },
{ "type": "Feature", "properties": { "P29_001": "44209", "P29_002": "C144210000649", "P29_003": "16002", "P29_004": "豊後高田市立香々地中学校", "P29_005": "大分県豊後高田市香々地3400", "P29_006": "3", "P29_007": "1", "P29_008": "00", "P29_009": null }, "geometry": { "type": "Point", "coordinates": [ 131.526614017232419, 33.66459533329099 ] } },
{ "type": "Feature", "properties": { "P29_001": "44214", "P29_002": "C144210000658", "P29_003": "16002", "P29_004": "国東市立国見中学校", "P29_005": "大分県国東市国見町伊美2830", "P29_006": "3", "P29_007": "1", "P29_008": "00", "P29_009": null }, "geometry": { "type": "Point", "coordinates": [ 131.596221769530302, 33.679758297071665 ] } },
{ "type": "Feature", "properties": { "P29_001": "44322", "P29_002": "C144210000667", "P29_003": "16002", "P29_004": "姫島村立姫島中学校", "P29_005": "大分県東国東郡姫島村2108-4", "P29_006": "3", "P29_007": "1", "P29_008": "00", "P29_009": null }, "geometry": { "type": "Point", "coordinates": [ 131.651258032318452, 33.725286329304765 ] } },
{ "type": "Feature", "properties": { "P29_001": "44214", "P29_002": "C144210000676", "P29_003": "16002", "P29_004": "国東市立安岐中学校", "P29_005": "大分県国東市安岐町中園408", "P29_006": "3", "P29_007": "1", "P29_008": "00", "P29_009": null }, "geometry": { "type": "Point", "coordinates": [ 131.694644952884886, 33.465083227214869 ] } },
{ "type": "Feature", "properties": { "P29_001": "44341", "P29_002": "C144210000685", "P29_003": "16002", "P29_004": "日出町立日出中学校", "P29_005": "大分県速見郡日出町2627", "P29_006": "3", "P29_007": "1", "P29_008": "00", "P29_009": null }, "geometry": { "type": "Point", "coordinates": [ 131.532558808131455, 33.367507017135246 ] } },
{ "type": "Feature", "properties": { "P29_001": "44341", "P29_002": "C144210000694", "P29_003": "16002", "P29_004": "日出町立大神中学校", "P29_005": "大分県速見郡日出町大字大神3120", "P29_006": "3", "P29_007": "1", "P29_008": "00", "P29_009": null }, "geometry": { "type": "Point", "coordinates": [ 131.576357002644727, 33.371584999349835 ] } },
{ "type": "Feature", "properties": { "P29_001": "44201", "P29_002": "C144210000701", "P29_003": "16002", "P29_004": "大分市立野津原中学校", "P29_005": "大分県大分市大字野津原2978-13", "P29_006": "3", "P29_007": "1", "P29_008": "00", "P29_009": null }, "geometry": { "type": "Point", "coordinates": [ 131.522480056247019, 33.154834817096393 ] } },
{ "type": "Feature", "properties": { "P29_001": "44213", "P29_002": "C144210000710", "P29_003": "16002", "P29_004": "由布市立挾間中学校", "P29_005": "大分県由布市挾間町向原440", "P29_006": "3", "P29_007": "1", "P29_008": "00", "P29_009": null }, "geometry": { "type": "Point", "coordinates": [ 131.510139027478544, 33.200412409383802 ] } },
{ "type": "Feature", "properties": { "P29_001": "44213", "P29_002": "C144210000729", "P29_003": "16002", "P29_004": "由布市立庄内中学校", "P29_005": "大分県由布市庄内町柿原49", "P29_006": "3", "P29_007": "1", "P29_008": "00", "P29_009": null }, "geometry": { "type": "Point", "coordinates": [ 131.436026059398472, 33.185688543180326 ] } },
{ "type": "Feature", "properties": { "P29_001": "44213", "P29_002": "C144210000738", "P29_003": "16002", "P29_004": "由布市立湯布院中学校", "P29_005": "大分県由布市湯布院町川北1179", "P29_006": "3", "P29_007": "1", "P29_008": "00", "P29_009": null }, "geometry": { "type": "Point", "coordinates": [ 131.345884762139292, 33.256408046879962 ] } },
{ "type": "Feature", "properties": { "P29_001": "44201", "P29_002": "C144210000747", "P29_003": "16002", "P29_004": "大分市立神崎中学校", "P29_005": "大分県大分市大字本神崎480", "P29_006": "3", "P29_007": "1", "P29_008": "00", "P29_009": null }, "geometry": { "type": "Point", "coordinates": [ 131.796638589787392, 33.237149122930376 ] } },
{ "type": "Feature", "properties": { "P29_001": "44201", "P29_002": "C144210000756", "P29_003": "16002", "P29_004": "大分市立佐賀関中学校", "P29_005": "大分県大分市大字佐賀関2-115-2", "P29_006": "3", "P29_007": "1", "P29_008": "00", "P29_009": null }, "geometry": { "type": "Point", "coordinates": [ 131.863415365290962, 33.249180147844029 ] } },
{ "type": "Feature", "properties": { "P29_001": "44205", "P29_002": "C144210000765", "P29_003": "16002", "P29_004": "佐伯市立東雲中学校", "P29_005": "大分県佐伯市上浦大字浅海井浦2", "P29_006": "3", "P29_007": "1", "P29_008": "00", "P29_009": null }, "geometry": { "type": "Point", "coordinates": [ 131.926269580528924, 33.045123055350096 ] } },
{ "type": "Feature", "properties": { "P29_001": "44205", "P29_002": "C144210000774", "P29_003": "16002", "P29_004": "佐伯市立昭和中学校", "P29_005": "大分県佐伯市弥生大字井崎781", "P29_006": "3", "P29_007": "1", "P29_008": "00", "P29_009": null }, "geometry": { "type": "Point", "coordinates": [ 131.842298209890629, 32.969294820507614 ] } },
{ "type": "Feature", "properties": { "P29_001": "44205", "P29_002": "C144210000783", "P29_003": "16002", "P29_004": "佐伯市立直川中学校", "P29_005": "大分県佐伯市直川大字上直見501", "P29_006": "3", "P29_007": "1", "P29_008": "00", "P29_009": null }, "geometry": { "type": "Point", "coordinates": [ 131.776172256937031, 32.897452736568439 ] } },
{ "type": "Feature", "properties": { "P29_001": "44205", "P29_002": "C144210000792", "P29_003": "16002", "P29_004": "佐伯市立大島中学校", "P29_005": "大分県佐伯市鶴見大字大島717-4", "P29_006": "3", "P29_007": "9", "P29_008": "00", "P29_009": null }, "geometry": { "type": "Point", "coordinates": [ 132.07176121483522, 32.966533621566505 ] } },
{ "type": "Feature", "properties": { "P29_001": "44205", "P29_002": "C144210000809", "P29_003": "16002", "P29_004": "佐伯市立深島中学校", "P29_005": "大分県佐伯市蒲江大字蒲江浦3276-3", "P29_006": "3", "P29_007": "9", "P29_008": "00", "P29_009": null }, "geometry": { "type": "Point", "coordinates": [ 131.926847998507043, 32.726193997427615 ] } },
{ "type": "Feature", "properties": { "P29_001": "44206", "P29_002": "C144210000818", "P29_003": "16002", "P29_004": "臼杵市立野津中学校", "P29_005": "大分県臼杵市野津町大字野津市666", "P29_006": "3", "P29_007": "1", "P29_008": "00", "P29_009": null }, "geometry": { "type": "Point", "coordinates": [ 131.687396162347824, 33.037692671947902 ] } },
{ "type": "Feature", "properties": { "P29_001": "44212", "P29_002": "C144210000827", "P29_003": "16002", "P29_004": "豊後大野市立三重中学校", "P29_005": "大分県豊後大野市三重町内田1050", "P29_006": "3", "P29_007": "1", "P29_008": "00", "P29_009": null }, "geometry": { "type": "Point", "coordinates": [ 131.590001206119979, 32.977766116598836 ] } },
{ "type": "Feature", "properties": { "P29_001": "44212", "P29_002": "C144210000836", "P29_003": "16002", "P29_004": "豊後大野市立清川中学校", "P29_005": "大分県豊後大野市清川町砂田1795", "P29_006": "3", "P29_007": "1", "P29_008": "00", "P29_009": null }, "geometry": { "type": "Point", "coordinates": [ 131.514827276996158, 32.968145073016508 ] } },
{ "type": "Feature", "properties": { "P29_001": "44212", "P29_002": "C144210000845", "P29_003": "16002", "P29_004": "豊後大野市立朝地中学校", "P29_005": "大分県豊後大野市朝地町朝地2030", "P29_006": "3", "P29_007": "1", "P29_008": "00", "P29_009": null }, "geometry": { "type": "Point", "coordinates": [ 131.430073512742098, 33.012822629795501 ] } },
{ "type": "Feature", "properties": { "P29_001": "44212", "P29_002": "C144210000854", "P29_003": "16002", "P29_004": "豊後大野市立大野中学校", "P29_005": "大分県豊後大野市大野町田中2135", "P29_006": "3", "P29_007": "1", "P29_008": "00", "P29_009": null }, "geometry": { "type": "Point", "coordinates": [ 131.500915343485985, 33.042744806248528 ] } },
{ "type": "Feature", "properties": { "P29_001": "44212", "P29_002": "C144210000863", "P29_003": "16002", "P29_004": "豊後大野市立千歳中学校", "P29_005": "大分県豊後大野市千歳町新殿809-1", "P29_006": "3", "P29_007": "1", "P29_008": "00", "P29_009": null }, "geometry": { "type": "Point", "coordinates": [ 131.597832950932229, 33.040748549892271 ] } },
{ "type": "Feature", "properties": { "P29_001": "44212", "P29_002": "C144210000872", "P29_003": "16002", "P29_004": "豊後大野市立犬飼中学校", "P29_005": "大分県豊後大野市犬飼町久原900", "P29_006": "3", "P29_007": "1", "P29_008": "00", "P29_009": null }, "geometry": { "type": "Point", "coordinates": [ 131.640033937833692, 33.072926202813115 ] } },
{ "type": "Feature", "properties": { "P29_001": "44208", "P29_002": "C144210000881", "P29_003": "16002", "P29_004": "竹田市立緑ヶ丘中学校", "P29_005": "大分県竹田市馬場851-1", "P29_006": "3", "P29_007": "1", "P29_008": "00", "P29_009": null }, "geometry": { "type": "Point", "coordinates": [ 131.294433938506501, 32.92965356375155 ] } },
{ "type": "Feature", "properties": { "P29_001": "44208", "P29_002": "C144210000916", "P29_003": "16002", "P29_004": "竹田市立直入中学校", "P29_005": "大分県竹田市直入町大字長湯8518-1", "P29_006": "3", "P29_007": "1", "P29_008": "00", "P29_009": null }, "geometry": { "type": "Point", "coordinates": [ 131.391514486819489, 33.083572960086528 ] } },
{ "type": "Feature", "properties": { "P29_001": "44204", "P29_002": "C144210000925", "P29_003": "16002", "P29_004": "日田市立前津江中学校", "P29_005": "大分県日田市前津江町大野2214", "P29_006": "3", "P29_007": "1", "P29_008": "00", "P29_009": null }, "geometry": { "type": "Point", "coordinates": [ 130.916662152178446, 33.211351452678763 ] } },
{ "type": "Feature", "properties": { "P29_001": "44204", "P29_002": "C144210000934", "P29_003": "16002", "P29_004": "日田市立大山中学校", "P29_005": "大分県日田市大山町西大山3615-1", "P29_006": "3", "P29_007": "1", "P29_008": "00", "P29_009": null }, "geometry": { "type": "Point", "coordinates": [ 130.969453487170512, 33.257283094211047 ] } },
{ "type": "Feature", "properties": { "P29_001": "44204", "P29_002": "C144210000943", "P29_003": "16002", "P29_004": "日田市立東渓中学校", "P29_005": "大分県日田市天瀬町馬原2276", "P29_006": "3", "P29_007": "1", "P29_008": "00", "P29_009": null }, "geometry": { "type": "Point", "coordinates": [ 131.005605948529279, 33.287306088862302 ] } },
{ "type": "Feature", "properties": { "P29_001": "44204", "P29_002": "C144210000952", "P29_003": "16002", "P29_004": "日田市立五馬中学校", "P29_005": "大分県日田市天瀬町塚田169", "P29_006": "3", "P29_007": "1", "P29_008": "00", "P29_009": null }, "geometry": { "type": "Point", "coordinates": [ 131.027432665553988, 33.219367082954463 ] } },
{ "type": "Feature", "properties": { "P29_001": "44203", "P29_002": "C144210000961", "P29_003": "16002", "P29_004": "中津市立三光中学校", "P29_005": "大分県中津市三光成恒592-1", "P29_006": "3", "P29_007": "1", "P29_008": "00", "P29_009": null }, "geometry": { "type": "Point", "coordinates": [ 131.20695489767877, 33.537962506062442 ] } },
{ "type": "Feature", "properties": { "P29_001": "44203", "P29_002": "C144210000970", "P29_003": "16002", "P29_004": "中津市立本耶馬渓中学校", "P29_005": "大分県中津市本耶馬渓町跡田212", "P29_006": "3", "P29_007": "1", "P29_008": "00", "P29_009": null }, "geometry": { "type": "Point", "coordinates": [ 131.173904734857501, 33.48858772467716 ] } },
{ "type": "Feature", "properties": { "P29_001": "44203", "P29_002": "C144210000989", "P29_003": "16002", "P29_004": "中津市立耶馬溪中学校", "P29_005": "大分県中津市耶馬溪町大字柿坂684", "P29_006": "3", "P29_007": "1", "P29_008": "00", "P29_009": null }, "geometry": { "type": "Point", "coordinates": [ 131.119455033916722, 33.447883083195599 ] } },
{ "type": "Feature", "properties": { "P29_001": "44203", "P29_002": "C144210000998", "P29_003": "16002", "P29_004": "中津市立山国中学校", "P29_005": "大分県中津市山国町守実281", "P29_006": "3", "P29_007": "1", "P29_008": "00", "P29_009": null }, "geometry": { "type": "Point", "coordinates": [ 131.039136736155172, 33.404087430377757 ] } },
{ "type": "Feature", "properties": { "P29_001": "44211", "P29_002": "C144210001005", "P29_003": "16002", "P29_004": "宇佐市立院内中学校", "P29_005": "大分県宇佐市院内町山城54", "P29_006": "3", "P29_007": "1", "P29_008": "00", "P29_009": null }, "geometry": { "type": "Point", "coordinates": [ 131.316020249524144, 33.419794352848847 ] } },
{ "type": "Feature", "properties": { "P29_001": "44201", "P29_002": "C144210001014", "P29_003": "16002", "P29_004": "大分市立稙田東中学校", "P29_005": "大分県大分市大字寒田1369-1", "P29_006": "3", "P29_007": "1", "P29_008": "00", "P29_009": null }, "geometry": { "type": "Point", "coordinates": [ 131.611229779168241, 33.180141402436284 ] } },
{ "type": "Feature", "properties": { "P29_001": "44201", "P29_002": "C144210001023", "P29_003": "16002", "P29_004": "大分市立城南中学校", "P29_005": "大分県大分市荏隈754-19", "P29_006": "3", "P29_007": "1", "P29_008": "00", "P29_009": null }, "geometry": { "type": "Point", "coordinates": [ 131.578813902641969, 33.213077076316026 ] } },
{ "type": "Feature", "properties": { "P29_001": "44201", "P29_002": "C144210001032", "P29_003": "16002", "P29_004": "大分市立稙田西中学校", "P29_005": "大分県大分市大字田原378", "P29_006": "3", "P29_007": "1", "P29_008": "00", "P29_009": null }, "geometry": { "type": "Point", "coordinates": [ 131.560703340809255, 33.190427036219639 ] } },
{ "type": "Feature", "properties": { "P29_001": "44204", "P29_002": "C144210001041", "P29_003": "16002", "P29_004": "日田市立津江中学校", "P29_005": "大分県日田市中津江村栃野4341", "P29_006": "3", "P29_007": "1", "P29_008": "00", "P29_009": null }, "geometry": { "type": "Point", "coordinates": [ 130.971410208462203, 33.139794059687006 ] } },
{ "type": "Feature", "properties": { "P29_001": "44201", "P29_002": "C144210001050", "P29_003": "16002", "P29_004": "大分市立原川中学校", "P29_005": "大分県大分市寺崎町1-10-1", "P29_006": "3", "P29_007": "1", "P29_008": "00", "P29_009": null }, "geometry": { "type": "Point", "coordinates": [ 131.664573048958687, 33.247183114875916 ] } },
{ "type": "Feature", "properties": { "P29_001": "44201", "P29_002": "C144210001069", "P29_003": "16002", "P29_004": "大分市立稙田南中学校", "P29_005": "大分県大分市田尻123-1", "P29_006": "3", "P29_007": "1", "P29_008": "00", "P29_009": null }, "geometry": { "type": "Point", "coordinates": [ 131.595522428252536, 33.189802974221813 ] } },
{ "type": "Feature", "properties": { "P29_001": "44202", "P29_002": "C144210001078", "P29_003": "16002", "P29_004": "別府市立鶴見台中学校", "P29_005": "大分県別府市大字鶴見3682-3", "P29_006": "3", "P29_007": "1", "P29_008": "00", "P29_009": null }, "geometry": { "type": "Point", "coordinates": [ 131.489270692608216, 33.299593037507272 ] } },
{ "type": "Feature", "properties": { "P29_001": "44201", "P29_002": "C144210001087", "P29_003": "16002", "P29_004": "大分市立大分西中学校", "P29_005": "大分県大分市高崎2-20-1", "P29_006": "3", "P29_007": "1", "P29_008": "00", "P29_009": null }, "geometry": { "type": "Point", "coordinates": [ 131.578489042522563, 33.235250899373128 ] } },
{ "type": "Feature", "properties": { "P29_001": "44205", "P29_002": "C144210001096", "P29_003": "16002", "P29_004": "佐伯市立佐伯南中学校", "P29_005": "大分県佐伯市大字長谷9914-1", "P29_006": "3", "P29_007": "1", "P29_008": "00", "P29_009": null }, "geometry": { "type": "Point", "coordinates": [ 131.887229234850508, 32.936753445377292 ] } },
{ "type": "Feature", "properties": { "P29_001": "44205", "P29_002": "C144210001103", "P29_003": "16002", "P29_004": "佐伯市立鶴見中学校", "P29_005": "大分県佐伯市鶴見大字沖松浦448", "P29_006": "3", "P29_007": "1", "P29_008": "00", "P29_009": null }, "geometry": { "type": "Point", "coordinates": [ 131.965420968314589, 32.941873494122667 ] } },
{ "type": "Feature", "properties": { "P29_001": "44201", "P29_002": "C144210001112", "P29_003": "16002", "P29_004": "大分市立東陽中学校", "P29_005": "大分県大分市下徳丸197-1", "P29_006": "3", "P29_007": "1", "P29_008": "00", "P29_009": null }, "geometry": { "type": "Point", "coordinates": [ 131.692905042498239, 33.209268656732 ] } },
{ "type": "Feature", "properties": { "P29_001": "44205", "P29_002": "C144210001121", "P29_003": "16002", "P29_004": "佐伯市立米水津中学校", "P29_005": "大分県佐伯市水津大字浦代浦1707-3", "P29_006": "3", "P29_007": "1", "P29_008": "00", "P29_009": null }, "geometry": { "type": "Point", "coordinates": [ 131.980499167647991, 32.916361403995921 ] } },
{ "type": "Feature", "properties": { "P29_001": "44212", "P29_002": "C144210001130", "P29_003": "16002", "P29_004": "豊後大野市立緒方中学校", "P29_005": "大分県豊後大野市緒方町下自在1030", "P29_006": "3", "P29_007": "1", "P29_008": "00", "P29_009": null }, "geometry": { "type": "Point", "coordinates": [ 131.46298299156274, 32.978413486493835 ] } },
{ "type": "Feature", "properties": { "P29_001": "44205", "P29_002": "C144210001149", "P29_003": "16002", "P29_004": "佐伯市立本匠中学校", "P29_005": "大分県佐伯市本匠大字笠掛1568", "P29_006": "3", "P29_007": "1", "P29_008": "00", "P29_009": null }, "geometry": { "type": "Point", "coordinates": [ 131.801526500681518, 32.954643303260767 ] } },
{ "type": "Feature", "properties": { "P29_001": "44205", "P29_002": "C144210001158", "P29_003": "16002", "P29_004": "佐伯市立蒲江翔南中学校", "P29_005": "大分県佐伯市蒲江大字蒲江浦943-3", "P29_006": "3", "P29_007": "1", "P29_008": "00", "P29_009": null }, "geometry": { "type": "Point", "coordinates": [ 131.943218980915532, 32.80319526908373 ] } },
{ "type": "Feature", "properties": { "P29_001": "44205", "P29_002": "C144210001167", "P29_003": "16002", "P29_004": "佐伯市立宇目緑豊中学校", "P29_005": "大分県佐伯市宇目大字千束1560-1", "P29_006": "3", "P29_007": "1", "P29_008": "00", "P29_009": null }, "geometry": { "type": "Point", "coordinates": [ 131.670934684801182, 32.858273414054885 ] } },
{ "type": "Feature", "properties": { "P29_001": "44208", "P29_002": "C144210001176", "P29_003": "16002", "P29_004": "竹田市立竹田南部中学校", "P29_005": "大分県竹田市君ケ園1680", "P29_006": "3", "P29_007": "1", "P29_008": "00", "P29_009": null }, "geometry": { "type": "Point", "coordinates": [ 131.360289972296215, 32.948586385983347 ] } },
{ "type": "Feature", "properties": { "P29_001": "44201", "P29_002": "C144210001185", "P29_003": "16002", "P29_004": "大分県立大分豊府中学校", "P29_005": "大分県大分市花園3-3-1", "P29_006": "2", "P29_007": "1", "P29_008": "00", "P29_009": null }, "geometry": { "type": "Point", "coordinates": [ 131.605269517839616, 33.2070158706576 ] } },
{ "type": "Feature", "properties": { "P29_001": "44211", "P29_002": "C144210001194", "P29_003": "16002", "P29_004": "宇佐市立安心院中学校", "P29_005": "大分県宇佐市安心院町下毛2222-1", "P29_006": "3", "P29_007": "1", "P29_008": "00", "P29_009": null }, "geometry": { "type": "Point", "coordinates": [ 131.356691987237127, 33.435737569677535 ] } },
{ "type": "Feature", "properties": { "P29_001": "44210", "P29_002": "C144210001201", "P29_003": "16002", "P29_004": "杵築市立山香中学校", "P29_005": "大分県杵築市山香町野原700-5", "P29_006": "3", "P29_007": "1", "P29_008": "00", "P29_009": null }, "geometry": { "type": "Point", "coordinates": [ 131.497012570302417, 33.443056714013373 ] } },
{ "type": "Feature", "properties": { "P29_001": "44214", "P29_002": "C144210001210", "P29_003": "16002", "P29_004": "国東市立国東中学校", "P29_005": "大分県国東市国東町田深1422", "P29_006": "3", "P29_007": "1", "P29_008": "00", "P29_009": null }, "geometry": { "type": "Point", "coordinates": [ 131.729276663704752, 33.575794845902983 ] } },
{ "type": "Feature", "properties": { "P29_001": "44201", "P29_002": "C144210001229", "P29_003": "16002", "P29_004": "大分市立竹中中学校二豊学園分校", "P29_005": "大分県大分市大字端登5", "P29_006": "3", "P29_007": "1", "P29_008": "00", "P29_009": null }, "geometry": { "type": "Point", "coordinates": [ 131.646962825541294, 33.126472895904449 ] } },
{ "type": "Feature", "properties": { "P29_001": "44461", "P29_002": "C144210001238", "P29_003": "16002", "P29_004": "九重町立ここのえ緑陽中学校", "P29_005": "大分県玖珠郡九重町大字後野上17-3", "P29_006": "3", "P29_007": "1", "P29_008": "00", "P29_009": null }, "geometry": { "type": "Point", "coordinates": [ 131.191292213364818, 33.22789204840489 ] } },
{ "type": "Feature", "properties": { "P29_001": "44201", "P29_002": "C144210001247", "P29_003": "16002", "P29_004": "大分市立稙田東中学校はばたき分校", "P29_005": "大分県大分市芳河原台11-27", "P29_006": "3", "P29_007": "1", "P29_008": "00", "P29_009": null }, "geometry": { "type": "Point", "coordinates": [ 131.615851347259081, 33.19469231461801 ] } },
{ "type": "Feature", "properties": { "P29_001": "44462", "P29_002": "C144210001256", "P29_003": "16002", "P29_004": "玖珠町立くす星翔中学校", "P29_005": "大分県玖珠郡玖珠町大字帆足505", "P29_006": "3", "P29_007": "1", "P29_008": "00", "P29_009": null }, "geometry": { "type": "Point", "coordinates": [ 131.159084806994542, 33.28376233128607 ] } },
{ "type": "Feature", "properties": { "P29_001": "44202", "P29_002": "C144210001265", "P29_003": "16002", "P29_004": "別府市立別府西中学校", "P29_005": "大分県別府市中島町7-49", "P29_006": "3", "P29_007": "1", "P29_008": "00", "P29_009": null }, "geometry": { "type": "Point", "coordinates": [ 131.49299588981944, 33.273896100326269 ] } },
{ "type": "Feature", "properties": { "P29_001": "44201", "P29_002": "C144310000013", "P29_003": "16002", "P29_004": "向陽中学校", "P29_005": "大分県大分市千代町3-3-24", "P29_006": "4", "P29_007": "1", "P29_008": "00", "P29_009": null }, "geometry": { "type": "Point", "coordinates": [ 131.604711813822178, 33.244832928937427 ] } },
{ "type": "Feature", "properties": { "P29_001": "44201", "P29_002": "C144310000022", "P29_003": "16002", "P29_004": "岩田中学校", "P29_005": "大分県大分市岩田町1-1-1", "P29_006": "4", "P29_007": "1", "P29_008": "00", "P29_009": null }, "geometry": { "type": "Point", "coordinates": [ 131.626301890258787, 33.237334904628845 ] } },
{ "type": "Feature", "properties": { "P29_001": "44202", "P29_002": "C144310000031", "P29_003": "16002", "P29_004": "明豊中学校", "P29_005": "大分県別府市野口原3088", "P29_006": "4", "P29_007": "1", "P29_008": "00", "P29_009": null }, "geometry": { "type": "Point", "coordinates": [ 131.484479772875034, 33.284017253326475 ] } },
{ "type": "Feature", "properties": { "P29_001": "44201", "P29_002": "C144310000040", "P29_003": "16002", "P29_004": "大分中学校", "P29_005": "大分県大分市明野高尾1-6-1", "P29_006": "4", "P29_007": "1", "P29_008": "00", "P29_009": null }, "geometry": { "type": "Point", "coordinates": [ 131.651654417683147, 33.212272034760126 ] } }
]
}
