{
"type": "FeatureCollection",
"name": "geo_44_短期入所療養介護（介護老人保健施設）",
"crs": { "type": "name", "properties": { "name": "urn:ogc:def:crs:OGC:1.3:CRS84" } },
"features": [
{ "type": "Feature", "properties": { "内容": "介護老人保健施設　サンテラスながとみ【短期入所療養介護（介護老人保健施設）】大分県大分市西大道２丁目2-1", "url": "https://www.kaigokensaku.mhlw.go.jp/44/index.php?action_kouhyou_detail_004_kani=true&JigyosyoCd=4450180122-00&ServiceCd=220&Type=search", "url2": "http://www.nagatomi-hp.com" }, "geometry": { "type": "Point", "coordinates": [ -73.983208937824784, 40.746355235625522 ] } },
{ "type": "Feature", "properties": { "内容": "介護老人保健施設　親和園【短期入所療養介護（介護老人保健施設）】大分県大分市中判田1428番地の1", "url": "https://www.kaigokensaku.mhlw.go.jp/44/index.php?action_kouhyou_detail_004_kani=true&JigyosyoCd=4450180007-00&ServiceCd=220&Type=search", "url2": "http://shinwakai-hosp.com/" }, "geometry": { "type": "Point", "coordinates": [ 131.632027200000039, 33.1673714 ] } },
{ "type": "Feature", "properties": { "内容": "リバーサイド百々園【短期入所療養介護（介護老人保健施設）】大分県大分市大字津守字山崎2742-1", "url": "https://www.kaigokensaku.mhlw.go.jp/44/index.php?action_kouhyou_detail_004_kani=true&JigyosyoCd=4450180072-00&ServiceCd=220&Type=search", "url2": "http://momoen.jp/" }, "geometry": { "type": "Point", "coordinates": [ 131.615833, 33.2102056 ] } },
{ "type": "Feature", "properties": { "内容": "介護老人保健施設コスモス苑【短期入所療養介護（介護老人保健施設）】大分県大分市東鶴崎2-3-22", "url": "https://www.kaigokensaku.mhlw.go.jp/44/index.php?action_kouhyou_detail_004_kani=true&JigyosyoCd=4450180098-00&ServiceCd=220&Type=search", "url2": "www.oasis-hp.jp" }, "geometry": { "type": "Point", "coordinates": [ 131.696106399999962, 33.2383334 ] } },
{ "type": "Feature", "properties": { "内容": "介護老人保健施設　小野鶴養生院【短期入所療養介護（介護老人保健施設）】大分県大分市大字小野鶴１１５７番地の１", "url": "https://www.kaigokensaku.mhlw.go.jp/44/index.php?action_kouhyou_detail_004_kani=true&JigyosyoCd=4450180023-00&ServiceCd=220&Type=search", "url2": "https://soujyu-oita.com/" }, "geometry": { "type": "Point", "coordinates": [ 131.568115199999966, 33.1988818 ] } },
{ "type": "Feature", "properties": { "内容": "老人保健施設メディトピアこが【短期入所療養介護（介護老人保健施設）】大分県大分市南鶴崎2丁目6番22号", "url": "https://www.kaigokensaku.mhlw.go.jp/44/index.php?action_kouhyou_detail_004_kani=true&JigyosyoCd=4450180015-00&ServiceCd=220&Type=search", "url2": "http://www.kakuyukai.com/" }, "geometry": { "type": "Point", "coordinates": [ 131.690345799999932, 33.2390583 ] } },
{ "type": "Feature", "properties": { "内容": "介護老人保健施設やすらぎ苑【短期入所療養介護（介護老人保健施設）】大分県大分市大字松岡字道ノ下1946番地", "url": "https://www.kaigokensaku.mhlw.go.jp/44/index.php?action_kouhyou_detail_004_kani=true&JigyosyoCd=4470109960-00&ServiceCd=220&Type=search", "url2": "https://sekiaikai.jp/" }, "geometry": { "type": "Point", "coordinates": [ 131.671631899999966, 33.175463499999985 ] } },
{ "type": "Feature", "properties": { "内容": "介護老人保健施設たばる【短期入所療養介護（介護老人保健施設）】大分県大分市大字田原936番地の1", "url": "https://www.kaigokensaku.mhlw.go.jp/44/index.php?action_kouhyou_detail_004_kani=true&JigyosyoCd=4470110026-00&ServiceCd=220&Type=search", "url2": "https://tabaru-san-ai.com/rouken/" }, "geometry": { "type": "Point", "coordinates": [ 131.558861106745894, 33.184178877436871 ] } },
{ "type": "Feature", "properties": { "内容": "大分豊寿苑【短期入所療養介護（介護老人保健施設）】大分県大分市大字皆春1521番地の1", "url": "https://www.kaigokensaku.mhlw.go.jp/44/index.php?action_kouhyou_detail_004_kani=true&JigyosyoCd=4450180114-00&ServiceCd=220&Type=search", "url2": "https://keiwakai.oita.jp/hojuen/" }, "geometry": { "type": "Point", "coordinates": [ 131.6843437, 33.2359417 ] } },
{ "type": "Feature", "properties": { "内容": "介護老人保健施設わさだケアセンター【短期入所療養介護（介護老人保健施設）】大分県大分市大字市字大坪11番地の2", "url": "https://www.kaigokensaku.mhlw.go.jp/44/index.php?action_kouhyou_detail_004_kani=true&JigyosyoCd=4450180064-00&ServiceCd=220&Type=search", "url2": "https://wasada-care-center.com" }, "geometry": { "type": "Point", "coordinates": [ 131.575330638040612, 33.187767513458766 ] } },
{ "type": "Feature", "properties": { "内容": "老健　めいわ【短期入所療養介護（介護老人保健施設）】大分県大分市明野北１丁目２番１８号", "url": "https://www.kaigokensaku.mhlw.go.jp/44/index.php?action_kouhyou_detail_004_kani=true&JigyosyoCd=4470106487-00&ServiceCd=220&Type=search", "url2": "www.meiwa-hp.jp" }, "geometry": { "type": "Point", "coordinates": [ 131.655799300000012, 33.2258717 ] } },
{ "type": "Feature", "properties": { "内容": "医療法人　慈愛会　介護老人保健施設　やまなみ苑【短期入所療養介護（介護老人保健施設）】大分県別府市大字南立石274-2", "url": "https://www.kaigokensaku.mhlw.go.jp/44/index.php?action_kouhyou_detail_004_kani=true&JigyosyoCd=4450280021-00&ServiceCd=220&Type=search", "url2": "http://www.yamanamien.com/" }, "geometry": { "type": "Point", "coordinates": [ 131.4571082, 33.2905051 ] } },
{ "type": "Feature", "properties": { "内容": "介護老人保健施設　メディケア別府【短期入所療養介護（介護老人保健施設）】大分県別府市中島町14番6号", "url": "https://www.kaigokensaku.mhlw.go.jp/44/index.php?action_kouhyou_detail_004_kani=true&JigyosyoCd=4450280047-00&ServiceCd=220&Type=search", "url2": "http://www.hata.or.jp" }, "geometry": { "type": "Point", "coordinates": [ 131.492834218524223, 33.275105604212364 ] } },
{ "type": "Feature", "properties": { "内容": "大分県厚生連介護老人保健施設シェモア鶴見【短期入所療養介護（介護老人保健施設）】緑丘町１１番２７号大分県厚生連総合福祉センター", "url": "https://www.kaigokensaku.mhlw.go.jp/44/index.php?action_kouhyou_detail_004_kani=true&JigyosyoCd=4450280039-00&ServiceCd=220&Type=search", "url2": "http://www.ok-chezmoi.com" }, "geometry": { "type": "Point", "coordinates": [ 131.4893668, 33.298371099999983 ] } },
{ "type": "Feature", "properties": { "内容": "老人保健施設　創生園【短期入所療養介護（介護老人保健施設）】大分県中津市大字上宮永298番地1", "url": "https://www.kaigokensaku.mhlw.go.jp/44/index.php?action_kouhyou_detail_004_kani=true&JigyosyoCd=4450380003-00&ServiceCd=220&Type=search", "url2": null }, "geometry": { "type": "Point", "coordinates": [ 131.1848281, 33.5859471 ] } },
{ "type": "Feature", "properties": { "内容": "介護老人保健施設　三光園【短期入所療養介護（介護老人保健施設）】大分県中津市大字永添９１９番地", "url": "https://www.kaigokensaku.mhlw.go.jp/44/index.php?action_kouhyou_detail_004_kani=true&JigyosyoCd=4450380011-00&ServiceCd=220&Type=search", "url2": null }, "geometry": { "type": "Point", "coordinates": [ 131.210648399999968, 33.574716100000018 ] } },
{ "type": "Feature", "properties": { "内容": "介護老人保健施設さつき苑【短期入所療養介護（介護老人保健施設）】大分県中津市三光土田1243番地の4", "url": "https://www.kaigokensaku.mhlw.go.jp/44/index.php?action_kouhyou_detail_004_kani=true&JigyosyoCd=4470301260-00&ServiceCd=220&Type=search", "url2": null }, "geometry": { "type": "Point", "coordinates": [ 131.175476900000035, 33.5306778 ] } },
{ "type": "Feature", "properties": { "内容": "介護老人保健施設　なのみ【短期入所療養介護（介護老人保健施設）】大分県中津市宮夫１４番地１", "url": "https://www.kaigokensaku.mhlw.go.jp/44/index.php?action_kouhyou_detail_004_kani=true&JigyosyoCd=4450380029-00&ServiceCd=220&Type=search", "url2": "www.kawashimahp.jp" }, "geometry": { "type": "Point", "coordinates": [ 131.213544800000022, 33.5929809 ] } },
{ "type": "Feature", "properties": { "内容": "介護老人保健施設聖陵ストリーム【短期入所療養介護（介護老人保健施設）】大分県日田市中釣町４８５番地３", "url": "https://www.kaigokensaku.mhlw.go.jp/44/index.php?action_kouhyou_detail_004_kani=true&JigyosyoCd=4450480001-00&ServiceCd=220&Type=search", "url2": "https://seiryou-streem.jp" }, "geometry": { "type": "Point", "coordinates": [ 130.919806805557272, 33.315157107555123 ] } },
{ "type": "Feature", "properties": { "内容": "老人保健施設　六和会センテナリアン【短期入所療養介護（介護老人保健施設）】大分県日田市大山町東大山14-4", "url": "https://www.kaigokensaku.mhlw.go.jp/44/index.php?action_kouhyou_detail_004_kani=true&JigyosyoCd=4452980008-00&ServiceCd=220&Type=search", "url2": null }, "geometry": { "type": "Point", "coordinates": [ 130.9570655, 33.2925247 ] } },
{ "type": "Feature", "properties": { "内容": "介護老人保健施設　鶴見の太陽【短期入所療養介護（介護老人保健施設）】大分県佐伯市鶴見大字沖松浦51番地", "url": "https://www.kaigokensaku.mhlw.go.jp/44/index.php?action_kouhyou_detail_004_kani=true&JigyosyoCd=4450580040-00&ServiceCd=220&Type=search", "url2": "https://www.saikichuo.net/" }, "geometry": { "type": "Point", "coordinates": [ 131.962594599999989, 32.9416715 ] } },
{ "type": "Feature", "properties": { "内容": "介護老人保健施設　和の風【短期入所療養介護（介護老人保健施設）】大分県佐伯市大字2260-1", "url": "https://www.kaigokensaku.mhlw.go.jp/44/index.php?action_kouhyou_detail_004_kani=true&JigyosyoCd=4450580024-00&ServiceCd=220&Type=search", "url2": "http://www.nagato.or.jp/" }, "geometry": { "type": "Point", "coordinates": [ 131.905273699999952, 32.9607949 ] } },
{ "type": "Feature", "properties": { "内容": "介護老人保健施設　鶴望野【短期入所療養介護（介護老人保健施設）】大分県佐伯市鶴岡町1丁目11番59号", "url": "https://www.kaigokensaku.mhlw.go.jp/44/index.php?action_kouhyou_detail_004_kani=true&JigyosyoCd=4450580008-00&ServiceCd=220&Type=search", "url2": "http://www.nagato.or.jp" }, "geometry": { "type": "Point", "coordinates": [ 131.8817146, 32.9589333 ] } },
{ "type": "Feature", "properties": { "内容": "南海医療センター附属介護老人保健施設【短期入所療養介護（介護老人保健施設）】大分県佐伯市常盤西町12番6号", "url": "https://www.kaigokensaku.mhlw.go.jp/44/index.php?action_kouhyou_detail_004_kani=true&JigyosyoCd=4450580016-00&ServiceCd=220&Type=search", "url2": "http://nankai.jcho.go.jp" }, "geometry": { "type": "Point", "coordinates": [ 131.90093509999997, 32.9659331 ] } },
{ "type": "Feature", "properties": { "内容": "臼杵市医師会介護老人保健施設南山園【短期入所療養介護（介護老人保健施設）】大分県臼杵市大字海添250番地", "url": "https://www.kaigokensaku.mhlw.go.jp/44/index.php?action_kouhyou_detail_004_kani=true&JigyosyoCd=4450680030-00&ServiceCd=220&Type=search", "url2": "http://www.usukicosmos-med.or.jp" }, "geometry": { "type": "Point", "coordinates": [ 131.802397, 33.113235 ] } },
{ "type": "Feature", "properties": { "内容": "介護老人保健施設つくみかん　サテライトみなみ【短期入所療養介護（介護老人保健施設）】大分県津久見市大字四浦字久保泊2944番地", "url": "https://www.kaigokensaku.mhlw.go.jp/44/index.php?action_kouhyou_detail_004_kani=true&JigyosyoCd=4450780012-00&ServiceCd=220&Type=search", "url2": "https://tsukumikan.jp" }, "geometry": { "type": "Point", "coordinates": [ 131.964568, 33.0648166 ] } },
{ "type": "Feature", "properties": { "内容": "介護老人保健施設　つくみかん【短期入所療養介護（介護老人保健施設）】大分県津久見市大字千怒6120番地", "url": "https://www.kaigokensaku.mhlw.go.jp/44/index.php?action_kouhyou_detail_004_kani=true&JigyosyoCd=4450780004-00&ServiceCd=220&Type=search", "url2": "https://tsukumikan.jp" }, "geometry": { "type": "Point", "coordinates": [ 131.8874164, 33.0726701 ] } },
{ "type": "Feature", "properties": { "内容": "ヴァル・ド・グラス・くじゅう【短期入所療養介護（介護老人保健施設）】大分県竹田市久住町大字栢木574-34", "url": "https://www.kaigokensaku.mhlw.go.jp/44/index.php?action_kouhyou_detail_004_kani=true&JigyosyoCd=4452780002-00&ServiceCd=220&Type=search", "url2": "http://www.okubo-hp.com" }, "geometry": { "type": "Point", "coordinates": [ 131.312120899999968, 33.0414476 ] } },
{ "type": "Feature", "properties": { "内容": "介護老人保健施設　サングレイス香々地【短期入所療養介護（介護老人保健施設）】大分県豊後高田市見目３９１５番地１", "url": "https://www.kaigokensaku.mhlw.go.jp/44/index.php?action_kouhyou_detail_004_kani=true&JigyosyoCd=4452080007-00&ServiceCd=220&Type=search", "url2": "http://www.takachuo.com/" }, "geometry": { "type": "Point", "coordinates": [ 131.5291158, 33.6722894 ] } },
{ "type": "Feature", "properties": { "内容": "老人保健施設　希の里【短期入所療養介護（介護老人保健施設）】大分県豊後高田市呉崎755番地", "url": "https://www.kaigokensaku.mhlw.go.jp/44/index.php?action_kouhyou_detail_004_kani=true&JigyosyoCd=4450980018-00&ServiceCd=220&Type=search", "url2": "http//nozomi-sekizen.com" }, "geometry": { "type": "Point", "coordinates": [ 131.4322072, 33.5764331 ] } },
{ "type": "Feature", "properties": { "内容": "介護老人保健施設　梅桃【短期入所療養介護（介護老人保健施設）】大字大内字塩浜7696番地1", "url": "https://www.kaigokensaku.mhlw.go.jp/44/index.php?action_kouhyou_detail_004_kani=true&JigyosyoCd=4471000648-00&ServiceCd=220&Type=search", "url2": "https://etoh-g.jp/" }, "geometry": { "type": "Point", "coordinates": [ 131.631274848939938, 33.42314806108137 ] } },
{ "type": "Feature", "properties": { "内容": "介護老人保健施設しおはま【短期入所療養介護（介護老人保健施設）】大字大内字塩浜7703番地4", "url": "https://www.kaigokensaku.mhlw.go.jp/44/index.php?action_kouhyou_detail_004_kani=true&JigyosyoCd=4451080016-00&ServiceCd=220&Type=search", "url2": "https://shiohama-rouken.kc-hospital.or.jp/" }, "geometry": { "type": "Point", "coordinates": [ 131.6325974, 33.4239432 ] } },
{ "type": "Feature", "properties": { "内容": "杵築市介護老人保健施設グリーンケアやまが【短期入所療養介護（介護老人保健施設）】大分県杵築市山香町大字野原1612番地1杵築市介護老人保健施設グリーンケアやまが", "url": "https://www.kaigokensaku.mhlw.go.jp/44/index.php?action_kouhyou_detail_004_kani=true&JigyosyoCd=4452280011-00&ServiceCd=220&Type=search", "url2": "http://www.yamaga-hp.jp/" }, "geometry": { "type": "Point", "coordinates": [ 131.508643399999983, 33.445336 ] } },
{ "type": "Feature", "properties": { "内容": "介護老人保健施設オアシス宇佐【短期入所療養介護（介護老人保健施設）】大分県宇佐市大字和気185番地", "url": "https://www.kaigokensaku.mhlw.go.jp/44/index.php?action_kouhyou_detail_004_kani=true&JigyosyoCd=4451180014-00&ServiceCd=220&Type=search", "url2": "https://oashisu-usa.com/" }, "geometry": { "type": "Point", "coordinates": [ 131.3906111, 33.5383168 ] } },
{ "type": "Feature", "properties": { "内容": "介護老人保健施設　和光園【短期入所療養介護（介護老人保健施設）】大分県宇佐市大字出光195番地", "url": "https://www.kaigokensaku.mhlw.go.jp/44/index.php?action_kouhyou_detail_004_kani=true&JigyosyoCd=4451180022-00&ServiceCd=220&Type=search", "url2": "https://wadahp.com/wakouen/" }, "geometry": { "type": "Point", "coordinates": [ 131.411185299999943, 33.5296789 ] } },
{ "type": "Feature", "properties": { "内容": "介護老人保健施設清流荘【短期入所療養介護（介護老人保健施設）】大分県宇佐市大字山本1658", "url": "https://www.kaigokensaku.mhlw.go.jp/44/index.php?action_kouhyou_detail_004_kani=true&JigyosyoCd=4451180006-00&ServiceCd=220&Type=search", "url2": "https://ritsuseikai.com/care" }, "geometry": { "type": "Point", "coordinates": [ 131.327639, 33.5081019 ] } },
{ "type": "Feature", "properties": { "内容": "介護老人保健施設ひろせ【短期入所療養介護（介護老人保健施設）】大分県豊後大野市千歳町新殿771番地1", "url": "https://www.kaigokensaku.mhlw.go.jp/44/index.php?action_kouhyou_detail_004_kani=true&JigyosyoCd=4471200305-00&ServiceCd=220&Type=search", "url2": null }, "geometry": { "type": "Point", "coordinates": [ 131.597329625794941, 33.039141075867775 ] } },
{ "type": "Feature", "properties": { "内容": "ニコニコ銘水苑【短期入所療養介護（介護老人保健施設）】大分県豊後大野市三重町小坂4110番地7", "url": "https://www.kaigokensaku.mhlw.go.jp/44/index.php?action_kouhyou_detail_004_kani=true&JigyosyoCd=4452680012-00&ServiceCd=220&Type=search", "url2": "http://www.nikoniko.or.jp" }, "geometry": { "type": "Point", "coordinates": [ 131.620860099999959, 32.9980077 ] } },
{ "type": "Feature", "properties": { "内容": "ユニット型介護老人保健施設　泉の里【短期入所療養介護（介護老人保健施設）】大分県豊後大野市三重町赤嶺1254番地1", "url": "https://www.kaigokensaku.mhlw.go.jp/44/index.php?action_kouhyou_detail_004_kani=true&JigyosyoCd=4451280020-00&ServiceCd=220&Type=search", "url2": "http://www.kigankai.or.jp/" }, "geometry": { "type": "Point", "coordinates": [ 131.600171254259749, 32.987128296721174 ] } },
{ "type": "Feature", "properties": { "内容": "介護老人保健施設泉の里【短期入所療養介護（介護老人保健施設）】大分県豊後大野市三重町赤嶺1254番地1", "url": "https://www.kaigokensaku.mhlw.go.jp/44/index.php?action_kouhyou_detail_004_kani=true&JigyosyoCd=4452680004-00&ServiceCd=220&Type=search", "url2": "http://kigankai.or.jp" }, "geometry": { "type": "Point", "coordinates": [ 131.600166158078991, 32.987171133262486 ] } },
{ "type": "Feature", "properties": { "内容": "短期入所療養介護おおの郷【短期入所療養介護（介護老人保健施設）】大分県豊後大野市大野町田中２番地９", "url": "https://www.kaigokensaku.mhlw.go.jp/44/index.php?action_kouhyou_detail_004_kani=true&JigyosyoCd=4471200289-00&ServiceCd=220&Type=search", "url2": "http://tenshindo.org/web/" }, "geometry": { "type": "Point", "coordinates": [ 131.501963700000033, 33.0364029 ] } },
{ "type": "Feature", "properties": { "内容": "介護老人保健施設　健寿荘【短期入所療養介護（介護老人保健施設）】大分県由布市挾間町鬼崎4-1", "url": "https://www.kaigokensaku.mhlw.go.jp/44/index.php?action_kouhyou_detail_004_kani=true&JigyosyoCd=4452380019-00&ServiceCd=220&Type=search", "url2": "http://www.hoaki.jp/" }, "geometry": { "type": "Point", "coordinates": [ 131.527286799999956, 33.1951123 ] } },
{ "type": "Feature", "properties": { "内容": "介護老人保健施設ゆふいん風香【短期入所療養介護（介護老人保健施設）】大分県由布市湯布院町川南280番地", "url": "https://www.kaigokensaku.mhlw.go.jp/44/index.php?action_kouhyou_detail_004_kani=true&JigyosyoCd=4451380002-00&ServiceCd=220&Type=search", "url2": "http://www.fukujyukai.net/" }, "geometry": { "type": "Point", "coordinates": [ 131.358704699999947, 33.2570872 ] } },
{ "type": "Feature", "properties": { "内容": "介護老人保健施設メディケア亀寿苑【短期入所療養介護（介護老人保健施設）】大分県国東市国東町田深６６５番地１", "url": "https://www.kaigokensaku.mhlw.go.jp/44/index.php?action_kouhyou_detail_004_kani=true&JigyosyoCd=4452180005-00&ServiceCd=220&Type=search", "url2": "http://www.suetsuna-clinic.jp/" }, "geometry": { "type": "Point", "coordinates": [ 131.729010499999987, 33.5681395 ] } },
{ "type": "Feature", "properties": { "内容": "老人保健施設ウェルハウスしらさぎ【短期入所療養介護（介護老人保健施設）】大分県国東市安岐町瀬戸田1035番地9", "url": "https://www.kaigokensaku.mhlw.go.jp/44/index.php?action_kouhyou_detail_004_kani=true&JigyosyoCd=4452180013-00&ServiceCd=220&Type=search", "url2": "https://roken-shirasagi.com/" }, "geometry": { "type": "Point", "coordinates": [ 131.684871, 33.4730443 ] } },
{ "type": "Feature", "properties": { "内容": "介護老人保健施設みずき【短期入所療養介護（介護老人保健施設）】大分県速見郡日出町川崎507-3", "url": "https://www.kaigokensaku.mhlw.go.jp/44/index.php?action_kouhyou_detail_004_kani=true&JigyosyoCd=4452280029-00&ServiceCd=220&Type=search", "url2": "http://www.hiji-kodama.jp/mizuki.html" }, "geometry": { "type": "Point", "coordinates": [ 131.542455300000029, 33.373957 ] } },
{ "type": "Feature", "properties": { "内容": "介護老人保健施設サンライズ・ビュー【短期入所療養介護（介護老人保健施設）】大分県速見郡日出町580番地2", "url": "https://www.kaigokensaku.mhlw.go.jp/44/index.php?action_kouhyou_detail_004_kani=true&JigyosyoCd=4452280003-00&ServiceCd=220&Type=search", "url2": "http://www.heiseikai.com/" }, "geometry": { "type": "Point", "coordinates": [ 131.520047736136348, 33.375341679521675 ] } },
{ "type": "Feature", "properties": { "内容": "介護老人保健施設ケアポート渓和【短期入所療養介護（介護老人保健施設）】大分県玖珠郡九重町大字町田５４８１－３", "url": "https://www.kaigokensaku.mhlw.go.jp/44/index.php?action_kouhyou_detail_004_kani=true&JigyosyoCd=4452880000-00&ServiceCd=220&Type=search", "url2": "https://careport-keiwa.jp" }, "geometry": { "type": "Point", "coordinates": [ 131.18357519999995, 33.2306876 ] } },
{ "type": "Feature", "properties": { "内容": "一般社団法人　玖珠郡医師会立　老人保健施設　はね【短期入所療養介護（介護老人保健施設）】大分県玖珠郡玖珠町大字山田2696", "url": "https://www.kaigokensaku.mhlw.go.jp/44/index.php?action_kouhyou_detail_004_kani=true&JigyosyoCd=4452880018-00&ServiceCd=220&Type=search", "url2": "http://hane.in" }, "geometry": { "type": "Point", "coordinates": [ 131.130062100000032, 33.2790735 ] } }
]
}
