{
"type": "FeatureCollection",
"name": "geo_44_認知症対応型共同生活介護",
"crs": { "type": "name", "properties": { "name": "urn:ogc:def:crs:OGC:1.3:CRS84" } },
"features": [
{ "type": "Feature", "properties": { "内容": "グループホームひまわり【認知症対応型共同生活介護】大分県大分市花津留1丁目12-31菱甲サービス株式会社", "url": "https://www.kaigokensaku.mhlw.go.jp/44/index.php?action_kouhyou_detail_004_kani=true&JigyosyoCd=4490100312-00&ServiceCd=320&Type=search", "url2": "http://www.ryocoh.jp/himawari.php" }, "geometry": { "type": "Point", "coordinates": [ 131.631282822090128, 33.245010243223462 ] } },
{ "type": "Feature", "properties": { "内容": "グループホーム菜の花関２【認知症対応型共同生活介護】大分県大分市大字佐賀関３３５番地グループホーム　菜の花関　２", "url": "https://www.kaigokensaku.mhlw.go.jp/44/index.php?action_kouhyou_detail_004_kani=true&JigyosyoCd=4490100270-00&ServiceCd=320&Type=search", "url2": null }, "geometry": { "type": "Point", "coordinates": [ 131.8634055, 33.2458092 ] } },
{ "type": "Feature", "properties": { "内容": "グループホーム菜の花関【認知症対応型共同生活介護】大分県大分市大字佐賀関３３５番地グループホーム菜の花関", "url": "https://www.kaigokensaku.mhlw.go.jp/44/index.php?action_kouhyou_detail_004_kani=true&JigyosyoCd=4472400235-00&ServiceCd=320&Type=search", "url2": null }, "geometry": { "type": "Point", "coordinates": [ 131.8634055, 33.2458092 ] } },
{ "type": "Feature", "properties": { "内容": "グループホーム心葉【認知症対応型共同生活介護】大分県大分市希望が丘1丁目1046番地の２ケアホーム心葉", "url": "https://www.kaigokensaku.mhlw.go.jp/44/index.php?action_kouhyou_detail_004_kani=true&JigyosyoCd=4490100585-00&ServiceCd=320&Type=search", "url2": "http:：/www.shinnyo.geka.or.jp" }, "geometry": { "type": "Point", "coordinates": [ 131.641991599999983, 33.2332315 ] } },
{ "type": "Feature", "properties": { "内容": "グループホーム日々庵きづな【認知症対応型共同生活介護】大分県大分市大字下郡941番地の3", "url": "https://www.kaigokensaku.mhlw.go.jp/44/index.php?action_kouhyou_detail_004_kani=true&JigyosyoCd=4470101934-00&ServiceCd=320&Type=search", "url2": "http://www.shahuku-houtokukai.jp" }, "geometry": { "type": "Point", "coordinates": [ 131.644931400333007, 33.222767643334222 ] } },
{ "type": "Feature", "properties": { "内容": "グループホーム館【認知症対応型共同生活介護】大分県大分市大字入蔵1095の4番地", "url": "https://www.kaigokensaku.mhlw.go.jp/44/index.php?action_kouhyou_detail_004_kani=true&JigyosyoCd=4472300575-00&ServiceCd=320&Type=search", "url2": null }, "geometry": { "type": "Point", "coordinates": [ 131.534843599999931, 33.1568549 ] } },
{ "type": "Feature", "properties": { "内容": "グループホーム　はなみずき【認知症対応型共同生活介護】大分県大分市大字鴛野1183-1", "url": "https://www.kaigokensaku.mhlw.go.jp/44/index.php?action_kouhyou_detail_004_kani=true&JigyosyoCd=4490100288-00&ServiceCd=320&Type=search", "url2": "https://care-net.biz/44/atene1212/" }, "geometry": { "type": "Point", "coordinates": [ 131.614586499999973, 33.1855023 ] } },
{ "type": "Feature", "properties": { "内容": "グループホームきんもくせい【認知症対応型共同生活介護】大分県大分市大字下判田3795の１", "url": "https://www.kaigokensaku.mhlw.go.jp/44/index.php?action_kouhyou_detail_004_kani=true&JigyosyoCd=4490100502-00&ServiceCd=320&Type=search", "url2": "https://care-net.biz/44/atene1212/" }, "geometry": { "type": "Point", "coordinates": [ 131.639299988338394, 33.163907127920105 ] } },
{ "type": "Feature", "properties": { "内容": "グループホームいろは【認知症対応型共同生活介護】大分県大分市賀来2090番地1グループホームいろは", "url": "https://www.kaigokensaku.mhlw.go.jp/44/index.php?action_kouhyou_detail_004_kani=true&JigyosyoCd=4490100726-00&ServiceCd=320&Type=search", "url2": "http://you-smile.jp/" }, "geometry": { "type": "Point", "coordinates": [ 131.574264699999958, 33.213042 ] } },
{ "type": "Feature", "properties": { "内容": "株式会社ビジュアルビジョン　けあビジョンホーム大分【認知症対応型共同生活介護】大分県大分市東上野字深田2674番1けあビジョンホーム大分", "url": "https://www.kaigokensaku.mhlw.go.jp/44/index.php?action_kouhyou_detail_004_kani=true&JigyosyoCd=4490101179-00&ServiceCd=320&Type=search", "url2": null }, "geometry": { "type": "Point", "coordinates": [ 131.7755732, 33.2184081 ] } },
{ "type": "Feature", "properties": { "内容": "グループホーム　おおつか【認知症対応型共同生活介護】大分県大分市住吉町1丁目2番16号", "url": "https://www.kaigokensaku.mhlw.go.jp/44/index.php?action_kouhyou_detail_004_kani=true&JigyosyoCd=4490100122-00&ServiceCd=320&Type=search", "url2": "http//www.otsuka-mc.jp" }, "geometry": { "type": "Point", "coordinates": [ 131.6052558, 33.2454017 ] } },
{ "type": "Feature", "properties": { "内容": "グループホームいまじん南大分【認知症対応型共同生活介護】大分県大分市二又町１丁目４番３４号", "url": "https://www.kaigokensaku.mhlw.go.jp/44/index.php?action_kouhyou_detail_004_kani=true&JigyosyoCd=4490100999-00&ServiceCd=320&Type=search", "url2": "http://www.f-imagine.net" }, "geometry": { "type": "Point", "coordinates": [ 131.594680707270811, 33.214040245746261 ] } },
{ "type": "Feature", "properties": { "内容": "グループホーム母家【認知症対応型共同生活介護】大分県大分市大字志生木2466-1", "url": "https://www.kaigokensaku.mhlw.go.jp/44/index.php?action_kouhyou_detail_004_kani=true&JigyosyoCd=4472400219-00&ServiceCd=320&Type=search", "url2": null }, "geometry": { "type": "Point", "coordinates": [ 131.8451374, 33.2434452 ] } },
{ "type": "Feature", "properties": { "内容": "グループホーム佐尉郷の驛【認知症対応型共同生活介護】大分県大分市大在中央2丁目8番11号", "url": "https://www.kaigokensaku.mhlw.go.jp/44/index.php?action_kouhyou_detail_004_kani=true&JigyosyoCd=4490100056-00&ServiceCd=320&Type=search", "url2": "saigou1103@selery.ocn.ne.jp" }, "geometry": { "type": "Point", "coordinates": [ 131.723756500000036, 33.2444357 ] } },
{ "type": "Feature", "properties": { "内容": "清静園指定認知症対応型共同生活介護事業所【認知症対応型共同生活介護】大分県大分市大字竹中５２６８番地", "url": "https://www.kaigokensaku.mhlw.go.jp/44/index.php?action_kouhyou_detail_004_kani=true&JigyosyoCd=4470101546-00&ServiceCd=320&Type=search", "url2": "http://www.seijyoen.or.jp/" }, "geometry": { "type": "Point", "coordinates": [ 131.643288339286755, 33.12855257187956 ] } },
{ "type": "Feature", "properties": { "内容": "百華苑グループホーム「林泉庵」【認知症対応型共同生活介護】大分県大分市大字東上野１８５４番地の１", "url": "https://www.kaigokensaku.mhlw.go.jp/44/index.php?action_kouhyou_detail_004_kani=true&JigyosyoCd=4470101702-00&ServiceCd=320&Type=search", "url2": "http://www.hyakkaen.or.jp/" }, "geometry": { "type": "Point", "coordinates": [ 131.769297300000062, 33.2296414 ] } },
{ "type": "Feature", "properties": { "内容": "グループホーム菜の花【認知症対応型共同生活介護】大分県大分市東鶴崎3-1-6", "url": "https://www.kaigokensaku.mhlw.go.jp/44/index.php?action_kouhyou_detail_004_kani=true&JigyosyoCd=4470101496-00&ServiceCd=320&Type=search", "url2": null }, "geometry": { "type": "Point", "coordinates": [ 131.694528799999944, 33.2378695 ] } },
{ "type": "Feature", "properties": { "内容": "グループホーム庄の原苑【認知症対応型共同生活介護】大分県大分市大字荏隈字庄の原1797番地グループホーム庄の原苑", "url": "https://www.kaigokensaku.mhlw.go.jp/44/index.php?action_kouhyou_detail_004_kani=true&JigyosyoCd=4470104060-00&ServiceCd=320&Type=search", "url2": "http://shonoharuen.com/" }, "geometry": { "type": "Point", "coordinates": [ 131.573600246387173, 33.221666982174803 ] } },
{ "type": "Feature", "properties": { "内容": "グループホームふく福【認知症対応型共同生活介護】大分県大分市大字上宗方1037番地の2", "url": "https://www.kaigokensaku.mhlw.go.jp/44/index.php?action_kouhyou_detail_004_kani=true&JigyosyoCd=4470101488-00&ServiceCd=320&Type=search", "url2": "http://www.wakakusakai.jp" }, "geometry": { "type": "Point", "coordinates": [ 131.578953100000035, 33.197252 ] } },
{ "type": "Feature", "properties": { "内容": "グループホーム　にれのは【認知症対応型共同生活介護】大分県大分市大字森字太郎丸336番地", "url": "https://www.kaigokensaku.mhlw.go.jp/44/index.php?action_kouhyou_detail_004_kani=true&JigyosyoCd=4470102296-00&ServiceCd=320&Type=search", "url2": "nirenoha@seiryu-kyousei.org" }, "geometry": { "type": "Point", "coordinates": [ 131.682073036377034, 33.216970457752858 ] } },
{ "type": "Feature", "properties": { "内容": "居宅介護支援総合福祉施設「憩いの館」グループホーム【認知症対応型共同生活介護】大分県大分市大字津守字長田２５４７番地の６", "url": "https://www.kaigokensaku.mhlw.go.jp/44/index.php?action_kouhyou_detail_004_kani=true&JigyosyoCd=4470102478-00&ServiceCd=320&Type=search", "url2": "https://www.ikoinoyakata.com" }, "geometry": { "type": "Point", "coordinates": [ 131.629501537139959, 33.2101023706444 ] } },
{ "type": "Feature", "properties": { "内容": "グループホーム六本松【認知症対応型共同生活介護】大字津留字六本松1970-7", "url": "https://www.kaigokensaku.mhlw.go.jp/44/index.php?action_kouhyou_detail_004_kani=true&JigyosyoCd=4470103484-00&ServiceCd=320&Type=search", "url2": "http;//www.oita-min.or.jp" }, "geometry": { "type": "Point", "coordinates": [ 131.629616400000032, 33.2334264 ] } },
{ "type": "Feature", "properties": { "内容": "認知症対応型グループホーム「ふじ乃家」【認知症対応型共同生活介護】大分県大分市ふじが丘南一丁目16番10号", "url": "https://www.kaigokensaku.mhlw.go.jp/44/index.php?action_kouhyou_detail_004_kani=true&JigyosyoCd=4470101967-00&ServiceCd=320&Type=search", "url2": null }, "geometry": { "type": "Point", "coordinates": [ 131.59934812764746, 33.177754320770511 ] } },
{ "type": "Feature", "properties": { "内容": "グループホームのつはる【認知症対応型共同生活介護】大分県大分市大字野津原1504番地5", "url": "https://www.kaigokensaku.mhlw.go.jp/44/index.php?action_kouhyou_detail_004_kani=true&JigyosyoCd=4470103617-00&ServiceCd=320&Type=search", "url2": "https://fujinokai.co.jp/" }, "geometry": { "type": "Point", "coordinates": [ 131.526878, 33.1604688 ] } },
{ "type": "Feature", "properties": { "内容": "グループホーム　びわのす【認知症対応型共同生活介護】大分県大分市大字常行263番地", "url": "https://www.kaigokensaku.mhlw.go.jp/44/index.php?action_kouhyou_detail_004_kani=true&JigyosyoCd=4490100379-00&ServiceCd=320&Type=search", "url2": "https://seiryu-kyousei.org" }, "geometry": { "type": "Point", "coordinates": [ 131.688782700000047, 33.2193268 ] } },
{ "type": "Feature", "properties": { "内容": "グループホームもえぎ【認知症対応型共同生活介護】大分県大分市大字猪野729番地１", "url": "https://www.kaigokensaku.mhlw.go.jp/44/index.php?action_kouhyou_detail_004_kani=true&JigyosyoCd=4490100841-00&ServiceCd=320&Type=search", "url2": "https://seiryu-kyousei.org" }, "geometry": { "type": "Point", "coordinates": [ 131.66931022090148, 33.232187622620408 ] } },
{ "type": "Feature", "properties": { "内容": "グループホーム菜の花関【認知症対応型共同生活介護】大分県大分市大字佐賀関335番地", "url": "https://www.kaigokensaku.mhlw.go.jp/44/index.php?action_kouhyou_detail_004_kani=true&JigyosyoCd=4490101088-00&ServiceCd=320&Type=search", "url2": "http://taisyoukai.jp" }, "geometry": { "type": "Point", "coordinates": [ 131.8634007, 33.2457469 ] } },
{ "type": "Feature", "properties": { "内容": "グループホーム菜の花関2【認知症対応型共同生活介護】大分市佐賀関335番地", "url": "https://www.kaigokensaku.mhlw.go.jp/44/index.php?action_kouhyou_detail_004_kani=true&JigyosyoCd=4490101096-00&ServiceCd=320&Type=search", "url2": null }, "geometry": { "type": "Point", "coordinates": [ 131.863357784655761, 33.245975706450004 ] } },
{ "type": "Feature", "properties": { "内容": "グループホーム六本松二番館【認知症対応型共同生活介護】大字津留字六本松1970-7", "url": "https://www.kaigokensaku.mhlw.go.jp/44/index.php?action_kouhyou_detail_004_kani=true&JigyosyoCd=4490100213-00&ServiceCd=320&Type=search", "url2": "http:www.oita-min.or.jp" }, "geometry": { "type": "Point", "coordinates": [ 131.629616400000032, 33.2334264 ] } },
{ "type": "Feature", "properties": { "内容": "ひだまり荘　敷戸【認知症対応型共同生活介護】大分県大分市敷戸北町２番２号", "url": "https://www.kaigokensaku.mhlw.go.jp/44/index.php?action_kouhyou_detail_004_kani=true&JigyosyoCd=4490100163-00&ServiceCd=320&Type=search", "url2": "https://www.hidamariso.com/" }, "geometry": { "type": "Point", "coordinates": [ 131.625152299999968, 33.1883165 ] } },
{ "type": "Feature", "properties": { "内容": "愛の家グループホーム大分けやき【認知症対応型共同生活介護】大分県大分市横尾３６０７番地の１", "url": "https://www.kaigokensaku.mhlw.go.jp/44/index.php?action_kouhyou_detail_004_kani=true&JigyosyoCd=4490101138-00&ServiceCd=320&Type=search", "url2": "mcs-ainoie.com/seach/oita/oitashi/gh307/" }, "geometry": { "type": "Point", "coordinates": [ 131.6640751, 33.2155607 ] } },
{ "type": "Feature", "properties": { "内容": "愛の家グループホーム大分花津留【認知症対応型共同生活介護】大分県大分市花津留１丁目１２番３１号", "url": "https://www.kaigokensaku.mhlw.go.jp/44/index.php?action_kouhyou_detail_004_kani=true&JigyosyoCd=4490101013-00&ServiceCd=320&Type=search", "url2": "https://mcs-ainoie.com/seach/oita/oitashi/gh289" }, "geometry": { "type": "Point", "coordinates": [ 131.6312442, 33.2449783 ] } },
{ "type": "Feature", "properties": { "内容": "医療法人　謙誠会　グループホーム「和庵」【認知症対応型共同生活介護】大分県大分市大字野田808番地", "url": "https://www.kaigokensaku.mhlw.go.jp/44/index.php?action_kouhyou_detail_004_kani=true&JigyosyoCd=4490100114-00&ServiceCd=320&Type=search", "url2": "http://www.hakuai.org/" }, "geometry": { "type": "Point", "coordinates": [ 131.541325599999936, 33.1976475 ] } },
{ "type": "Feature", "properties": { "内容": "グループホームみよしファミリー園【認知症対応型共同生活介護】大分県大分市森町西1丁目4番8号", "url": "https://www.kaigokensaku.mhlw.go.jp/44/index.php?action_kouhyou_detail_004_kani=true&JigyosyoCd=4490100064-00&ServiceCd=320&Type=search", "url2": "www.taizankai-miyoshi.jp" }, "geometry": { "type": "Point", "coordinates": [ 131.674446901691368, 33.231564397580044 ] } },
{ "type": "Feature", "properties": { "内容": "グループホームほうゆう【認知症対応型共同生活介護】大分県大分市大字下宗方字櫛引258番地", "url": "https://www.kaigokensaku.mhlw.go.jp/44/index.php?action_kouhyou_detail_004_kani=true&JigyosyoCd=4490100304-00&ServiceCd=320&Type=search", "url2": "https://oita-hoyu.com/" }, "geometry": { "type": "Point", "coordinates": [ 131.58888, 33.1998551 ] } },
{ "type": "Feature", "properties": { "内容": "グループホームきょうりつ【認知症対応型共同生活介護】大分市明磧町一丁目2番２８号グループホームきょうりつ", "url": "https://www.kaigokensaku.mhlw.go.jp/44/index.php?action_kouhyou_detail_004_kani=true&JigyosyoCd=4490100247-00&ServiceCd=320&Type=search", "url2": "www.kyoritsu-hospital.com" }, "geometry": { "type": "Point", "coordinates": [ 131.588089545368916, 33.207867859607681 ] } },
{ "type": "Feature", "properties": { "内容": "グループホーム　庄屋の里【認知症対応型共同生活介護】大分県大分市中判田1950番地6", "url": "https://www.kaigokensaku.mhlw.go.jp/44/index.php?action_kouhyou_detail_004_kani=true&JigyosyoCd=4490100916-00&ServiceCd=320&Type=search", "url2": "https://shinwakai-hosp.com" }, "geometry": { "type": "Point", "coordinates": [ 131.624881499999987, 33.1580023 ] } },
{ "type": "Feature", "properties": { "内容": "グループホーム小野鶴【認知症対応型共同生活介護】大分市小野鶴字植木１１５０の１", "url": "https://www.kaigokensaku.mhlw.go.jp/44/index.php?action_kouhyou_detail_004_kani=true&JigyosyoCd=4490100494-00&ServiceCd=320&Type=search", "url2": "https://soujyu-oita.com/" }, "geometry": { "type": "Point", "coordinates": [ 131.5680125, 33.1988234 ] } },
{ "type": "Feature", "properties": { "内容": "そうりんグループホーム大分駅南【認知症対応型共同生活介護】大分県大分市大道町5丁目1番41-2号", "url": "https://www.kaigokensaku.mhlw.go.jp/44/index.php?action_kouhyou_detail_004_kani=true&JigyosyoCd=4490101005-00&ServiceCd=320&Type=search", "url2": "http://www.fukujyukai.net/" }, "geometry": { "type": "Point", "coordinates": [ 131.598120599999987, 33.227563569691718 ] } },
{ "type": "Feature", "properties": { "内容": "グループホーム　FAB4【認知症対応型共同生活介護】中戸次字東浦4287番地", "url": "https://www.kaigokensaku.mhlw.go.jp/44/index.php?action_kouhyou_detail_004_kani=true&JigyosyoCd=4490101195-00&ServiceCd=320&Type=search", "url2": null }, "geometry": { "type": "Point", "coordinates": [ 131.6734969, 33.1463403 ] } },
{ "type": "Feature", "properties": { "内容": "ニチイケアセンター坂ノ市【認知症対応型共同生活介護】久原中央四丁目２番34号", "url": "https://www.kaigokensaku.mhlw.go.jp/44/index.php?action_kouhyou_detail_004_kani=true&JigyosyoCd=4490101146-00&ServiceCd=320&Type=search", "url2": null }, "geometry": { "type": "Point", "coordinates": [ 131.7663789, 33.236910789795083 ] } },
{ "type": "Feature", "properties": { "内容": "グループホーム小池原憩いの苑【認知症対応型共同生活介護】大分市小池原１０２１番地", "url": "https://www.kaigokensaku.mhlw.go.jp/44/index.php?action_kouhyou_detail_004_kani=true&JigyosyoCd=4490100577-00&ServiceCd=320&Type=search", "url2": "http://www.houjuen.jp" }, "geometry": { "type": "Point", "coordinates": [ 131.661845699999958, 33.2353043 ] } },
{ "type": "Feature", "properties": { "内容": "グループホーム　おおざい憩いの苑【認知症対応型共同生活介護】大分県大分市大字志村字谷ヶ迫５８７番地の１", "url": "https://www.kaigokensaku.mhlw.go.jp/44/index.php?action_kouhyou_detail_004_kani=true&JigyosyoCd=4490100239-00&ServiceCd=320&Type=search", "url2": "http://www.hojuen.jp" }, "geometry": { "type": "Point", "coordinates": [ 131.705645768063533, 33.238885782297515 ] } },
{ "type": "Feature", "properties": { "内容": "グループホームたばる【認知症対応型共同生活介護】大分県大分市大字田原936番地1の1", "url": "https://www.kaigokensaku.mhlw.go.jp/44/index.php?action_kouhyou_detail_004_kani=true&JigyosyoCd=4490100684-00&ServiceCd=320&Type=search", "url2": "https://tabaru-san-ai.com/grouphome/" }, "geometry": { "type": "Point", "coordinates": [ 131.559035917196638, 33.183920977934896 ] } },
{ "type": "Feature", "properties": { "内容": "グループホーム　リバーサイド長久苑【認知症対応型共同生活介護】大分県大分市南津留９１番１", "url": "https://www.kaigokensaku.mhlw.go.jp/44/index.php?action_kouhyou_detail_004_kani=true&JigyosyoCd=4490100528-00&ServiceCd=320&Type=search", "url2": "https://chokyuen.jp/" }, "geometry": { "type": "Point", "coordinates": [ 131.625012, 33.2384833 ] } },
{ "type": "Feature", "properties": { "内容": "グループホーム高江の里【認知症対応型共同生活介護】大分県大分市大字中判田1342番地の3", "url": "https://www.kaigokensaku.mhlw.go.jp/44/index.php?action_kouhyou_detail_004_kani=true&JigyosyoCd=4490100767-00&ServiceCd=320&Type=search", "url2": "http://jyushinosato.com/" }, "geometry": { "type": "Point", "coordinates": [ 131.631427199999962, 33.1660465 ] } },
{ "type": "Feature", "properties": { "内容": "グループホーム　きらく苑【認知症対応型共同生活介護】大分県大分市大字馬場２８７番地", "url": "https://www.kaigokensaku.mhlw.go.jp/44/index.php?action_kouhyou_detail_004_kani=true&JigyosyoCd=4472400136-00&ServiceCd=320&Type=search", "url2": "http://www.kirakuen8012.com" }, "geometry": { "type": "Point", "coordinates": [ 131.783334700000069, 33.2380325 ] } },
{ "type": "Feature", "properties": { "内容": "グループホームあおば【認知症対応型共同生活介護】大分県大分市金谷迫1493-14グループホームあおば", "url": "https://www.kaigokensaku.mhlw.go.jp/44/index.php?action_kouhyou_detail_004_kani=true&JigyosyoCd=4490100205-00&ServiceCd=320&Type=search", "url2": "http://www.you-smile.jp/" }, "geometry": { "type": "Point", "coordinates": [ 131.568751300000031, 33.2277379 ] } },
{ "type": "Feature", "properties": { "内容": "グループホームなでしこ【認知症対応型共同生活介護】大分市大字千歳970番地１", "url": "https://www.kaigokensaku.mhlw.go.jp/44/index.php?action_kouhyou_detail_004_kani=true&JigyosyoCd=4490101039-00&ServiceCd=320&Type=search", "url2": null }, "geometry": { "type": "Point", "coordinates": [ 131.663701456622306, 33.240608740395885 ] } },
{ "type": "Feature", "properties": { "内容": "グループホーム　つかがわ【認知症対応型共同生活介護】大分県大分市東春日町５－２５", "url": "https://www.kaigokensaku.mhlw.go.jp/44/index.php?action_kouhyou_detail_004_kani=true&JigyosyoCd=4470103807-00&ServiceCd=320&Type=search", "url2": "http://ｗｗｗ．ｈａｋｋｏｋａｉ．ｃｏｍ" }, "geometry": { "type": "Point", "coordinates": [ 131.600009300000011, 33.240288 ] } },
{ "type": "Feature", "properties": { "内容": "和幸苑グループホームあゆみ【認知症対応型共同生活介護】大分県別府市亀川東町1884番地の1", "url": "https://www.kaigokensaku.mhlw.go.jp/44/index.php?action_kouhyou_detail_004_kani=true&JigyosyoCd=4470201593-00&ServiceCd=320&Type=search", "url2": null }, "geometry": { "type": "Point", "coordinates": [ 131.49638604868781, 33.327588094319339 ] } },
{ "type": "Feature", "properties": { "内容": "はぴね別府【認知症対応型共同生活介護】大分県別府市天満町　2-17はぴね別府", "url": "https://www.kaigokensaku.mhlw.go.jp/44/index.php?action_kouhyou_detail_004_kani=true&JigyosyoCd=4490200153-00&ServiceCd=320&Type=search", "url2": "http://www.greenlife-inc.co.jp" }, "geometry": { "type": "Point", "coordinates": [ 131.494180300000039, 33.28457 ] } },
{ "type": "Feature", "properties": { "内容": "和幸苑グループホーム望み【認知症対応型共同生活介護】大分県別府市亀川東町1884番地1", "url": "https://www.kaigokensaku.mhlw.go.jp/44/index.php?action_kouhyou_detail_004_kani=true&JigyosyoCd=4470201072-00&ServiceCd=320&Type=search", "url2": "http://www.housinkai.life/" }, "geometry": { "type": "Point", "coordinates": [ 131.496611354245061, 33.327413288287829 ] } },
{ "type": "Feature", "properties": { "内容": "グループホーム大観苑【認知症対応型共同生活介護】大分県別府市鉄輪東8組", "url": "https://www.kaigokensaku.mhlw.go.jp/44/index.php?action_kouhyou_detail_004_kani=true&JigyosyoCd=4470201254-00&ServiceCd=320&Type=search", "url2": "http://www.daikanen.jp" }, "geometry": { "type": "Point", "coordinates": [ 131.484886240753212, 33.319935337602608 ] } },
{ "type": "Feature", "properties": { "内容": "グループホーム　ゲンジョウ【認知症対応型共同生活介護】大分県別府市大字鉄輪1068番地", "url": "https://www.kaigokensaku.mhlw.go.jp/44/index.php?action_kouhyou_detail_004_kani=true&JigyosyoCd=4470201049-00&ServiceCd=320&Type=search", "url2": "rouran-beppu.com/genjo/genjo．html" }, "geometry": { "type": "Point", "coordinates": [ 131.473109900000054, 33.3189245 ] } },
{ "type": "Feature", "properties": { "内容": "グループホーム「リベラ・ホーム別府」【認知症対応型共同生活介護】大分県別府市大字鶴見字中山田1068番地の1", "url": "https://www.kaigokensaku.mhlw.go.jp/44/index.php?action_kouhyou_detail_004_kani=true&JigyosyoCd=4470200652-00&ServiceCd=320&Type=search", "url2": "http://www.wellb.or.jp" }, "geometry": { "type": "Point", "coordinates": [ 131.462660040670045, 33.312858661262602 ] } },
{ "type": "Feature", "properties": { "内容": "グループホーム新別府一燈園【認知症対応型共同生活介護】大分県別府市大字鶴見字新別府３０５１番地３", "url": "https://www.kaigokensaku.mhlw.go.jp/44/index.php?action_kouhyou_detail_004_kani=true&JigyosyoCd=4470201056-00&ServiceCd=320&Type=search", "url2": "http://www.ittouen.or.jp" }, "geometry": { "type": "Point", "coordinates": [ 131.480612800000017, 33.3084058 ] } },
{ "type": "Feature", "properties": { "内容": "グループホームやまなみ【認知症対応型共同生活介護】大分県別府市大字南立石274番地2", "url": "https://www.kaigokensaku.mhlw.go.jp/44/index.php?action_kouhyou_detail_004_kani=true&JigyosyoCd=4470201205-00&ServiceCd=320&Type=search", "url2": "http://www.yamanamien.com" }, "geometry": { "type": "Point", "coordinates": [ 131.4571082, 33.2905051 ] } },
{ "type": "Feature", "properties": { "内容": "グループホーム「リベラ・ホームおぐら」【認知症対応型共同生活介護】大分県別府市小倉町21番21号", "url": "https://www.kaigokensaku.mhlw.go.jp/44/index.php?action_kouhyou_detail_004_kani=true&JigyosyoCd=4490200088-00&ServiceCd=320&Type=search", "url2": "http://www.wellb.or.jp" }, "geometry": { "type": "Point", "coordinates": [ 131.458596783605174, 33.307799987895592 ] } },
{ "type": "Feature", "properties": { "内容": "グループホーム小倉ゲンジョウ【認知症対応型共同生活介護】大分県別府市小倉町29番52号", "url": "https://www.kaigokensaku.mhlw.go.jp/44/index.php?action_kouhyou_detail_004_kani=true&JigyosyoCd=4490200112-00&ServiceCd=320&Type=search", "url2": "rouran-beppu.com/" }, "geometry": { "type": "Point", "coordinates": [ 131.465672161393769, 33.30775690467285 ] } },
{ "type": "Feature", "properties": { "内容": "グループホーム大学通り一燈園【認知症対応型共同生活介護】上人南１０組", "url": "https://www.kaigokensaku.mhlw.go.jp/44/index.php?action_kouhyou_detail_004_kani=true&JigyosyoCd=4490200104-00&ServiceCd=320&Type=search", "url2": "http://www.ittouen.or.jp/" }, "geometry": { "type": "Point", "coordinates": [ 131.49600978584445, 33.312380191672631 ] } },
{ "type": "Feature", "properties": { "内容": "グループホーム偕楽園【認知症対応型共同生活介護】大分県別府市南荘園町4番32号", "url": "https://www.kaigokensaku.mhlw.go.jp/44/index.php?action_kouhyou_detail_004_kani=true&JigyosyoCd=4490200120-00&ServiceCd=320&Type=search", "url2": "https://kikakukai.com" }, "geometry": { "type": "Point", "coordinates": [ 131.479820300000029, 33.287380700000021 ] } },
{ "type": "Feature", "properties": { "内容": "医療法人財団親幸会　グループホーム　浜脇【認知症対応型共同生活介護】大分県別府市浜脇2丁目10-2グループホーム浜脇　橘・桜", "url": "https://www.kaigokensaku.mhlw.go.jp/44/index.php?action_kouhyou_detail_004_kani=true&JigyosyoCd=4490200310-00&ServiceCd=320&Type=search", "url2": null }, "geometry": { "type": "Point", "coordinates": [ 131.5065576, 33.2692747 ] } },
{ "type": "Feature", "properties": { "内容": "グループホームさつき【認知症対応型共同生活介護】大分県中津市三光土田１２４２番地1", "url": "https://www.kaigokensaku.mhlw.go.jp/44/index.php?action_kouhyou_detail_004_kani=true&JigyosyoCd=4490300193-00&ServiceCd=320&Type=search", "url2": null }, "geometry": { "type": "Point", "coordinates": [ 131.175779700000021, 33.5303362 ] } },
{ "type": "Feature", "properties": { "内容": "いずみの園グループホーム【認知症対応型共同生活介護】大分県中津市永添2744", "url": "https://www.kaigokensaku.mhlw.go.jp/44/index.php?action_kouhyou_detail_004_kani=true&JigyosyoCd=4470300411-00&ServiceCd=320&Type=search", "url2": "http://www.izuminosono.jp/" }, "geometry": { "type": "Point", "coordinates": [ 131.199180100000035, 33.5615614 ] } },
{ "type": "Feature", "properties": { "内容": "望箭荘グループホーム山国【認知症対応型共同生活介護】大分県中津市山国町守実57番地1", "url": "https://www.kaigokensaku.mhlw.go.jp/44/index.php?action_kouhyou_detail_004_kani=true&JigyosyoCd=4473000349-00&ServiceCd=320&Type=search", "url2": "www.chokusin.jp" }, "geometry": { "type": "Point", "coordinates": [ 131.0412417, 33.4048783 ] } },
{ "type": "Feature", "properties": { "内容": "グループホーム・み里【認知症対応型共同生活介護】大分県中津市中央町１丁目８番３６号", "url": "https://www.kaigokensaku.mhlw.go.jp/44/index.php?action_kouhyou_detail_004_kani=true&JigyosyoCd=4470300460-00&ServiceCd=320&Type=search", "url2": "http://www.eizenkai.jp/" }, "geometry": { "type": "Point", "coordinates": [ 131.189322100000027, 33.5900107 ] } },
{ "type": "Feature", "properties": { "内容": "グループホーム　“シルバーエイジ”【認知症対応型共同生活介護】大分県　中津市　諸町1799番地", "url": "https://www.kaigokensaku.mhlw.go.jp/44/index.php?action_kouhyou_detail_004_kani=true&JigyosyoCd=4470300569-00&ServiceCd=320&Type=search", "url2": "http://www.kyorinkai.net/" }, "geometry": { "type": "Point", "coordinates": [ 131.182494499999962, 33.6022652 ] } },
{ "type": "Feature", "properties": { "内容": "グループホームあんず【認知症対応型共同生活介護】大分県中津市本耶馬渓町跡田422番地", "url": "https://www.kaigokensaku.mhlw.go.jp/44/index.php?action_kouhyou_detail_004_kani=true&JigyosyoCd=4490300128-00&ServiceCd=320&Type=search", "url2": "http://stsunited.com" }, "geometry": { "type": "Point", "coordinates": [ 131.176583700000037, 33.4821703 ] } },
{ "type": "Feature", "properties": { "内容": "グループホーム　小祝【認知症対応型共同生活介護】大分県中津市字小祝525番地277", "url": "https://www.kaigokensaku.mhlw.go.jp/44/index.php?action_kouhyou_detail_004_kani=true&JigyosyoCd=4490300086-00&ServiceCd=320&Type=search", "url2": "http://leaf-kaigo.co.jp/" }, "geometry": { "type": "Point", "coordinates": [ 131.1861136, 33.6149866 ] } },
{ "type": "Feature", "properties": { "内容": "グループホーム　和田の杜【認知症対応型共同生活介護】大分県中津市大字是則1371番地の3", "url": "https://www.kaigokensaku.mhlw.go.jp/44/index.php?action_kouhyou_detail_004_kani=true&JigyosyoCd=4490300060-00&ServiceCd=320&Type=search", "url2": "http://leaf-kaigo.co.jp/" }, "geometry": { "type": "Point", "coordinates": [ 131.243, 33.5880519 ] } },
{ "type": "Feature", "properties": { "内容": "グループホームさわらび【認知症対応型共同生活介護】大分県中津市大字植野1287番地1", "url": "https://www.kaigokensaku.mhlw.go.jp/44/index.php?action_kouhyou_detail_004_kani=true&JigyosyoCd=4490300250-00&ServiceCd=320&Type=search", "url2": "www.sawarabiansy.or.jp" }, "geometry": { "type": "Point", "coordinates": [ 131.2652439, 33.5620535 ] } },
{ "type": "Feature", "properties": { "内容": "グループホーム　こもれびの里【認知症対応型共同生活介護】大分県中津市大字伊藤田1064番地1", "url": "https://www.kaigokensaku.mhlw.go.jp/44/index.php?action_kouhyou_detail_004_kani=true&JigyosyoCd=4490300227-00&ServiceCd=320&Type=search", "url2": "https://nakatsu-ouentai.com" }, "geometry": { "type": "Point", "coordinates": [ 131.2403316, 33.5561804 ] } },
{ "type": "Feature", "properties": { "内容": "かきぜグループホーム【認知症対応型共同生活介護】大分県中津市蛎瀬６４７－１", "url": "https://www.kaigokensaku.mhlw.go.jp/44/index.php?action_kouhyou_detail_004_kani=true&JigyosyoCd=4490300037-00&ServiceCd=320&Type=search", "url2": "http://www.izuminosono.jp" }, "geometry": { "type": "Point", "coordinates": [ 131.200579, 33.6034849 ] } },
{ "type": "Feature", "properties": { "内容": "グループホームすばる竹田園【認知症対応型共同生活介護】大分県日田市竹田新町2番33号", "url": "https://www.kaigokensaku.mhlw.go.jp/44/index.php?action_kouhyou_detail_004_kani=true&JigyosyoCd=4490400209-00&ServiceCd=320&Type=search", "url2": null }, "geometry": { "type": "Point", "coordinates": [ 130.937934062040711, 33.311212693414831 ] } },
{ "type": "Feature", "properties": { "内容": "グループホーム花・花【認知症対応型共同生活介護】大分県日田市日ノ出町156番地", "url": "https://www.kaigokensaku.mhlw.go.jp/44/index.php?action_kouhyou_detail_004_kani=true&JigyosyoCd=4470400559-00&ServiceCd=320&Type=search", "url2": "www.kagetsuen-swc.com/service/" }, "geometry": { "type": "Point", "coordinates": [ 130.939713, 33.3347398 ] } },
{ "type": "Feature", "properties": { "内容": "グループホームおおつるの家【認知症対応型共同生活介護】大分県日田市大鶴町2267-1", "url": "https://www.kaigokensaku.mhlw.go.jp/44/index.php?action_kouhyou_detail_004_kani=true&JigyosyoCd=4470400732-00&ServiceCd=320&Type=search", "url2": null }, "geometry": { "type": "Point", "coordinates": [ 130.880374218663036, 33.360330835173599 ] } },
{ "type": "Feature", "properties": { "内容": "グループホーム　ひまわり【認知症対応型共同生活介護】大分県日田市大字東有田字町ノ坪2ー4", "url": "https://www.kaigokensaku.mhlw.go.jp/44/index.php?action_kouhyou_detail_004_kani=true&JigyosyoCd=4470400393-00&ServiceCd=320&Type=search", "url2": null }, "geometry": { "type": "Point", "coordinates": [ 130.980190099999959, 33.3306241 ] } },
{ "type": "Feature", "properties": { "内容": "グループホームさくら【認知症対応型共同生活介護】大分県日田市大字有田字小金田455-1", "url": "https://www.kaigokensaku.mhlw.go.jp/44/index.php?action_kouhyou_detail_004_kani=true&JigyosyoCd=4490400217-00&ServiceCd=320&Type=search", "url2": null }, "geometry": { "type": "Point", "coordinates": [ 130.9940148, 33.3481678 ] } },
{ "type": "Feature", "properties": { "内容": "ビハーラ豆田【認知症対応型共同生活介護】大分県日田市港町8-36", "url": "https://www.kaigokensaku.mhlw.go.jp/44/index.php?action_kouhyou_detail_004_kani=true&JigyosyoCd=4490400035-00&ServiceCd=320&Type=search", "url2": "kokun-fukushikai.com" }, "geometry": { "type": "Point", "coordinates": [ 130.93414370013889, 33.326357725544305 ] } },
{ "type": "Feature", "properties": { "内容": "グループホーム　敬天【認知症対応型共同生活介護】大分県日田市天瀬町女子畑234-1グループホーム　敬天", "url": "https://www.kaigokensaku.mhlw.go.jp/44/index.php?action_kouhyou_detail_004_kani=true&JigyosyoCd=4490400068-00&ServiceCd=320&Type=search", "url2": "http://www.suimei.or.jp" }, "geometry": { "type": "Point", "coordinates": [ 130.964828799999964, 33.2898613 ] } },
{ "type": "Feature", "properties": { "内容": "グループホーム日田園【認知症対応型共同生活介護】大分県日田市大字石井字熊ノ下７１１番地１", "url": "https://www.kaigokensaku.mhlw.go.jp/44/index.php?action_kouhyou_detail_004_kani=true&JigyosyoCd=4490400142-00&ServiceCd=320&Type=search", "url2": "info@hitaen.jp" }, "geometry": { "type": "Point", "coordinates": [ 130.91103320000002, 33.3135797 ] } },
{ "type": "Feature", "properties": { "内容": "ほうゆう・和の家【認知症対応型共同生活介護】日田市上城内町4-12", "url": "https://www.kaigokensaku.mhlw.go.jp/44/index.php?action_kouhyou_detail_004_kani=true&JigyosyoCd=4490400175-00&ServiceCd=320&Type=search", "url2": "http://www/houyou-hita.jp/" }, "geometry": { "type": "Point", "coordinates": [ 130.943426680492848, 33.326291208849355 ] } },
{ "type": "Feature", "properties": { "内容": "グループホーム白ゆり【認知症対応型共同生活介護】大分県佐伯市大字木立字大野4885番地", "url": "https://www.kaigokensaku.mhlw.go.jp/44/index.php?action_kouhyou_detail_004_kani=true&JigyosyoCd=4490500016-00&ServiceCd=320&Type=search", "url2": null }, "geometry": { "type": "Point", "coordinates": [ 131.939124499999906, 32.9259335 ] } },
{ "type": "Feature", "properties": { "内容": "グループホーム佐伯の太陽【認知症対応型共同生活介護】大分県佐伯市駅前１－１－１１", "url": "https://www.kaigokensaku.mhlw.go.jp/44/index.php?action_kouhyou_detail_004_kani=true&JigyosyoCd=4490500297-00&ServiceCd=320&Type=search", "url2": null }, "geometry": { "type": "Point", "coordinates": [ 131.904434600000059, 32.9700688 ] } },
{ "type": "Feature", "properties": { "内容": "栄寿会合同会社　グループホームぽかぽか【認知症対応型共同生活介護】大分県佐伯市弥生大字江良1451-1", "url": "https://www.kaigokensaku.mhlw.go.jp/44/index.php?action_kouhyou_detail_004_kani=true&JigyosyoCd=4490500404-00&ServiceCd=320&Type=search", "url2": "https://grouphomepokapoka.com/" }, "geometry": { "type": "Point", "coordinates": [ 131.8307069, 32.9430572 ] } },
{ "type": "Feature", "properties": { "内容": "介護老人保健施設　鶴見の太陽【認知症対応型共同生活介護】大分県佐伯市鶴見大字沖松浦51番地", "url": "https://www.kaigokensaku.mhlw.go.jp/44/index.php?action_kouhyou_detail_004_kani=true&JigyosyoCd=4490500057-00&ServiceCd=320&Type=search", "url2": "http://www.saikichuo.net/" }, "geometry": { "type": "Point", "coordinates": [ 131.962688599999979, 32.9415545 ] } },
{ "type": "Feature", "properties": { "内容": "グル－プホ－ム河内やすらぎの家【認知症対応型共同生活介護】大分県佐伯市蒲江大字蒲江浦３９５１番地", "url": "https://www.kaigokensaku.mhlw.go.jp/44/index.php?action_kouhyou_detail_004_kani=true&JigyosyoCd=4490500230-00&ServiceCd=320&Type=search", "url2": "https://care-net.biz/44/yasuragi3951/" }, "geometry": { "type": "Point", "coordinates": [ 131.925074699999982, 32.8120755 ] } },
{ "type": "Feature", "properties": { "内容": "グループホーム　みどりの郷　こんね【認知症対応型共同生活介護】大分県佐伯市弥生大字床木3番地１", "url": "https://www.kaigokensaku.mhlw.go.jp/44/index.php?action_kouhyou_detail_004_kani=true&JigyosyoCd=4490500107-00&ServiceCd=320&Type=search", "url2": "http://www.saiki.tv/yayoikai" }, "geometry": { "type": "Point", "coordinates": [ 131.86384780000003, 32.9985261 ] } },
{ "type": "Feature", "properties": { "内容": "グループホームひだまり【認知症対応型共同生活介護】大分県佐伯市鶴見大字地松浦1250番地", "url": "https://www.kaigokensaku.mhlw.go.jp/44/index.php?action_kouhyou_detail_004_kani=true&JigyosyoCd=4490500081-00&ServiceCd=320&Type=search", "url2": "http://hidamari-saiki.com/" }, "geometry": { "type": "Point", "coordinates": [ 131.957939239950491, 32.942128990361752 ] } },
{ "type": "Feature", "properties": { "内容": "グループホームほのぼの【認知症対応型共同生活介護】大分県佐伯市鶴見大字地松浦1462番地4", "url": "https://www.kaigokensaku.mhlw.go.jp/44/index.php?action_kouhyou_detail_004_kani=true&JigyosyoCd=4490500362-00&ServiceCd=320&Type=search", "url2": "http://hidamari-saiki.com/" }, "geometry": { "type": "Point", "coordinates": [ 131.958642, 32.9414066 ] } },
{ "type": "Feature", "properties": { "内容": "グループホーム花みずき【認知症対応型共同生活介護】大分県佐伯市大字池田1712番地の27", "url": "https://www.kaigokensaku.mhlw.go.jp/44/index.php?action_kouhyou_detail_004_kani=true&JigyosyoCd=4470500523-00&ServiceCd=320&Type=search", "url2": "http://www.nagato.or.jp" }, "geometry": { "type": "Point", "coordinates": [ 131.896583299999946, 32.9462853 ] } },
{ "type": "Feature", "properties": { "内容": "みどりの郷ほんじょう【認知症対応型共同生活介護】大分県佐伯市本匠大字笠掛1583番地1みどりの郷ほんじょう", "url": "https://www.kaigokensaku.mhlw.go.jp/44/index.php?action_kouhyou_detail_004_kani=true&JigyosyoCd=4490500198-00&ServiceCd=320&Type=search", "url2": null }, "geometry": { "type": "Point", "coordinates": [ 131.799998929499793, 32.953871419980125 ] } },
{ "type": "Feature", "properties": { "内容": "さいき長寿苑そよ風【認知症対応型共同生活介護】大分県佐伯市鶴岡西町二丁目２６９番地", "url": "https://www.kaigokensaku.mhlw.go.jp/44/index.php?action_kouhyou_detail_004_kani=true&JigyosyoCd=4490500206-00&ServiceCd=320&Type=search", "url2": null }, "geometry": { "type": "Point", "coordinates": [ 131.864632499999971, 32.9584301 ] } },
{ "type": "Feature", "properties": { "内容": "グループホーム　うめの里【認知症対応型共同生活介護】大分県佐伯市宇目大字小野市字井ノ上3754番地1", "url": "https://www.kaigokensaku.mhlw.go.jp/44/index.php?action_kouhyou_detail_004_kani=true&JigyosyoCd=4490500339-00&ServiceCd=320&Type=search", "url2": "http://r.goope.jp/choyoukai" }, "geometry": { "type": "Point", "coordinates": [ 131.631583099999943, 32.8561094 ] } },
{ "type": "Feature", "properties": { "内容": "グループホームコスモなおかわ【認知症対応型共同生活介護】大分県佐伯市直川大字横川508番地", "url": "https://www.kaigokensaku.mhlw.go.jp/44/index.php?action_kouhyou_detail_004_kani=true&JigyosyoCd=4472500489-00&ServiceCd=320&Type=search", "url2": "http://www.caretsukasa.jp" }, "geometry": { "type": "Point", "coordinates": [ 131.754058799999939, 32.8905429 ] } },
{ "type": "Feature", "properties": { "内容": "グループホーム　コスモやよい【認知症対応型共同生活介護】大分県佐伯市弥生大字山梨子８２８番地", "url": "https://www.kaigokensaku.mhlw.go.jp/44/index.php?action_kouhyou_detail_004_kani=true&JigyosyoCd=4490500099-00&ServiceCd=320&Type=search", "url2": "http://www.caretsukasa.jp" }, "geometry": { "type": "Point", "coordinates": [ 131.8195915, 32.9648482 ] } },
{ "type": "Feature", "properties": { "内容": "社会福祉法人正心会　　グループホームやすらぎの家【認知症対応型共同生活介護】大分県佐伯市蒲江大字蒲江浦３９５１番地", "url": "https://www.kaigokensaku.mhlw.go.jp/44/index.php?action_kouhyou_detail_004_kani=true&JigyosyoCd=4470500564-00&ServiceCd=320&Type=search", "url2": "https://care-net.biz/44/yasuragi3951/" }, "geometry": { "type": "Point", "coordinates": [ 131.925244361001745, 32.812125093905195 ] } },
{ "type": "Feature", "properties": { "内容": "グループホーム陽【認知症対応型共同生活介護】大分県佐伯市大字長良4952番地", "url": "https://www.kaigokensaku.mhlw.go.jp/44/index.php?action_kouhyou_detail_004_kani=true&JigyosyoCd=4470500408-00&ServiceCd=320&Type=search", "url2": "http://r.goope.jp/choyokai" }, "geometry": { "type": "Point", "coordinates": [ 131.911943299999962, 32.9373424 ] } },
{ "type": "Feature", "properties": { "内容": "グループホーム佐伯の太陽【認知症対応型共同生活介護】大分県佐伯市駅前１丁目１番１１号地域包括ケアセンター佐伯の太陽　4F", "url": "https://www.kaigokensaku.mhlw.go.jp/44/index.php?action_kouhyou_detail_004_kani=true&JigyosyoCd=4490500446-00&ServiceCd=320&Type=search", "url2": "http://www.saikichuo.net/" }, "geometry": { "type": "Point", "coordinates": [ 131.9044166, 32.9700809 ] } },
{ "type": "Feature", "properties": { "内容": "けあビジョンホーム臼杵【認知症対応型共同生活介護】野津町大字落谷1844-3けあビジョンホーム臼杵", "url": "https://www.kaigokensaku.mhlw.go.jp/44/index.php?action_kouhyou_detail_004_kani=true&JigyosyoCd=4490600113-00&ServiceCd=320&Type=search", "url2": null }, "geometry": { "type": "Point", "coordinates": [ 131.7033927, 33.0179328 ] } },
{ "type": "Feature", "properties": { "内容": "グループホーム　ふくすけ【認知症対応型共同生活介護】大字戸室字長谷1135番地の1", "url": "https://www.kaigokensaku.mhlw.go.jp/44/index.php?action_kouhyou_detail_004_kani=true&JigyosyoCd=4490600022-00&ServiceCd=320&Type=search", "url2": "https://fukusuke1135.wixsite.com/fukusuke" }, "geometry": { "type": "Point", "coordinates": [ 131.780175099999951, 33.1229716 ] } },
{ "type": "Feature", "properties": { "内容": "グループホーム望喜家【認知症対応型共同生活介護】大分県臼杵市大字江無田1100番地グループホーム望喜家", "url": "https://www.kaigokensaku.mhlw.go.jp/44/index.php?action_kouhyou_detail_004_kani=true&JigyosyoCd=4490600048-00&ServiceCd=320&Type=search", "url2": null }, "geometry": { "type": "Point", "coordinates": [ 131.780058991468877, 33.123883952926661 ] } },
{ "type": "Feature", "properties": { "内容": "グループホーム　無量寿【認知症対応型共同生活介護】大分県臼杵市大字末広915番地", "url": "https://www.kaigokensaku.mhlw.go.jp/44/index.php?action_kouhyou_detail_004_kani=true&JigyosyoCd=4490600014-00&ServiceCd=320&Type=search", "url2": "https://shirakawa-hospital.jp" }, "geometry": { "type": "Point", "coordinates": [ 131.780349099999967, 33.1313709 ] } },
{ "type": "Feature", "properties": { "内容": "グループホームさるびあ【認知症対応型共同生活介護】大分県臼杵市野津町大字宮原1181番地", "url": "https://www.kaigokensaku.mhlw.go.jp/44/index.php?action_kouhyou_detail_004_kani=true&JigyosyoCd=4472600594-00&ServiceCd=320&Type=search", "url2": "http://iwata-cl.jp" }, "geometry": { "type": "Point", "coordinates": [ 131.71007039999995, 33.0482216 ] } },
{ "type": "Feature", "properties": { "内容": "グループホーム明日風【認知症対応型共同生活介護】大分県臼杵市大字掻懐27番地", "url": "https://www.kaigokensaku.mhlw.go.jp/44/index.php?action_kouhyou_detail_004_kani=true&JigyosyoCd=4490600063-00&ServiceCd=320&Type=search", "url2": null }, "geometry": { "type": "Point", "coordinates": [ 131.75680710000006, 33.093755 ] } },
{ "type": "Feature", "properties": { "内容": "グループホーム優美【認知症対応型共同生活介護】大分県津久見市大字網代９５番21", "url": "https://www.kaigokensaku.mhlw.go.jp/44/index.php?action_kouhyou_detail_004_kani=true&JigyosyoCd=4490700012-00&ServiceCd=320&Type=search", "url2": null }, "geometry": { "type": "Point", "coordinates": [ 131.917479700000058, 33.0667568 ] } },
{ "type": "Feature", "properties": { "内容": "いろはに　長屋【認知症対応型共同生活介護】大分県津久見市大字網代95-21", "url": "https://www.kaigokensaku.mhlw.go.jp/44/index.php?action_kouhyou_detail_004_kani=true&JigyosyoCd=4490700095-00&ServiceCd=320&Type=search", "url2": null }, "geometry": { "type": "Point", "coordinates": [ 131.9173935, 33.0666385 ] } },
{ "type": "Feature", "properties": { "内容": "グループホーム千怒の杜【認知症対応型共同生活介護】大分県津久見市千怒7389番地", "url": "https://www.kaigokensaku.mhlw.go.jp/44/index.php?action_kouhyou_detail_004_kani=true&JigyosyoCd=4490700079-00&ServiceCd=320&Type=search", "url2": null }, "geometry": { "type": "Point", "coordinates": [ 131.891666, 33.069826 ] } },
{ "type": "Feature", "properties": { "内容": "ニチイケアセンター彦ノ内【認知症対応型共同生活介護】大分県津久見市大字津久見783番地ニチイケアセンター彦ノ内", "url": "https://www.kaigokensaku.mhlw.go.jp/44/index.php?action_kouhyou_detail_004_kani=true&JigyosyoCd=4490700038-00&ServiceCd=320&Type=search", "url2": null }, "geometry": { "type": "Point", "coordinates": [ 131.869929400000046, 33.0632177 ] } },
{ "type": "Feature", "properties": { "内容": "「悠々居」グループホーム【認知症対応型共同生活介護】大分県竹田市大字三宅1693番地1", "url": "https://www.kaigokensaku.mhlw.go.jp/44/index.php?action_kouhyou_detail_004_kani=true&JigyosyoCd=4470800246-00&ServiceCd=320&Type=search", "url2": "http://www.coara.or.jp/~yuyukyo/" }, "geometry": { "type": "Point", "coordinates": [ 131.414461028311166, 32.991236369357765 ] } },
{ "type": "Feature", "properties": { "内容": "グループホーム　しらゆり竹田【認知症対応型共同生活介護】大分県竹田市大字竹田町279番地１", "url": "https://www.kaigokensaku.mhlw.go.jp/44/index.php?action_kouhyou_detail_004_kani=true&JigyosyoCd=4470800287-00&ServiceCd=320&Type=search", "url2": "しらゆり竹田" }, "geometry": { "type": "Point", "coordinates": [ 131.393294400000059, 32.9676926 ] } },
{ "type": "Feature", "properties": { "内容": "グループホーム　和の郷【認知症対応型共同生活介護】大分県竹田市飛田川1618-2", "url": "https://www.kaigokensaku.mhlw.go.jp/44/index.php?action_kouhyou_detail_004_kani=true&JigyosyoCd=4490800069-00&ServiceCd=320&Type=search", "url2": "http://yuujinkai.com/w_index.html" }, "geometry": { "type": "Point", "coordinates": [ 131.3842591, 32.964956600000022 ] } },
{ "type": "Feature", "properties": { "内容": "グループホームしらゆり荻【認知症対応型共同生活介護】大分県竹田市荻町瓜作4575番地1", "url": "https://www.kaigokensaku.mhlw.go.jp/44/index.php?action_kouhyou_detail_004_kani=true&JigyosyoCd=4490800093-00&ServiceCd=320&Type=search", "url2": null }, "geometry": { "type": "Point", "coordinates": [ 131.3018035, 32.9048252 ] } },
{ "type": "Feature", "properties": { "内容": "グループホーム湧水の郷【認知症対応型共同生活介護】大分県竹田市菅生１１６９－２", "url": "https://www.kaigokensaku.mhlw.go.jp/44/index.php?action_kouhyou_detail_004_kani=true&JigyosyoCd=4470800345-00&ServiceCd=320&Type=search", "url2": "http://www.oit-p.co.jp" }, "geometry": { "type": "Point", "coordinates": [ 131.2819048, 32.9574413 ] } },
{ "type": "Feature", "properties": { "内容": "グループホーム　くたみのもり【認知症対応型共同生活介護】大分県竹田市久住町大字栢木574-110", "url": "https://www.kaigokensaku.mhlw.go.jp/44/index.php?action_kouhyou_detail_004_kani=true&JigyosyoCd=4472700139-00&ServiceCd=320&Type=search", "url2": "http://www.okubo-hp.com" }, "geometry": { "type": "Point", "coordinates": [ 131.311462600000027, 33.0425586 ] } },
{ "type": "Feature", "properties": { "内容": "グループホームやすらぎの里【認知症対応型共同生活介護】大分県豊後高田市呉崎775-10", "url": "https://www.kaigokensaku.mhlw.go.jp/44/index.php?action_kouhyou_detail_004_kani=true&JigyosyoCd=4490900018-00&ServiceCd=320&Type=search", "url2": "https://s-yasuragi.org" }, "geometry": { "type": "Point", "coordinates": [ 131.431951700000013, 33.5770802 ] } },
{ "type": "Feature", "properties": { "内容": "グループホーム　和の里【認知症対応型共同生活介護】大分県豊後高田市呉崎755番地33", "url": "https://www.kaigokensaku.mhlw.go.jp/44/index.php?action_kouhyou_detail_004_kani=true&JigyosyoCd=4470900202-00&ServiceCd=320&Type=search", "url2": "http://nozomi-sekizen.com" }, "geometry": { "type": "Point", "coordinates": [ 131.4322072, 33.5764331 ] } },
{ "type": "Feature", "properties": { "内容": "グループホーム初音の里【認知症対応型共同生活介護】大分県杵築市溝井1609番地", "url": "https://www.kaigokensaku.mhlw.go.jp/44/index.php?action_kouhyou_detail_004_kani=true&JigyosyoCd=4471000234-00&ServiceCd=320&Type=search", "url2": "http://www.kimura-corp.co.jp" }, "geometry": { "type": "Point", "coordinates": [ 131.593353286508176, 33.430043209074348 ] } },
{ "type": "Feature", "properties": { "内容": "グループホームおおたの郷【認知症対応型共同生活介護】大分県杵築市大田石丸1392", "url": "https://www.kaigokensaku.mhlw.go.jp/44/index.php?action_kouhyou_detail_004_kani=true&JigyosyoCd=4471000408-00&ServiceCd=320&Type=search", "url2": "http://ootanosato.com/" }, "geometry": { "type": "Point", "coordinates": [ 131.558980199999951, 33.4928045 ] } },
{ "type": "Feature", "properties": { "内容": "グループホーム　やまが苑【認知症対応型共同生活介護】大分県杵築市山香町大字野原１４０５番地６", "url": "https://www.kaigokensaku.mhlw.go.jp/44/index.php?action_kouhyou_detail_004_kani=true&JigyosyoCd=4491000057-00&ServiceCd=320&Type=search", "url2": null }, "geometry": { "type": "Point", "coordinates": [ 131.505966100000023, 33.4429612 ] } },
{ "type": "Feature", "properties": { "内容": "グループホーム「たんぽぽの家」【認知症対応型共同生活介護】大分県宇佐市大字樋田45番地の1", "url": "https://www.kaigokensaku.mhlw.go.jp/44/index.php?action_kouhyou_detail_004_kani=true&JigyosyoCd=4471100406-00&ServiceCd=320&Type=search", "url2": null }, "geometry": { "type": "Point", "coordinates": [ 131.341020599999979, 33.5258391 ] } },
{ "type": "Feature", "properties": { "内容": "グループホームおもとの郷【認知症対応型共同生活介護】大分県宇佐市大字蜷木1769-2", "url": "https://www.kaigokensaku.mhlw.go.jp/44/index.php?action_kouhyou_detail_004_kani=true&JigyosyoCd=4491100063-00&ServiceCd=320&Type=search", "url2": "https://www.usuien.org/" }, "geometry": { "type": "Point", "coordinates": [ 131.394295976045868, 33.548664594468995 ] } },
{ "type": "Feature", "properties": { "内容": "グループホームみらい【認知症対応型共同生活介護】宇佐市大字出光189-1", "url": "https://www.kaigokensaku.mhlw.go.jp/44/index.php?action_kouhyou_detail_004_kani=true&JigyosyoCd=4491100121-00&ServiceCd=320&Type=search", "url2": null }, "geometry": { "type": "Point", "coordinates": [ 131.411777, 33.5287429 ] } },
{ "type": "Feature", "properties": { "内容": "認知症高齢者グループホーム清流荘【認知症対応型共同生活介護】大分県宇佐市大字山本1658番地", "url": "https://www.kaigokensaku.mhlw.go.jp/44/index.php?action_kouhyou_detail_004_kani=true&JigyosyoCd=4471100448-00&ServiceCd=320&Type=search", "url2": "https://ritsuseikai.com" }, "geometry": { "type": "Point", "coordinates": [ 131.327639, 33.5081019 ] } },
{ "type": "Feature", "properties": { "内容": "グループホームめずらハウス【認知症対応型共同生活介護】大分県宇佐市大字下時枝491-1グループホームめずらハウス", "url": "https://www.kaigokensaku.mhlw.go.jp/44/index.php?action_kouhyou_detail_004_kani=true&JigyosyoCd=4491100048-00&ServiceCd=320&Type=search", "url2": "http://mezura_house@mezura/jp" }, "geometry": { "type": "Point", "coordinates": [ 131.305794600000013, 33.5573373 ] } },
{ "type": "Feature", "properties": { "内容": "グループホーム　オハナ【認知症対応型共同生活介護】大分県宇佐市大字四日市4452-1", "url": "https://www.kaigokensaku.mhlw.go.jp/44/index.php?action_kouhyou_detail_004_kani=true&JigyosyoCd=4491100071-00&ServiceCd=320&Type=search", "url2": "http://meihokai.or.jp" }, "geometry": { "type": "Point", "coordinates": [ 131.3266966, 33.5311408 ] } },
{ "type": "Feature", "properties": { "内容": "グループホーム　よろうち【認知症対応型共同生活介護】大分県宇佐市院内町原口　５８３番地", "url": "https://www.kaigokensaku.mhlw.go.jp/44/index.php?action_kouhyou_detail_004_kani=true&JigyosyoCd=4491100055-00&ServiceCd=320&Type=search", "url2": null }, "geometry": { "type": "Point", "coordinates": [ 131.3173458, 33.4174239 ] } },
{ "type": "Feature", "properties": { "内容": "グループホームメルヘン【認知症対応型共同生活介護】大分県宇佐市大字蜷木1769-1", "url": "https://www.kaigokensaku.mhlw.go.jp/44/index.php?action_kouhyou_detail_004_kani=true&JigyosyoCd=4471100364-00&ServiceCd=320&Type=search", "url2": "https://www.usuien.org/" }, "geometry": { "type": "Point", "coordinates": [ 131.394185599999986, 33.5484295 ] } },
{ "type": "Feature", "properties": { "内容": "グループホーム　ももたろう【認知症対応型共同生活介護】大分県豊後大野市清川町三玉６８６番地", "url": "https://www.kaigokensaku.mhlw.go.jp/44/index.php?action_kouhyou_detail_004_kani=true&JigyosyoCd=4471200073-00&ServiceCd=320&Type=search", "url2": "http:www2.hp-ez.com./hp/mo2tarou" }, "geometry": { "type": "Point", "coordinates": [ 131.506206600000041, 32.9612633 ] } },
{ "type": "Feature", "properties": { "内容": "グループホームさくら【認知症対応型共同生活介護】大分県豊後大野市三重町市場546番地3", "url": "https://www.kaigokensaku.mhlw.go.jp/44/index.php?action_kouhyou_detail_004_kani=true&JigyosyoCd=4472600966-00&ServiceCd=320&Type=search", "url2": null }, "geometry": { "type": "Point", "coordinates": [ 131.584555499999965, 32.9814912 ] } },
{ "type": "Feature", "properties": { "内容": "グループホームあじさい【認知症対応型共同生活介護】大分県豊後大野市三重町内田2541番地", "url": "https://www.kaigokensaku.mhlw.go.jp/44/index.php?action_kouhyou_detail_004_kani=true&JigyosyoCd=4471200180-00&ServiceCd=320&Type=search", "url2": null }, "geometry": { "type": "Point", "coordinates": [ 131.591746699999931, 32.9762503 ] } },
{ "type": "Feature", "properties": { "内容": "グループホーム「養老の泉」【認知症対応型共同生活介護】大分県豊後大野市大野町大原1186番地1", "url": "https://www.kaigokensaku.mhlw.go.jp/44/index.php?action_kouhyou_detail_004_kani=true&JigyosyoCd=4472600776-00&ServiceCd=320&Type=search", "url2": null }, "geometry": { "type": "Point", "coordinates": [ 131.48413, 33.0232754 ] } },
{ "type": "Feature", "properties": { "内容": "養老の泉パートⅡ【認知症対応型共同生活介護】大分県豊後大野市大野町大原1186番地1", "url": "https://www.kaigokensaku.mhlw.go.jp/44/index.php?action_kouhyou_detail_004_kani=true&JigyosyoCd=4472600941-00&ServiceCd=320&Type=search", "url2": null }, "geometry": { "type": "Point", "coordinates": [ 131.48413, 33.0232754 ] } },
{ "type": "Feature", "properties": { "内容": "グループホーム陽だまりの丘【認知症対応型共同生活介護】大分県豊後大野市千歳町新殿1233-1", "url": "https://www.kaigokensaku.mhlw.go.jp/44/index.php?action_kouhyou_detail_004_kani=true&JigyosyoCd=4491200012-00&ServiceCd=320&Type=search", "url2": null }, "geometry": { "type": "Point", "coordinates": [ 131.602982699999984, 33.0375138 ] } },
{ "type": "Feature", "properties": { "内容": "グループホーム花見園【認知症対応型共同生活介護】大分県豊後大野市緒方町馬背畑１８７５番地", "url": "https://www.kaigokensaku.mhlw.go.jp/44/index.php?action_kouhyou_detail_004_kani=true&JigyosyoCd=4491200095-00&ServiceCd=320&Type=search", "url2": "http://www.kaiseien-bungo-ohno.com/" }, "geometry": { "type": "Point", "coordinates": [ 131.481912200000011, 32.9337733 ] } },
{ "type": "Feature", "properties": { "内容": "グループホーム　まごの手【認知症対応型共同生活介護】大分県豊後大野市朝地町下野442番地2", "url": "https://www.kaigokensaku.mhlw.go.jp/44/index.php?action_kouhyou_detail_004_kani=true&JigyosyoCd=4471200040-00&ServiceCd=320&Type=search", "url2": "https://magonote-care.com" }, "geometry": { "type": "Point", "coordinates": [ 131.459216100000049, 33.004293 ] } },
{ "type": "Feature", "properties": { "内容": "グループホームおさかの里【認知症対応型共同生活介護】大分県豊後大野市三重町小坂4194番地9", "url": "https://www.kaigokensaku.mhlw.go.jp/44/index.php?action_kouhyou_detail_004_kani=true&JigyosyoCd=4472600719-00&ServiceCd=320&Type=search", "url2": "https://nikoniko.or.jp/nikoniko_corporation/osaka_home/" }, "geometry": { "type": "Point", "coordinates": [ 131.621551700000026, 32.9978994 ] } },
{ "type": "Feature", "properties": { "内容": "グループホームあさぢ偕生園【認知症対応型共同生活介護】大分県豊後大野市朝地町朝地889番地2", "url": "https://www.kaigokensaku.mhlw.go.jp/44/index.php?action_kouhyou_detail_004_kani=true&JigyosyoCd=4471200503-00&ServiceCd=320&Type=search", "url2": "http://www.kaiseien-bungo-ohno.com/" }, "geometry": { "type": "Point", "coordinates": [ 131.4296187, 33.005217 ] } },
{ "type": "Feature", "properties": { "内容": "地域福祉支援センター　フェリス千歳【認知症対応型共同生活介護】千歳町前田1160", "url": "https://www.kaigokensaku.mhlw.go.jp/44/index.php?action_kouhyou_detail_004_kani=true&JigyosyoCd=4471200123-00&ServiceCd=320&Type=search", "url2": "http://www.citydo.com/prf/oita/guide/sg/520002912.html" }, "geometry": { "type": "Point", "coordinates": [ 131.588645600000063, 33.0226619 ] } },
{ "type": "Feature", "properties": { "内容": "グループホーム川崎【認知症対応型共同生活介護】大分県由布市挾間町古野２６９番地１", "url": "https://www.kaigokensaku.mhlw.go.jp/44/index.php?action_kouhyou_detail_004_kani=true&JigyosyoCd=4472300500-00&ServiceCd=320&Type=search", "url2": null }, "geometry": { "type": "Point", "coordinates": [ 131.530592800000022, 33.20986 ] } },
{ "type": "Feature", "properties": { "内容": "グループホーム　やすらぎ【認知症対応型共同生活介護】大分県由布市挾間町古野186番地1", "url": "https://www.kaigokensaku.mhlw.go.jp/44/index.php?action_kouhyou_detail_004_kani=true&JigyosyoCd=4472300591-00&ServiceCd=320&Type=search", "url2": "http://www.lets-begin.info/oita/gotokikaku/" }, "geometry": { "type": "Point", "coordinates": [ 131.527964600000018, 33.2107089 ] } },
{ "type": "Feature", "properties": { "内容": "グループホーム菜の花湯布院【認知症対応型共同生活介護】大分県由布市湯布院町川西3661-1", "url": "https://www.kaigokensaku.mhlw.go.jp/44/index.php?action_kouhyou_detail_004_kani=true&JigyosyoCd=4491300085-00&ServiceCd=320&Type=search", "url2": "http://www.fukujyukai.net/" }, "geometry": { "type": "Point", "coordinates": [ 131.322855600000025, 33.240964 ] } },
{ "type": "Feature", "properties": { "内容": "グループホーム川崎（Ⅱ）【認知症対応型共同生活介護】大分県由布市挾間町古野２５４番地１", "url": "https://www.kaigokensaku.mhlw.go.jp/44/index.php?action_kouhyou_detail_004_kani=true&JigyosyoCd=4471300105-00&ServiceCd=320&Type=search", "url2": null }, "geometry": { "type": "Point", "coordinates": [ 131.531603899999936, 33.2105933 ] } },
{ "type": "Feature", "properties": { "内容": "グループホーム向日葵【認知症対応型共同生活介護】大分県国東市国見町竹田津3625番地", "url": "https://www.kaigokensaku.mhlw.go.jp/44/index.php?action_kouhyou_detail_004_kani=true&JigyosyoCd=4472100488-00&ServiceCd=320&Type=search", "url2": null }, "geometry": { "type": "Point", "coordinates": [ 131.56384, 33.6712572 ] } },
{ "type": "Feature", "properties": { "内容": "Gruppoはるかぜ【認知症対応型共同生活介護】大分県国東市国東町来浦2798Gruppoはるかぜ", "url": "https://www.kaigokensaku.mhlw.go.jp/44/index.php?action_kouhyou_detail_004_kani=true&JigyosyoCd=4491400042-00&ServiceCd=320&Type=search", "url2": null }, "geometry": { "type": "Point", "coordinates": [ 131.65841039999998, 33.6315488 ] } },
{ "type": "Feature", "properties": { "内容": "さわやかクラブ鈴鳴荘【認知症対応型共同生活介護】大分県国東市安岐町下山口58番地", "url": "https://www.kaigokensaku.mhlw.go.jp/44/index.php?action_kouhyou_detail_004_kani=true&JigyosyoCd=4472100413-00&ServiceCd=320&Type=search", "url2": "http://www.akinosato.com/" }, "geometry": { "type": "Point", "coordinates": [ 131.691195900000025, 33.4607761 ] } },
{ "type": "Feature", "properties": { "内容": "さわやかクラブ　むさし苑【認知症対応型共同生活介護】大分県国東市武蔵町糸原２３６８番地２", "url": "https://www.kaigokensaku.mhlw.go.jp/44/index.php?action_kouhyou_detail_004_kani=true&JigyosyoCd=4491400067-00&ServiceCd=320&Type=search", "url2": "http;//www.akinosato.com/" }, "geometry": { "type": "Point", "coordinates": [ 131.715871399999969, 33.4908047 ] } },
{ "type": "Feature", "properties": { "内容": "グループホームやまもも【認知症対応型共同生活介護】大分県国東市国見町小熊毛2695番地1グループホームやまもも", "url": "https://www.kaigokensaku.mhlw.go.jp/44/index.php?action_kouhyou_detail_004_kani=true&JigyosyoCd=4472100595-00&ServiceCd=320&Type=search", "url2": "http://nihoukai.com/contact.htm" }, "geometry": { "type": "Point", "coordinates": [ 131.64642159999994, 33.6603737 ] } },
{ "type": "Feature", "properties": { "内容": "特定非営利活動法人　グループホーム　ひだまり【認知症対応型共同生活介護】大分県東国東郡姫島村1658番地の1", "url": "https://www.kaigokensaku.mhlw.go.jp/44/index.php?action_kouhyou_detail_004_kani=true&JigyosyoCd=4492100013-00&ServiceCd=320&Type=search", "url2": null }, "geometry": { "type": "Point", "coordinates": [ 131.645139, 33.7245374 ] } },
{ "type": "Feature", "properties": { "内容": "グループホームすずらん【認知症対応型共同生活介護】大分県速見郡日出町大字藤原1691番地1", "url": "https://www.kaigokensaku.mhlw.go.jp/44/index.php?action_kouhyou_detail_004_kani=true&JigyosyoCd=4492200011-00&ServiceCd=320&Type=search", "url2": "http//www.suzuki-hp.or.jp" }, "geometry": { "type": "Point", "coordinates": [ 131.545824300000049, 33.3753931 ] } },
{ "type": "Feature", "properties": { "内容": "グループホームサンライズ【認知症対応型共同生活介護】大分県速見郡日出町1845-1", "url": "https://www.kaigokensaku.mhlw.go.jp/44/index.php?action_kouhyou_detail_004_kani=true&JigyosyoCd=4472200338-00&ServiceCd=320&Type=search", "url2": "http.//www.heiseikai.com/" }, "geometry": { "type": "Point", "coordinates": [ 131.528699683804234, 33.370757041453594 ] } },
{ "type": "Feature", "properties": { "内容": "グループホーム「結の里（ゆいのさと）」【認知症対応型共同生活介護】大分県玖珠郡九重町大字右田３１５６番地の７グループホーム「結の里」", "url": "https://www.kaigokensaku.mhlw.go.jp/44/index.php?action_kouhyou_detail_004_kani=true&JigyosyoCd=4472800269-00&ServiceCd=320&Type=search", "url2": null }, "geometry": { "type": "Point", "coordinates": [ 131.174532799999952, 33.2522023 ] } },
{ "type": "Feature", "properties": { "内容": "特定非営利活動法人　グループホームなごみ【認知症対応型共同生活介護】大分県玖珠郡玖珠町大字山田2734番地", "url": "https://www.kaigokensaku.mhlw.go.jp/44/index.php?action_kouhyou_detail_004_kani=true&JigyosyoCd=4472800293-00&ServiceCd=320&Type=search", "url2": null }, "geometry": { "type": "Point", "coordinates": [ 131.12844, 33.2776236 ] } },
{ "type": "Feature", "properties": { "内容": "グループホーム　笑みの里【認知症対応型共同生活介護】大分県玖珠郡玖珠町大字大隈３２２番地の２", "url": "https://www.kaigokensaku.mhlw.go.jp/44/index.php?action_kouhyou_detail_004_kani=true&JigyosyoCd=4472800343-00&ServiceCd=320&Type=search", "url2": "http://www.kusuen.or.jp" }, "geometry": { "type": "Point", "coordinates": [ 131.165271800000028, 33.267895 ] } }
]
}
