{
"type": "FeatureCollection",
"name": "geo_44_介護医療院",
"crs": { "type": "name", "properties": { "name": "urn:ogc:def:crs:OGC:1.3:CRS84" } },
"features": [
{ "type": "Feature", "properties": { "内容": "介護医療院　緑ヶ丘保養園【介護医療院】大分県大分市大字丹生1747", "url": "https://www.kaigokensaku.mhlw.go.jp/44/index.php?action_kouhyou_detail_004_kani=true&JigyosyoCd=44B0100036-00&ServiceCd=550&Type=search", "url2": "http://www.fuchinokai.or.jp" }, "geometry": { "type": "Point", "coordinates": [ 131.703173819574005, 33.217858888215034 ] } },
{ "type": "Feature", "properties": { "内容": "介護医療院　菜の花【介護医療院】大分県大分市生石2丁目1番5号", "url": "https://www.kaigokensaku.mhlw.go.jp/44/index.php?action_kouhyou_detail_004_kani=true&JigyosyoCd=44B0100028-00&ServiceCd=550&Type=search", "url2": null }, "geometry": { "type": "Point", "coordinates": [ 131.5848887, 33.2443464 ] } },
{ "type": "Feature", "properties": { "内容": "介護医療院おおつか【介護医療院】大分県大分市住吉町1丁目2番16号", "url": "https://www.kaigokensaku.mhlw.go.jp/44/index.php?action_kouhyou_detail_004_kani=true&JigyosyoCd=44B0100010-00&ServiceCd=550&Type=search", "url2": "http://www.otsuka-mc.jp" }, "geometry": { "type": "Point", "coordinates": [ 131.605256200000014, 33.2455719 ] } },
{ "type": "Feature", "properties": { "内容": "介護医療院むらはし【介護医療院】千代町2番5号村橋病院", "url": "https://www.kaigokensaku.mhlw.go.jp/44/index.php?action_kouhyou_detail_004_kani=true&JigyosyoCd=44B0200026-00&ServiceCd=550&Type=search", "url2": "http://murahashi-hp.jp/" }, "geometry": { "type": "Point", "coordinates": [ 131.504638300000011, 33.2746458 ] } },
{ "type": "Feature", "properties": { "内容": "介護医療院ちば【介護医療院】大分県別府市楠町2番１７号", "url": "https://www.kaigokensaku.mhlw.go.jp/44/index.php?action_kouhyou_detail_004_kani=true&JigyosyoCd=4410214581-00&ServiceCd=550&Type=search", "url2": null }, "geometry": { "type": "Point", "coordinates": [ 131.5034799, 33.2758677 ] } },
{ "type": "Feature", "properties": { "内容": "ヒロセ内科介護医療院【介護医療院】大分県別府市駅前本町5-23", "url": "https://www.kaigokensaku.mhlw.go.jp/44/index.php?action_kouhyou_detail_004_kani=true&JigyosyoCd=44B0200059-00&ServiceCd=550&Type=search", "url2": "https://bec-medicube.com/menu/hirosenaikaiin.html" }, "geometry": { "type": "Point", "coordinates": [ 131.5015527, 33.2809473 ] } },
{ "type": "Feature", "properties": { "内容": "浜脇記念病院介護医療院【介護医療院】浜脇１丁目6-21", "url": "https://www.kaigokensaku.mhlw.go.jp/44/index.php?action_kouhyou_detail_004_kani=true&JigyosyoCd=44B0200042-00&ServiceCd=550&Type=search", "url2": "http://hamawakimhp.com" }, "geometry": { "type": "Point", "coordinates": [ 131.510434, 33.2694902 ] } },
{ "type": "Feature", "properties": { "内容": "介護医療院くろき【介護医療院】大分県別府市照波園町14番28号", "url": "https://www.kaigokensaku.mhlw.go.jp/44/index.php?action_kouhyou_detail_004_kani=true&JigyosyoCd=44B0200018-00&ServiceCd=550&Type=search", "url2": "http://www.kuroki-hp.or.jp/" }, "geometry": { "type": "Point", "coordinates": [ 131.497318, 33.319536900000017 ] } },
{ "type": "Feature", "properties": { "内容": "ふじみ介護医療院【介護医療院】大分県別府市北的ヶ浜町5番19号", "url": "https://www.kaigokensaku.mhlw.go.jp/44/index.php?action_kouhyou_detail_004_kani=true&JigyosyoCd=44B0200034-00&ServiceCd=550&Type=search", "url2": "http://www.fujimi.or.jp/" }, "geometry": { "type": "Point", "coordinates": [ 131.5041305, 33.2849861 ] } },
{ "type": "Feature", "properties": { "内容": "介護医療院　新関内科医院【介護医療院】大分県日田市田島2丁目4番9号", "url": "https://www.kaigokensaku.mhlw.go.jp/44/index.php?action_kouhyou_detail_004_kani=true&JigyosyoCd=44B0400014-00&ServiceCd=550&Type=search", "url2": "http://niizekinaika.or.jp" }, "geometry": { "type": "Point", "coordinates": [ 130.941427, 33.3199067 ] } },
{ "type": "Feature", "properties": { "内容": "うすき介護医療院【介護医療院】大分県臼杵市大字臼杵字洲崎72番地32", "url": "https://www.kaigokensaku.mhlw.go.jp/44/index.php?action_kouhyou_detail_004_kani=true&JigyosyoCd=44B0600019-00&ServiceCd=550&Type=search", "url2": null }, "geometry": { "type": "Point", "coordinates": [ 131.805812320164108, 33.124142655050143 ] } },
{ "type": "Feature", "properties": { "内容": "大久保病院介護医療院【介護医療院】大分県竹田市久住町大字栢木6026-2", "url": "https://www.kaigokensaku.mhlw.go.jp/44/index.php?action_kouhyou_detail_004_kani=true&JigyosyoCd=44B0800015-00&ServiceCd=550&Type=search", "url2": "http://okubo-hp.com/" }, "geometry": { "type": "Point", "coordinates": [ 131.332119400000011, 33.0575095 ] } },
{ "type": "Feature", "properties": { "内容": "高田中央病院介護医療院【介護医療院】大分県豊後高田市新地１１７６番地１", "url": "https://www.kaigokensaku.mhlw.go.jp/44/index.php?action_kouhyou_detail_004_kani=true&JigyosyoCd=44B0900013-00&ServiceCd=550&Type=search", "url2": "https://takachuo.com/" }, "geometry": { "type": "Point", "coordinates": [ 131.4407071, 33.5551669 ] } },
{ "type": "Feature", "properties": { "内容": "介護医療院　とわの桜【介護医療院】大分県杵築市大字馬場尾５０８番地の2", "url": "https://www.kaigokensaku.mhlw.go.jp/44/index.php?action_kouhyou_detail_004_kani=true&JigyosyoCd=44B1000011-00&ServiceCd=550&Type=search", "url2": null }, "geometry": { "type": "Point", "coordinates": [ 131.594108898147596, 33.4308265693506 ] } },
{ "type": "Feature", "properties": { "内容": "介護医療院オアシス【介護医療院】大分県宇佐市大字和気477番地の1", "url": "https://www.kaigokensaku.mhlw.go.jp/44/index.php?action_kouhyou_detail_004_kani=true&JigyosyoCd=44B1100019-00&ServiceCd=550&Type=search", "url2": "https://oashisu-usa.com/" }, "geometry": { "type": "Point", "coordinates": [ 131.390715, 33.537431799999979 ] } },
{ "type": "Feature", "properties": { "内容": "桑尾病院介護医療院【介護医療院】大分県宇佐市大字四日市１１８番地", "url": "https://www.kaigokensaku.mhlw.go.jp/44/index.php?action_kouhyou_detail_004_kani=true&JigyosyoCd=44B1100027-00&ServiceCd=550&Type=search", "url2": "http://www.kuwao.jp/" }, "geometry": { "type": "Point", "coordinates": [ 131.3267595, 33.5346082 ] } },
{ "type": "Feature", "properties": { "内容": "医療法人二豊会　介護医療院　国見病院【介護医療院】大分県国東市国見町伊美1968番地", "url": "https://www.kaigokensaku.mhlw.go.jp/44/index.php?action_kouhyou_detail_004_kani=true&JigyosyoCd=4411410022-00&ServiceCd=550&Type=search", "url2": "https://nihoukai-kunimi.com/" }, "geometry": { "type": "Point", "coordinates": [ 131.595715531352226, 33.685913721296203 ] } },
{ "type": "Feature", "properties": { "内容": "姫島村国民健康保険診療所介護医療院【介護医療院】大分県東国東郡姫島村1560番地の1", "url": "https://www.kaigokensaku.mhlw.go.jp/44/index.php?action_kouhyou_detail_004_kani=true&JigyosyoCd=44B2100018-00&ServiceCd=550&Type=search", "url2": null }, "geometry": { "type": "Point", "coordinates": [ 131.6462584, 33.724293 ] } }
]
}
