{
"type": "FeatureCollection",
"name": "geo_44_特定施設入居者生活介護（有料老人ホーム（サービス付き高齢者向け住宅））",
"crs": { "type": "name", "properties": { "name": "urn:ogc:def:crs:OGC:1.3:CRS84" } },
"features": [
{ "type": "Feature", "properties": { "内容": "メゾン・ド・いっとうえん【特定施設入居者生活介護（有料老人ホーム（サービス付き高齢者向け住宅））】大分県別府市石垣東3丁目1番40号", "url": "https://www.kaigokensaku.mhlw.go.jp/44/index.php?action_kouhyou_detail_004_kani=true&JigyosyoCd=4470202625-00&ServiceCd=&Type=search", "url2": "http://www.ittouen.or.jp" }, "geometry": { "type": "Point", "coordinates": [ 131.499852199999964, 33.2936828 ] } },
{ "type": "Feature", "properties": { "内容": "ケアマンションひだか【特定施設入居者生活介護（有料老人ホーム（サービス付き高齢者向け住宅））】大分県日田市日高町１４７１－１", "url": "https://www.kaigokensaku.mhlw.go.jp/44/index.php?action_kouhyou_detail_004_kani=true&JigyosyoCd=4470400682-00&ServiceCd=&Type=search", "url2": "http://www.care-hidaka.com" }, "geometry": { "type": "Point", "coordinates": [ 130.949246499999987, 33.3033054 ] } }
]
}
