{
"type": "FeatureCollection",
"name": "geo_44_介護老人福祉施設",
"crs": { "type": "name", "properties": { "name": "urn:ogc:def:crs:OGC:1.3:CRS84" } },
"features": [
{ "type": "Feature", "properties": { "内容": "特別養護老人ホーム庄の原苑【介護老人福祉施設】大字荏隈字庄の原1798番地", "url": "https://www.kaigokensaku.mhlw.go.jp/44/index.php?action_kouhyou_detail_004_kani=true&JigyosyoCd=4470101108-00&ServiceCd=510&Type=search", "url2": "shonoharuen.com" }, "geometry": { "type": "Point", "coordinates": [ 131.572964759524552, 33.22184476398067 ] } },
{ "type": "Feature", "properties": { "内容": "特別養護老人ホーム　清流苑【介護老人福祉施設】大分県大分市大字森336番地", "url": "https://www.kaigokensaku.mhlw.go.jp/44/index.php?action_kouhyou_detail_004_kani=true&JigyosyoCd=4470110570-00&ServiceCd=510&Type=search", "url2": "https://seiryu-kyousei.org" }, "geometry": { "type": "Point", "coordinates": [ 131.684882900000048, 33.2222985 ] } },
{ "type": "Feature", "properties": { "内容": "指定介護老人福祉施設清静園【介護老人福祉施設】大分県大分市大字竹中５２６８番地", "url": "https://www.kaigokensaku.mhlw.go.jp/44/index.php?action_kouhyou_detail_004_kani=true&JigyosyoCd=4470101132-00&ServiceCd=510&Type=search", "url2": "http://www.seijyoen.or.jp" }, "geometry": { "type": "Point", "coordinates": [ 131.643722610311897, 33.12849917257391 ] } },
{ "type": "Feature", "properties": { "内容": "特別養護老人ホーム　誠寿園【介護老人福祉施設】大分県大分市大字中戸次6022番地1", "url": "https://www.kaigokensaku.mhlw.go.jp/44/index.php?action_kouhyou_detail_004_kani=true&JigyosyoCd=4470101124-00&ServiceCd=510&Type=search", "url2": "https://seijuen.org" }, "geometry": { "type": "Point", "coordinates": [ 131.654978188422831, 33.156514119088037 ] } },
{ "type": "Feature", "properties": { "内容": "特別養護老人ホーム　そうだ藤の森【介護老人福祉施設】大分県大分市大字寒田202番地", "url": "https://www.kaigokensaku.mhlw.go.jp/44/index.php?action_kouhyou_detail_004_kani=true&JigyosyoCd=4470100852-00&ServiceCd=510&Type=search", "url2": "http://san-ai-kai.or.jp/" }, "geometry": { "type": "Point", "coordinates": [ 131.599707099999932, 33.1743663 ] } },
{ "type": "Feature", "properties": { "内容": "特別養護老人ホーム創生の里【介護老人福祉施設】大分県大分市大字野田３０６番地の２", "url": "https://www.kaigokensaku.mhlw.go.jp/44/index.php?action_kouhyou_detail_004_kani=true&JigyosyoCd=4470101157-00&ServiceCd=510&Type=search", "url2": "http://www.wakakusakai.jp" }, "geometry": { "type": "Point", "coordinates": [ 131.536189700000023, 33.2031772 ] } },
{ "type": "Feature", "properties": { "内容": "特別養護老人ホーム緑風苑【介護老人福祉施設】大分県大分市下郡山の手２番17号", "url": "https://www.kaigokensaku.mhlw.go.jp/44/index.php?action_kouhyou_detail_004_kani=true&JigyosyoCd=4470101181-00&ServiceCd=510&Type=search", "url2": "http://syouzankai-jp/ryokufu-en/" }, "geometry": { "type": "Point", "coordinates": [ 131.628447300000062, 33.2274422 ] } },
{ "type": "Feature", "properties": { "内容": "特別養護老人ホーム柞原の里【介護老人福祉施設】大分県大分市大字八幡320番地の1", "url": "https://www.kaigokensaku.mhlw.go.jp/44/index.php?action_kouhyou_detail_004_kani=true&JigyosyoCd=4470101173-00&ServiceCd=510&Type=search", "url2": "http://yusuhara.org/" }, "geometry": { "type": "Point", "coordinates": [ 131.55838, 33.2337649 ] } },
{ "type": "Feature", "properties": { "内容": "特別養護老人ホームリバーサイド桃花苑【介護老人福祉施設】大分県大分市大字曲字箕久保320番リバーサイド桃花苑", "url": "https://www.kaigokensaku.mhlw.go.jp/44/index.php?action_kouhyou_detail_004_kani=true&JigyosyoCd=4470102130-00&ServiceCd=510&Type=search", "url2": "http://www.riverside-toukaen.jp" }, "geometry": { "type": "Point", "coordinates": [ 131.618428658889712, 33.197932298614681 ] } },
{ "type": "Feature", "properties": { "内容": "特別養護老人ホーム　アルメイダ　メモリアルホーム【介護老人福祉施設】大分県大分市大字宮崎1509番地", "url": "https://www.kaigokensaku.mhlw.go.jp/44/index.php?action_kouhyou_detail_004_kani=true&JigyosyoCd=4470101082-00&ServiceCd=510&Type=search", "url2": "http://almeida-memorial-home.jp/" }, "geometry": { "type": "Point", "coordinates": [ 131.609486699999934, 33.1926708 ] } },
{ "type": "Feature", "properties": { "内容": "特別養護老人ホーム　白水長久苑【介護老人福祉施設】大分県大分市大字横尾字大原１８９７番地２", "url": "https://www.kaigokensaku.mhlw.go.jp/44/index.php?action_kouhyou_detail_004_kani=true&JigyosyoCd=4470101116-00&ServiceCd=510&Type=search", "url2": "https://chokyuen.jp/" }, "geometry": { "type": "Point", "coordinates": [ 131.664696010728449, 33.205081633344086 ] } },
{ "type": "Feature", "properties": { "内容": "特別養護老人ホームアイリスおおいた【介護老人福祉施設】大分県大分市大字横尾4451番地の8", "url": "https://www.kaigokensaku.mhlw.go.jp/44/index.php?action_kouhyou_detail_004_kani=true&JigyosyoCd=4470101678-00&ServiceCd=510&Type=search", "url2": "http://www.niji-iris.com" }, "geometry": { "type": "Point", "coordinates": [ 131.648420631789804, 33.216809704438411 ] } },
{ "type": "Feature", "properties": { "内容": "特別養護老人ホーム百華苑【介護老人福祉施設】大分県大分市大字東上野字五両１８００番地", "url": "https://www.kaigokensaku.mhlw.go.jp/44/index.php?action_kouhyou_detail_004_kani=true&JigyosyoCd=4470101165-00&ServiceCd=510&Type=search", "url2": "http//www.hyakkaen/or.jp/" }, "geometry": { "type": "Point", "coordinates": [ 131.7712305, 33.2293831 ] } },
{ "type": "Feature", "properties": { "内容": "特別養護老人ホーム寿志の里【介護老人福祉施設】大分県大分市大字中判田１３４２番地の３", "url": "https://www.kaigokensaku.mhlw.go.jp/44/index.php?action_kouhyou_detail_004_kani=true&JigyosyoCd=4470104201-00&ServiceCd=510&Type=search", "url2": "http://jyushinosato.com/" }, "geometry": { "type": "Point", "coordinates": [ 131.626694300000054, 33.1675018 ] } },
{ "type": "Feature", "properties": { "内容": "特別養護老人ホーム玉光苑【介護老人福祉施設】大分県大分市大字市459番地", "url": "https://www.kaigokensaku.mhlw.go.jp/44/index.php?action_kouhyou_detail_004_kani=true&JigyosyoCd=4470101090-00&ServiceCd=510&Type=search", "url2": "http://gyokkouen.com/" }, "geometry": { "type": "Point", "coordinates": [ 131.570482137918702, 33.18858909820193 ] } },
{ "type": "Feature", "properties": { "内容": "特別養護老人ホーム　和泉荘【介護老人福祉施設】大分県大分市大字竹矢1024番地の1", "url": "https://www.kaigokensaku.mhlw.go.jp/44/index.php?action_kouhyou_detail_004_kani=true&JigyosyoCd=4472300328-00&ServiceCd=510&Type=search", "url2": "http://izumisou.com/" }, "geometry": { "type": "Point", "coordinates": [ 131.506968899999947, 33.1550543 ] } },
{ "type": "Feature", "properties": { "内容": "特別養護老人ホーム光明園【介護老人福祉施設】大分県大分市大字志生木字西岡145-9", "url": "https://www.kaigokensaku.mhlw.go.jp/44/index.php?action_kouhyou_detail_004_kani=true&JigyosyoCd=4472400243-00&ServiceCd=510&Type=search", "url2": "http://www.koumyouen.or.jp/" }, "geometry": { "type": "Point", "coordinates": [ 131.832936509509295, 33.245067657659781 ] } },
{ "type": "Feature", "properties": { "内容": "特別養護老人ホーム　友和苑【介護老人福祉施設】大分県別府市亀川東町8番20号", "url": "https://www.kaigokensaku.mhlw.go.jp/44/index.php?action_kouhyou_detail_004_kani=true&JigyosyoCd=4470202302-00&ServiceCd=510&Type=search", "url2": "http://www.housinkai.life/" }, "geometry": { "type": "Point", "coordinates": [ 131.497477200000048, 33.3245716 ] } },
{ "type": "Feature", "properties": { "内容": "特別養護老人ホーム　石垣一燈園【介護老人福祉施設】大分県別府市石垣東3丁目726番地", "url": "https://www.kaigokensaku.mhlw.go.jp/44/index.php?action_kouhyou_detail_004_kani=true&JigyosyoCd=4470201338-00&ServiceCd=510&Type=search", "url2": "http://www.ittouen.or.jp" }, "geometry": { "type": "Point", "coordinates": [ 131.497902299999964, 33.2928051 ] } },
{ "type": "Feature", "properties": { "内容": "特別養護老人ホーム一燈園【介護老人福祉施設】大分県別府市大字南立石３７１番地（堀田４組）", "url": "https://www.kaigokensaku.mhlw.go.jp/44/index.php?action_kouhyou_detail_004_kani=true&JigyosyoCd=4470200488-00&ServiceCd=510&Type=search", "url2": "http://www.ittouen.or.jp" }, "geometry": { "type": "Point", "coordinates": [ 131.455874520193447, 33.294010328665131 ] } },
{ "type": "Feature", "properties": { "内容": "特別養護老人ホーム茶寿苑【介護老人福祉施設】大分県別府市大字鉄輪1050番地", "url": "https://www.kaigokensaku.mhlw.go.jp/44/index.php?action_kouhyou_detail_004_kani=true&JigyosyoCd=4470200496-00&ServiceCd=510&Type=search", "url2": "http://sajuen.jp/" }, "geometry": { "type": "Point", "coordinates": [ 131.478642700000023, 33.3173914 ] } },
{ "type": "Feature", "properties": { "内容": "ナーシングホームはるかぜ【介護老人福祉施設】大分県別府市大字鶴見字前畑3841番地の1", "url": "https://www.kaigokensaku.mhlw.go.jp/44/index.php?action_kouhyou_detail_004_kani=true&JigyosyoCd=4470200512-00&ServiceCd=510&Type=search", "url2": "http://www.harukaze.or.jp" }, "geometry": { "type": "Point", "coordinates": [ 131.478814985566743, 33.299731569273739 ] } },
{ "type": "Feature", "properties": { "内容": "別府ナーシングホーム泰生園【介護老人福祉施設】別府市大字鶴見字中山田1068番地の1", "url": "https://www.kaigokensaku.mhlw.go.jp/44/index.php?action_kouhyou_detail_004_kani=true&JigyosyoCd=4470200520-00&ServiceCd=510&Type=search", "url2": "http://www.wellb.or.jp/" }, "geometry": { "type": "Point", "coordinates": [ 131.4808481, 33.3017985 ] } },
{ "type": "Feature", "properties": { "内容": "特別養護老人ホーム和幸苑【介護老人福祉施設】大分県別府市大字野田1494番地の１", "url": "https://www.kaigokensaku.mhlw.go.jp/44/index.php?action_kouhyou_detail_004_kani=true&JigyosyoCd=4470200538-00&ServiceCd=510&Type=search", "url2": "http://www.housinkai.life/" }, "geometry": { "type": "Point", "coordinates": [ 131.4760652, 33.3254711 ] } },
{ "type": "Feature", "properties": { "内容": "特別養護老人ホーム静雲荘【介護老人福祉施設】大分県別府市大字野田字サッショウ原1293番地の1", "url": "https://www.kaigokensaku.mhlw.go.jp/44/index.php?action_kouhyou_detail_004_kani=true&JigyosyoCd=4470200504-00&ServiceCd=510&Type=search", "url2": "http://seiunso.com/" }, "geometry": { "type": "Point", "coordinates": [ 131.453834535168426, 33.323137065880843 ] } },
{ "type": "Feature", "properties": { "内容": "特別養護老人ホーム　楼蘭【介護老人福祉施設】大分県別府市小倉町29番23号", "url": "https://www.kaigokensaku.mhlw.go.jp/44/index.php?action_kouhyou_detail_004_kani=true&JigyosyoCd=4470202807-00&ServiceCd=510&Type=search", "url2": "http://rouran-beppu.com/" }, "geometry": { "type": "Point", "coordinates": [ 131.465193157672161, 33.307285342385072 ] } },
{ "type": "Feature", "properties": { "内容": "特別養護老人ホーム　むくの木【介護老人福祉施設】大分県中津市大字上宮永348番地", "url": "https://www.kaigokensaku.mhlw.go.jp/44/index.php?action_kouhyou_detail_004_kani=true&JigyosyoCd=4470300940-00&ServiceCd=510&Type=search", "url2": "http://www.mukunoki-kenseikai.jp/" }, "geometry": { "type": "Point", "coordinates": [ 131.185453, 33.5856249 ] } },
{ "type": "Feature", "properties": { "内容": "特別養護老人ホーム　悠久の里【介護老人福祉施設】大分県中津市永添945番地", "url": "https://www.kaigokensaku.mhlw.go.jp/44/index.php?action_kouhyou_detail_004_kani=true&JigyosyoCd=4470300361-00&ServiceCd=510&Type=search", "url2": "http://yukyunosato.org/" }, "geometry": { "type": "Point", "coordinates": [ 131.2117872, 33.5738218 ] } },
{ "type": "Feature", "properties": { "内容": "特別養護老人ホームいずみの園ヨハネ館【介護老人福祉施設】大分県中津市大字永添2744番地", "url": "https://www.kaigokensaku.mhlw.go.jp/44/index.php?action_kouhyou_detail_004_kani=true&JigyosyoCd=4470301112-00&ServiceCd=510&Type=search", "url2": "http://www.izuminosono.jp" }, "geometry": { "type": "Point", "coordinates": [ 131.199061412251126, 33.560917699125469 ] } },
{ "type": "Feature", "properties": { "内容": "特別養護老人ホームいずみの園【介護老人福祉施設】大分県中津市大字永添2744番地", "url": "https://www.kaigokensaku.mhlw.go.jp/44/index.php?action_kouhyou_detail_004_kani=true&JigyosyoCd=4470300189-00&ServiceCd=510&Type=search", "url2": "http://www.izuminosono.jp/" }, "geometry": { "type": "Point", "coordinates": [ 131.199067111945283, 33.560913228963621 ] } },
{ "type": "Feature", "properties": { "内容": "特別養護老人ホーム望箭荘【介護老人福祉施設】大分県中津市三光森山８５１番地", "url": "https://www.kaigokensaku.mhlw.go.jp/44/index.php?action_kouhyou_detail_004_kani=true&JigyosyoCd=4473000216-00&ServiceCd=510&Type=search", "url2": "http://www.chokusin.jp/" }, "geometry": { "type": "Point", "coordinates": [ 131.21956990000001, 33.5474365 ] } },
{ "type": "Feature", "properties": { "内容": "中津市特別養護老人ホームやすらぎ荘【介護老人福祉施設】中津市耶馬溪町大字樋山路1番地1", "url": "https://www.kaigokensaku.mhlw.go.jp/44/index.php?action_kouhyou_detail_004_kani=true&JigyosyoCd=4473000067-00&ServiceCd=510&Type=search", "url2": "http://www.nakatsu-s.or.jp/" }, "geometry": { "type": "Point", "coordinates": [ 131.0975942, 33.4305321 ] } },
{ "type": "Feature", "properties": { "内容": "特別養護老人ホーム　ひた翠明館【介護老人福祉施設】大字求来里607番地5", "url": "https://www.kaigokensaku.mhlw.go.jp/44/index.php?action_kouhyou_detail_004_kani=true&JigyosyoCd=4470400906-00&ServiceCd=510&Type=search", "url2": "http://www.suimei.or.jp" }, "geometry": { "type": "Point", "coordinates": [ 130.960003599999965, 33.312960600000025 ] } },
{ "type": "Feature", "properties": { "内容": "特別養護老人ホーム中ノ島園【介護老人福祉施設】大分県日田市大字庄手字大釣685番地の16", "url": "https://www.kaigokensaku.mhlw.go.jp/44/index.php?action_kouhyou_detail_004_kani=true&JigyosyoCd=4470400260-00&ServiceCd=510&Type=search", "url2": "http://www.suimei.or.jp" }, "geometry": { "type": "Point", "coordinates": [ 130.916963951566117, 33.312467684288677 ] } },
{ "type": "Feature", "properties": { "内容": "特別養護老人ホーム　敬天荘【介護老人福祉施設】大分県日田市天瀬町女子畑２３４番地", "url": "https://www.kaigokensaku.mhlw.go.jp/44/index.php?action_kouhyou_detail_004_kani=true&JigyosyoCd=4470400880-00&ServiceCd=510&Type=search", "url2": "http://suimei.or.jp" }, "geometry": { "type": "Point", "coordinates": [ 130.964828799999964, 33.2898613 ] } },
{ "type": "Feature", "properties": { "内容": "特別養護老人ホーム喜楽苑【介護老人福祉施設】大分県日田市天瀬町桜竹1115-87", "url": "https://www.kaigokensaku.mhlw.go.jp/44/index.php?action_kouhyou_detail_004_kani=true&JigyosyoCd=4470401185-00&ServiceCd=510&Type=search", "url2": "https://www.kiraku-en.or.jp/" }, "geometry": { "type": "Point", "coordinates": [ 131.011878799999977, 33.2425558 ] } },
{ "type": "Feature", "properties": { "内容": "特別養護老人ホーム日田園ユニット【介護老人福祉施設】大分県日田市大字石井字池ノ瀬271番地の2", "url": "https://www.kaigokensaku.mhlw.go.jp/44/index.php?action_kouhyou_detail_004_kani=true&JigyosyoCd=4470401334-00&ServiceCd=510&Type=search", "url2": "http://www.hitaen.jp/" }, "geometry": { "type": "Point", "coordinates": [ 130.912035324359067, 33.312580614780238 ] } },
{ "type": "Feature", "properties": { "内容": "特別養護老人ホーム日田園【介護老人福祉施設】大分県日田市大字石井字池ノ瀬271番地の2", "url": "https://www.kaigokensaku.mhlw.go.jp/44/index.php?action_kouhyou_detail_004_kani=true&JigyosyoCd=4470400278-00&ServiceCd=510&Type=search", "url2": "http://hitaen.jp/" }, "geometry": { "type": "Point", "coordinates": [ 130.911987044596799, 33.312571648833163 ] } },
{ "type": "Feature", "properties": { "内容": "とくべつようごろうじんほーむ　かげつえん【介護老人福祉施設】大分県日田市日ノ出町156番地", "url": "https://www.kaigokensaku.mhlw.go.jp/44/index.php?action_kouhyou_detail_004_kani=true&JigyosyoCd=4470400252-00&ServiceCd=510&Type=search", "url2": "http://www.kagetsuen-swc.com/kagetsuentop.htm" }, "geometry": { "type": "Point", "coordinates": [ 130.939713, 33.3347398 ] } },
{ "type": "Feature", "properties": { "内容": "特別養護老人ホーム喜楽苑【介護老人福祉施設】大分県日田市天瀬町桜竹1115-87", "url": "https://www.kaigokensaku.mhlw.go.jp/44/index.php?action_kouhyou_detail_004_kani=true&JigyosyoCd=4472900168-00&ServiceCd=510&Type=search", "url2": "https://www.kiraku-en.or.jp/" }, "geometry": { "type": "Point", "coordinates": [ 131.011878799999977, 33.2425558 ] } },
{ "type": "Feature", "properties": { "内容": "佐伯市特別養護老人ホーム豊寿苑【介護老人福祉施設】大分県佐伯市弥生大字井崎1765番地", "url": "https://www.kaigokensaku.mhlw.go.jp/44/index.php?action_kouhyou_detail_004_kani=true&JigyosyoCd=4472500182-00&ServiceCd=510&Type=search", "url2": "http://sashakyo.or.jp" }, "geometry": { "type": "Point", "coordinates": [ 131.848402299999947, 32.9784082 ] } },
{ "type": "Feature", "properties": { "内容": "特別養護老人ホームはまゆう【介護老人福祉施設】大分県佐伯市蒲江大字蒲江浦１３４４番地１", "url": "https://www.kaigokensaku.mhlw.go.jp/44/index.php?action_kouhyou_detail_004_kani=true&JigyosyoCd=4472500208-00&ServiceCd=510&Type=search", "url2": "http://www.saiki.tv/~kamae-1886/" }, "geometry": { "type": "Point", "coordinates": [ 131.941476700000067, 32.8040462 ] } },
{ "type": "Feature", "properties": { "内容": "特別養護老人ホームはまゆう【介護老人福祉施設】大分県佐伯市蒲江大字蒲江浦１３４４番地１", "url": "https://www.kaigokensaku.mhlw.go.jp/44/index.php?action_kouhyou_detail_004_kani=true&JigyosyoCd=4470501497-00&ServiceCd=510&Type=search", "url2": "http://www.saiki.tv/~kamae-1886/" }, "geometry": { "type": "Point", "coordinates": [ 131.941476700000067, 32.8040462 ] } },
{ "type": "Feature", "properties": { "内容": "特別養護老人ホーム直川苑【介護老人福祉施設】大分県佐伯市直川大字仁田原1962番地1", "url": "https://www.kaigokensaku.mhlw.go.jp/44/index.php?action_kouhyou_detail_004_kani=true&JigyosyoCd=4472500190-00&ServiceCd=510&Type=search", "url2": "http://www.naokawaen.com/" }, "geometry": { "type": "Point", "coordinates": [ 131.757325600000058, 32.8786413 ] } },
{ "type": "Feature", "properties": { "内容": "特別養護老人ホーム直川苑（ユニット型）【介護老人福祉施設】大分県佐伯市直川大字仁田原1962-1", "url": "https://www.kaigokensaku.mhlw.go.jp/44/index.php?action_kouhyou_detail_004_kani=true&JigyosyoCd=4470501471-00&ServiceCd=510&Type=search", "url2": "http://www.naokawaen.com/" }, "geometry": { "type": "Point", "coordinates": [ 131.757325600000058, 32.8786413 ] } },
{ "type": "Feature", "properties": { "内容": "特別養護老人ホーム　花みずき【介護老人福祉施設】大分県佐伯市大字池田1699番地の7", "url": "https://www.kaigokensaku.mhlw.go.jp/44/index.php?action_kouhyou_detail_004_kani=true&JigyosyoCd=4470500150-00&ServiceCd=510&Type=search", "url2": "http://www.nagato.or.jp/facilities/kaigo-hanamizuki.html" }, "geometry": { "type": "Point", "coordinates": [ 131.89628330000005, 32.9459492 ] } },
{ "type": "Feature", "properties": { "内容": "特別養護老人ホーム長良苑【介護老人福祉施設】大分県佐伯市大字長良4956番地", "url": "https://www.kaigokensaku.mhlw.go.jp/44/index.php?action_kouhyou_detail_004_kani=true&JigyosyoCd=4470500143-00&ServiceCd=510&Type=search", "url2": "ｈｔｔｐ://ｒ．ｇｏｏｐｅ．ｊｐ/ｃｈｏｙｏｋａｉ" }, "geometry": { "type": "Point", "coordinates": [ 131.911496100000022, 32.9360786 ] } },
{ "type": "Feature", "properties": { "内容": "特別養護老人ホーム四季の郷【介護老人福祉施設】大字江無田1119番地の5", "url": "https://www.kaigokensaku.mhlw.go.jp/44/index.php?action_kouhyou_detail_004_kani=true&JigyosyoCd=4470600190-00&ServiceCd=510&Type=search", "url2": "http://i-mizuho.net" }, "geometry": { "type": "Point", "coordinates": [ 131.77827149999996, 33.1240606 ] } },
{ "type": "Feature", "properties": { "内容": "特別養護老人ホーム　緑の園【介護老人福祉施設】大分県臼杵市大字大泊２２０番地", "url": "https://www.kaigokensaku.mhlw.go.jp/44/index.php?action_kouhyou_detail_004_kani=true&JigyosyoCd=4470600208-00&ServiceCd=510&Type=search", "url2": "http://fuku-doushinkai.or.jp/midori.html" }, "geometry": { "type": "Point", "coordinates": [ 131.834949700000038, 33.118069 ] } },
{ "type": "Feature", "properties": { "内容": "特別養護老人ホーム　栄寿荘【介護老人福祉施設】大分県臼杵市野津町大字落谷５３０番地", "url": "https://www.kaigokensaku.mhlw.go.jp/44/index.php?action_kouhyou_detail_004_kani=true&JigyosyoCd=4472600438-00&ServiceCd=510&Type=search", "url2": "http://www.eijuso.or.jp/" }, "geometry": { "type": "Point", "coordinates": [ 131.70487479999997, 33.0202797 ] } },
{ "type": "Feature", "properties": { "内容": "特別養護老人ホーム　しおさい【介護老人福祉施設】大分県津久見市大字長目2715番地の5", "url": "https://www.kaigokensaku.mhlw.go.jp/44/index.php?action_kouhyou_detail_004_kani=true&JigyosyoCd=4470700180-00&ServiceCd=510&Type=search", "url2": "http://fuku-doushinkai.or.jp" }, "geometry": { "type": "Point", "coordinates": [ 131.8861293, 33.1110795 ] } },
{ "type": "Feature", "properties": { "内容": "特別養護老人ホーム白梅荘【介護老人福祉施設】大分県津久見市徳浦宮町420番地", "url": "https://www.kaigokensaku.mhlw.go.jp/44/index.php?action_kouhyou_detail_004_kani=true&JigyosyoCd=4470700065-00&ServiceCd=510&Type=search", "url2": "http://www.shiraume-fukushikai.com/" }, "geometry": { "type": "Point", "coordinates": [ 131.850849599999947, 33.0911334 ] } },
{ "type": "Feature", "properties": { "内容": "特別養護老人ホーム　美晴が丘【介護老人福祉施設】大分県竹田市直入町大字長湯9067番地4", "url": "https://www.kaigokensaku.mhlw.go.jp/44/index.php?action_kouhyou_detail_004_kani=true&JigyosyoCd=4472700196-00&ServiceCd=510&Type=search", "url2": "http://www.miharugaoka.com/" }, "geometry": { "type": "Point", "coordinates": [ 131.383855899999958, 33.082601 ] } },
{ "type": "Feature", "properties": { "内容": "特別養護老人ホーム久住荘【介護老人福祉施設】大分県竹田市久住町大字久住6485番地1", "url": "https://www.kaigokensaku.mhlw.go.jp/44/index.php?action_kouhyou_detail_004_kani=true&JigyosyoCd=4472700089-00&ServiceCd=510&Type=search", "url2": null }, "geometry": { "type": "Point", "coordinates": [ 131.297365200000058, 33.0204936 ] } },
{ "type": "Feature", "properties": { "内容": "特別養護老人ホーム　悠々居【介護老人福祉施設】大分県竹田市大字三宅1763番地1", "url": "https://www.kaigokensaku.mhlw.go.jp/44/index.php?action_kouhyou_detail_004_kani=true&JigyosyoCd=4470800071-00&ServiceCd=510&Type=search", "url2": "https://yuyukyo.com" }, "geometry": { "type": "Point", "coordinates": [ 131.413924586508188, 32.991186875653462 ] } },
{ "type": "Feature", "properties": { "内容": "特別養護老人ホーム　真寿苑【介護老人福祉施設】大分県豊後高田市臼野４２９８番地３", "url": "https://www.kaigokensaku.mhlw.go.jp/44/index.php?action_kouhyou_detail_004_kani=true&JigyosyoCd=4470900285-00&ServiceCd=510&Type=search", "url2": "http://www.shinjuen.jp/" }, "geometry": { "type": "Point", "coordinates": [ 131.477346799999964, 33.630806 ] } },
{ "type": "Feature", "properties": { "内容": "特別養護老人ホームやすらぎの里【介護老人福祉施設】大分県豊後高田市呉崎755-1", "url": "https://www.kaigokensaku.mhlw.go.jp/44/index.php?action_kouhyou_detail_004_kani=true&JigyosyoCd=4470900095-00&ServiceCd=510&Type=search", "url2": "https://s-yasuragi.org" }, "geometry": { "type": "Point", "coordinates": [ 131.432146200000034, 33.5759609 ] } },
{ "type": "Feature", "properties": { "内容": "特別養護老人ホーム　心助園【介護老人福祉施設】大分県杵築市大字熊野1427-1", "url": "https://www.kaigokensaku.mhlw.go.jp/44/index.php?action_kouhyou_detail_004_kani=true&JigyosyoCd=4471000259-00&ServiceCd=510&Type=search", "url2": "http//isshinkai-oita-kitsuki.jp/" }, "geometry": { "type": "Point", "coordinates": [ 131.633335799999941, 33.3911843 ] } },
{ "type": "Feature", "properties": { "内容": "特別養護老人ホーム瑞雲荘【介護老人福祉施設】大分県杵築市大田沓掛2373番地", "url": "https://www.kaigokensaku.mhlw.go.jp/44/index.php?action_kouhyou_detail_004_kani=true&JigyosyoCd=4471000432-00&ServiceCd=510&Type=search", "url2": "https://note.com/himawari10616" }, "geometry": { "type": "Point", "coordinates": [ 131.552528039286813, 33.49883700443749 ] } },
{ "type": "Feature", "properties": { "内容": "ユニット型特別養護老人ホーム　菩提樹【介護老人福祉施設】大分県杵築市大字日野1921番地15", "url": "https://www.kaigokensaku.mhlw.go.jp/44/index.php?action_kouhyou_detail_004_kani=true&JigyosyoCd=4471000150-00&ServiceCd=510&Type=search", "url2": "http://www.minorimura.or.jp/" }, "geometry": { "type": "Point", "coordinates": [ 131.596679600000016, 33.3941416 ] } },
{ "type": "Feature", "properties": { "内容": "特別養護老人ホーム　太陽の家広寿苑【介護老人福祉施設】大分県杵築市山香町野原１６６２番１", "url": "https://www.kaigokensaku.mhlw.go.jp/44/index.php?action_kouhyou_detail_004_kani=true&JigyosyoCd=4471000580-00&ServiceCd=510&Type=search", "url2": "http://www.taiyonoie.or.jp" }, "geometry": { "type": "Point", "coordinates": [ 131.506867442713826, 33.446250400870234 ] } },
{ "type": "Feature", "properties": { "内容": "特別養護老人ホ－ム　太陽の家広寿苑【介護老人福祉施設】大分県杵築市山香町野原1662番1", "url": "https://www.kaigokensaku.mhlw.go.jp/44/index.php?action_kouhyou_detail_004_kani=true&JigyosyoCd=4471000598-00&ServiceCd=510&Type=search", "url2": "http://www.taiyounoie.or.jp" }, "geometry": { "type": "Point", "coordinates": [ 131.506808434115527, 33.446259353045207 ] } },
{ "type": "Feature", "properties": { "内容": "宇佐市立特別養護老人ホーム妙見荘【介護老人福祉施設】大分県宇佐市院内町御沓488-1", "url": "https://www.kaigokensaku.mhlw.go.jp/44/index.php?action_kouhyou_detail_004_kani=true&JigyosyoCd=4473100065-00&ServiceCd=510&Type=search", "url2": "http://mezura.jp/" }, "geometry": { "type": "Point", "coordinates": [ 131.32515, 33.453079100000018 ] } },
{ "type": "Feature", "properties": { "内容": "特別養護老人ホーム妻垣荘【介護老人福祉施設】大分県宇佐市安心院町妻垣401番地", "url": "https://www.kaigokensaku.mhlw.go.jp/44/index.php?action_kouhyou_detail_004_kani=true&JigyosyoCd=4473100073-00&ServiceCd=510&Type=search", "url2": "http://care-net.biz/44/tumagaki" }, "geometry": { "type": "Point", "coordinates": [ 131.363286199999948, 33.4287233 ] } },
{ "type": "Feature", "properties": { "内容": "特別養護老人ホーム　宇水園【介護老人福祉施設】大分県宇佐市辛島299番地の2", "url": "https://www.kaigokensaku.mhlw.go.jp/44/index.php?action_kouhyou_detail_004_kani=true&JigyosyoCd=4471100190-00&ServiceCd=510&Type=search", "url2": "http://www.usuien.org/" }, "geometry": { "type": "Point", "coordinates": [ 131.337752829608121, 33.532444817028491 ] } },
{ "type": "Feature", "properties": { "内容": "宇佐ナーシングホーム泰生園【介護老人福祉施設】大分県宇佐市大字山下字下坂本２１００番地", "url": "https://www.kaigokensaku.mhlw.go.jp/44/index.php?action_kouhyou_detail_004_kani=true&JigyosyoCd=4471100182-00&ServiceCd=510&Type=search", "url2": "http://www.wellb.or.jp/usa/index.html" }, "geometry": { "type": "Point", "coordinates": [ 131.305461447312922, 33.535192266644074 ] } },
{ "type": "Feature", "properties": { "内容": "特別養護老人ホーム　紫雲荘【介護老人福祉施設】三重町本城2050番地", "url": "https://www.kaigokensaku.mhlw.go.jp/44/index.php?action_kouhyou_detail_004_kani=true&JigyosyoCd=4472600446-00&ServiceCd=510&Type=search", "url2": "http://siunkai.com/" }, "geometry": { "type": "Point", "coordinates": [ 131.57167359999994, 32.9721669 ] } },
{ "type": "Feature", "properties": { "内容": "特別養護老人ホーム任運荘【介護老人福祉施設】大分県豊後大野市緒方町馬場796-1", "url": "https://www.kaigokensaku.mhlw.go.jp/44/index.php?action_kouhyou_detail_004_kani=true&JigyosyoCd=4472600453-00&ServiceCd=510&Type=search", "url2": "http://ninun.or.jp" }, "geometry": { "type": "Point", "coordinates": [ 131.47791170000005, 32.9742163 ] } },
{ "type": "Feature", "properties": { "内容": "特別養護老人ホーム　偕生園【介護老人福祉施設】大分県豊後大野市大野町田中７００番地２", "url": "https://www.kaigokensaku.mhlw.go.jp/44/index.php?action_kouhyou_detail_004_kani=true&JigyosyoCd=4472600461-00&ServiceCd=510&Type=search", "url2": "http://www.kaiseien-bungo-ohno.com/" }, "geometry": { "type": "Point", "coordinates": [ 131.493298, 33.0379578 ] } },
{ "type": "Feature", "properties": { "内容": "特別養護老人ホーム情和園【介護老人福祉施設】大分県由布市庄内町西長宝870番地1", "url": "https://www.kaigokensaku.mhlw.go.jp/44/index.php?action_kouhyou_detail_004_kani=true&JigyosyoCd=4472300344-00&ServiceCd=510&Type=search", "url2": "http://www.jyowaen.com/" }, "geometry": { "type": "Point", "coordinates": [ 131.442279738623, 33.196158132060823 ] } },
{ "type": "Feature", "properties": { "内容": "特別養護老人ホーム若葉苑【介護老人福祉施設】大分県由布市挾間町向原1215番地2", "url": "https://www.kaigokensaku.mhlw.go.jp/44/index.php?action_kouhyou_detail_004_kani=true&JigyosyoCd=4472300336-00&ServiceCd=510&Type=search", "url2": "http://cere-net.biz/44wakabaen/" }, "geometry": { "type": "Point", "coordinates": [ 131.502917600000046, 33.1964659 ] } },
{ "type": "Feature", "properties": { "内容": "ユニット型特別養護老人ホーム白心荘【介護老人福祉施設】大分県由布市湯布院町川北１３５４番地１３", "url": "https://www.kaigokensaku.mhlw.go.jp/44/index.php?action_kouhyou_detail_004_kani=true&JigyosyoCd=4471300402-00&ServiceCd=510&Type=search", "url2": "http://hakushinsou.com/" }, "geometry": { "type": "Point", "coordinates": [ 131.335398400000031, 33.2595206 ] } },
{ "type": "Feature", "properties": { "内容": "特別養護老人ホーム　白心荘【介護老人福祉施設】大分県由布市湯布院町川北１３５４番地１３", "url": "https://www.kaigokensaku.mhlw.go.jp/44/index.php?action_kouhyou_detail_004_kani=true&JigyosyoCd=4472300369-00&ServiceCd=510&Type=search", "url2": "http://hakushinsou.com/" }, "geometry": { "type": "Point", "coordinates": [ 131.335398400000031, 33.2595206 ] } },
{ "type": "Feature", "properties": { "内容": "温水園【介護老人福祉施設】大分県由布市湯布院町川北1964", "url": "https://www.kaigokensaku.mhlw.go.jp/44/index.php?action_kouhyou_detail_004_kani=true&JigyosyoCd=4472300351-00&ServiceCd=510&Type=search", "url2": "nukumien@basil.ocn.ne.jp" }, "geometry": { "type": "Point", "coordinates": [ 131.336745800000017, 33.2485103 ] } },
{ "type": "Feature", "properties": { "内容": "特別養護老人ホーム　むさし苑【介護老人福祉施設】大分県国東市武蔵町糸原2368番地1", "url": "https://www.kaigokensaku.mhlw.go.jp/44/index.php?action_kouhyou_detail_004_kani=true&JigyosyoCd=4471400137-00&ServiceCd=510&Type=search", "url2": "http://www.oct-net.ne.jp/~akisato/" }, "geometry": { "type": "Point", "coordinates": [ 131.715871399999969, 33.4908047 ] } },
{ "type": "Feature", "properties": { "内容": "特別養護老人ホーム　姫見苑【介護老人福祉施設】大分県国東市国見町伊美3785番地", "url": "https://www.kaigokensaku.mhlw.go.jp/44/index.php?action_kouhyou_detail_004_kani=true&JigyosyoCd=4471400350-00&ServiceCd=510&Type=search", "url2": "http://www.horita.or.jp/himemien/" }, "geometry": { "type": "Point", "coordinates": [ 131.604245306745923, 33.683101614221862 ] } },
{ "type": "Feature", "properties": { "内容": "特別養護老人ホーム　くにさきの郷【介護老人福祉施設】大分県国東市国東町浜崎2757-16", "url": "https://www.kaigokensaku.mhlw.go.jp/44/index.php?action_kouhyou_detail_004_kani=true&JigyosyoCd=4472100587-00&ServiceCd=510&Type=search", "url2": "https://www.kunisakinosato.com/" }, "geometry": { "type": "Point", "coordinates": [ 131.717778899999985, 33.5892163 ] } },
{ "type": "Feature", "properties": { "内容": "特別養護老人ホーム鈴鳴荘【介護老人福祉施設】大分県国東市安岐町下山口58番地", "url": "https://www.kaigokensaku.mhlw.go.jp/44/index.php?action_kouhyou_detail_004_kani=true&JigyosyoCd=4472100264-00&ServiceCd=510&Type=search", "url2": "http://www.oct-net.ne.jp/~akisato/" }, "geometry": { "type": "Point", "coordinates": [ 131.691195900000025, 33.4607761 ] } },
{ "type": "Feature", "properties": { "内容": "特別養護老人ホーム暘谷苑【介護老人福祉施設】大分県速見郡日出町大字藤原5708番地の3", "url": "https://www.kaigokensaku.mhlw.go.jp/44/index.php?action_kouhyou_detail_004_kani=true&JigyosyoCd=4472200189-00&ServiceCd=510&Type=search", "url2": "http://www.youkoku.or.jp/" }, "geometry": { "type": "Point", "coordinates": [ 131.552683600000023, 33.3964216 ] } },
{ "type": "Feature", "properties": { "内容": "介護老人福祉施設　シルバーランドメルヘン【介護老人福祉施設】大分県玖珠郡九重町大字右田3156番地の7", "url": "https://www.kaigokensaku.mhlw.go.jp/44/index.php?action_kouhyou_detail_004_kani=true&JigyosyoCd=4472800152-00&ServiceCd=510&Type=search", "url2": "http://www.daijyukai-meruhen.com" }, "geometry": { "type": "Point", "coordinates": [ 131.174532799999952, 33.2522023 ] } },
{ "type": "Feature", "properties": { "内容": "特別養護老人ホーム玖珠園【介護老人福祉施設】大分県玖珠郡玖珠町大字大隈325番地", "url": "https://www.kaigokensaku.mhlw.go.jp/44/index.php?action_kouhyou_detail_004_kani=true&JigyosyoCd=4472800160-00&ServiceCd=510&Type=search", "url2": "http://www.kusuen.or.jp" }, "geometry": { "type": "Point", "coordinates": [ 131.166860400000019, 33.2704004 ] } },
{ "type": "Feature", "properties": { "内容": "共生の里メルヘン【介護老人福祉施設】大分県玖珠郡玖珠町大字帆足2189-1", "url": "https://www.kaigokensaku.mhlw.go.jp/44/index.php?action_kouhyou_detail_004_kani=true&JigyosyoCd=4472800459-00&ServiceCd=510&Type=search", "url2": "http://www.daijyukai-meruhen.com" }, "geometry": { "type": "Point", "coordinates": [ 131.158379400000058, 33.2926065 ] } }
]
}
