{
"type": "FeatureCollection",
"name": "geo_44_訪問看護",
"crs": { "type": "name", "properties": { "name": "urn:ogc:def:crs:OGC:1.3:CRS84" } },
"features": [
{ "type": "Feature", "properties": { "内容": "Greenガーデン訪問看護ステーション【訪問看護】上田町三丁目3番4号チュリス古国府壱番館111号", "url": "https://www.kaigokensaku.mhlw.go.jp/44/index.php?action_kouhyou_detail_004_kani=true&JigyosyoCd=4460190962-00&ServiceCd=130&Type=search", "url2": null }, "geometry": { "type": "Point", "coordinates": [ 131.60272323856239, 33.216982678063594 ] } },
{ "type": "Feature", "properties": { "内容": "ルルケア訪問看護ステーション【訪問看護】大分市古ヶ鶴1丁目11-30ベルデイン古ケ鶴103", "url": "https://www.kaigokensaku.mhlw.go.jp/44/index.php?action_kouhyou_detail_004_kani=true&JigyosyoCd=4460190988-00&ServiceCd=130&Type=search", "url2": "lulucarehomonkangostation.com" }, "geometry": { "type": "Point", "coordinates": [ 131.632422, 33.239206126515377 ] } },
{ "type": "Feature", "properties": { "内容": "訪問看護ステーション言の葉【訪問看護】大分県大分市富士見が丘西１丁目３−１第一グリーンプラザビル２F-北A号", "url": "https://www.kaigokensaku.mhlw.go.jp/44/index.php?action_kouhyou_detail_004_kani=true&JigyosyoCd=4460191044-00&ServiceCd=130&Type=search", "url2": "https://habisapo.jp/kango/" }, "geometry": { "type": "Point", "coordinates": [ 131.5431723, 33.1820168 ] } },
{ "type": "Feature", "properties": { "内容": "訪問看護　結心【訪問看護】大分県大分市大字羽田17組コーポ秋月102", "url": "https://www.kaigokensaku.mhlw.go.jp/44/index.php?action_kouhyou_detail_004_kani=true&JigyosyoCd=4460191317-00&ServiceCd=130&Type=search", "url2": null }, "geometry": { "type": "Point", "coordinates": [ 131.6323636, 33.2176982 ] } },
{ "type": "Feature", "properties": { "内容": "訪問看護ステーション　夢咲き【訪問看護】萩原1丁目8-34", "url": "https://www.kaigokensaku.mhlw.go.jp/44/index.php?action_kouhyou_detail_004_kani=true&JigyosyoCd=4460190756-00&ServiceCd=130&Type=search", "url2": null }, "geometry": { "type": "Point", "coordinates": [ 131.640202194146184, 33.242266795820832 ] } },
{ "type": "Feature", "properties": { "内容": "訪問看護ステーションビートルズ【訪問看護】大分県大分市城崎町２丁目２－２９アルバクレスタ城崎１０２", "url": "https://www.kaigokensaku.mhlw.go.jp/44/index.php?action_kouhyou_detail_004_kani=true&JigyosyoCd=4460191051-00&ServiceCd=130&Type=search", "url2": "http://smile-lib.com/publics/index/34/" }, "geometry": { "type": "Point", "coordinates": [ 131.612987441121845, 33.241008419916938 ] } },
{ "type": "Feature", "properties": { "内容": "訪問看護ステーションひなた【訪問看護】大分県大分市小野鶴字上河原789-1", "url": "https://www.kaigokensaku.mhlw.go.jp/44/index.php?action_kouhyou_detail_004_kani=true&JigyosyoCd=4460190491-00&ServiceCd=130&Type=search", "url2": null }, "geometry": { "type": "Point", "coordinates": [ 131.563510408648654, 33.196004434756198 ] } },
{ "type": "Feature", "properties": { "内容": "あさがお賀来訪問看護ステーション【訪問看護】大分県賀来西1丁目16-34サービス付き高齢者向け住宅あさがお", "url": "https://www.kaigokensaku.mhlw.go.jp/44/index.php?action_kouhyou_detail_004_kani=true&JigyosyoCd=4460191192-00&ServiceCd=130&Type=search", "url2": "https://www.asagao-h.com/" }, "geometry": { "type": "Point", "coordinates": [ 131.5569877, 33.2131726 ] } },
{ "type": "Feature", "properties": { "内容": "訪問看護ステーション天領ガーデン【訪問看護】大分県大分市大字田尻字高尾783-1天領ガーデンふれあい館", "url": "https://www.kaigokensaku.mhlw.go.jp/44/index.php?action_kouhyou_detail_004_kani=true&JigyosyoCd=4460190574-00&ServiceCd=130&Type=search", "url2": "http://san-ai-kai.or.jp/" }, "geometry": { "type": "Point", "coordinates": [ 131.597375354136574, 33.184737500083145 ] } },
{ "type": "Feature", "properties": { "内容": "ほうもんかんごけあすてーしょんかなた【訪問看護】大分県大分市大字下郡加納20組の2", "url": "https://www.kaigokensaku.mhlw.go.jp/44/index.php?action_kouhyou_detail_004_kani=true&JigyosyoCd=4460191143-00&ServiceCd=130&Type=search", "url2": null }, "geometry": { "type": "Point", "coordinates": [ 131.639965972846994, 33.226512907676231 ] } },
{ "type": "Feature", "properties": { "内容": "関愛会訪問看護ステーションよつば【訪問看護】大分県大分市大字松岡1946番地大東よつば病院内", "url": "https://www.kaigokensaku.mhlw.go.jp/44/index.php?action_kouhyou_detail_004_kani=true&JigyosyoCd=4460191481-00&ServiceCd=130&Type=search", "url2": "sekiaikai.jp" }, "geometry": { "type": "Point", "coordinates": [ 131.671589, 33.1753973 ] } },
{ "type": "Feature", "properties": { "内容": "訪問看護ステーション　優【訪問看護】岩田町3丁目10-18エルエーベース104", "url": "https://www.kaigokensaku.mhlw.go.jp/44/index.php?action_kouhyou_detail_004_kani=true&JigyosyoCd=4460191531-00&ServiceCd=130&Type=search", "url2": "https://link-oita.jp/" }, "geometry": { "type": "Point", "coordinates": [ 131.6286582, 33.2362846 ] } },
{ "type": "Feature", "properties": { "内容": "訪問看護ステーションsmilePlus【訪問看護】角子原１丁目11番41号", "url": "https://www.kaigokensaku.mhlw.go.jp/44/index.php?action_kouhyou_detail_004_kani=true&JigyosyoCd=4460191234-00&ServiceCd=130&Type=search", "url2": "https://careplus-oita.com/" }, "geometry": { "type": "Point", "coordinates": [ 131.710032255819726, 33.248436588406221 ] } },
{ "type": "Feature", "properties": { "内容": "永冨訪問看護ステーションやさしい木【訪問看護】大分県大分市大道町4丁目3-12ルーセント大道201号", "url": "https://www.kaigokensaku.mhlw.go.jp/44/index.php?action_kouhyou_detail_004_kani=true&JigyosyoCd=4460191499-00&ServiceCd=130&Type=search", "url2": "https://www.nagatomi-hp.com" }, "geometry": { "type": "Point", "coordinates": [ 131.59843140000001, 33.2287839 ] } },
{ "type": "Feature", "properties": { "内容": "いまじん訪問看護ステーション【訪問看護】三ケ田町3丁目4番1号株式会社福祉の杜いまじん2階", "url": "https://www.kaigokensaku.mhlw.go.jp/44/index.php?action_kouhyou_detail_004_kani=true&JigyosyoCd=4460191150-00&ServiceCd=130&Type=search", "url2": "https://f-imagine.net/" }, "geometry": { "type": "Point", "coordinates": [ 131.5909911, 33.2165706 ] } },
{ "type": "Feature", "properties": { "内容": "訪問看護ステーション　メイプル【訪問看護】大分県大分市賀来南1丁目1-71", "url": "https://www.kaigokensaku.mhlw.go.jp/44/index.php?action_kouhyou_detail_004_kani=true&JigyosyoCd=4460190210-00&ServiceCd=130&Type=search", "url2": null }, "geometry": { "type": "Point", "coordinates": [ 131.570278497759602, 33.212107294460033 ] } },
{ "type": "Feature", "properties": { "内容": "訪問看護ステーションゆいまーる【訪問看護】大分県大分市高江北2-4712-8", "url": "https://www.kaigokensaku.mhlw.go.jp/44/index.php?action_kouhyou_detail_004_kani=true&JigyosyoCd=4460190327-00&ServiceCd=130&Type=search", "url2": "http://www.oita-yuima-ru.com/" }, "geometry": { "type": "Point", "coordinates": [ 131.614700460049448, 33.168621464993421 ] } },
{ "type": "Feature", "properties": { "内容": "株式会社　KOHSIN　たかはし訪問看護ステーション【訪問看護】大分県大分市寒田1116番地の10", "url": "https://www.kaigokensaku.mhlw.go.jp/44/index.php?action_kouhyou_detail_004_kani=true&JigyosyoCd=4460191093-00&ServiceCd=130&Type=search", "url2": "http:/www.takahashi-hp.net/" }, "geometry": { "type": "Point", "coordinates": [ 131.612404, 33.1898946 ] } },
{ "type": "Feature", "properties": { "内容": "訪問看護ぴえろ【訪問看護】大分県大分市中春日町１２番３０号", "url": "https://www.kaigokensaku.mhlw.go.jp/44/index.php?action_kouhyou_detail_004_kani=true&JigyosyoCd=4460191572-00&ServiceCd=130&Type=search", "url2": "https://houkan-pierrot.com/" }, "geometry": { "type": "Point", "coordinates": [ 131.5961862, 33.2396688 ] } },
{ "type": "Feature", "properties": { "内容": "医心館訪問看護ステーション大分【訪問看護】大分県大分市畑中一丁目3番18号", "url": "https://www.kaigokensaku.mhlw.go.jp/44/index.php?action_kouhyou_detail_004_kani=true&JigyosyoCd=4460191580-00&ServiceCd=130&Type=search", "url2": null }, "geometry": { "type": "Point", "coordinates": [ 131.601337300000012, 33.2066582 ] } },
{ "type": "Feature", "properties": { "内容": "訪問看護ステーション結び2nd【訪問看護】大分県大分市羽田97-1コミュニティ羽田3番館6号室", "url": "https://www.kaigokensaku.mhlw.go.jp/44/index.php?action_kouhyou_detail_004_kani=true&JigyosyoCd=4460191101-00&ServiceCd=130&Type=search", "url2": "https://www.kst-musubi.net" }, "geometry": { "type": "Point", "coordinates": [ 131.636708199999987, 33.2180879 ] } },
{ "type": "Feature", "properties": { "内容": "訪問看護ステーション結び【訪問看護】大分市横尾東町1丁目5番35号", "url": "https://www.kaigokensaku.mhlw.go.jp/44/index.php?action_kouhyou_detail_004_kani=true&JigyosyoCd=4460190749-00&ServiceCd=130&Type=search", "url2": "https://www.kst-musubi.net/" }, "geometry": { "type": "Point", "coordinates": [ 131.677744539044625, 33.212716413016061 ] } },
{ "type": "Feature", "properties": { "内容": "セントケア訪問看護ステーション大分【訪問看護】大字古国府三丁目12番6号　2階", "url": "https://www.kaigokensaku.mhlw.go.jp/44/index.php?action_kouhyou_detail_004_kani=true&JigyosyoCd=4460190657-00&ServiceCd=130&Type=search", "url2": "http://www.saint-care.com/" }, "geometry": { "type": "Point", "coordinates": [ 131.605158900000021, 33.217659799999986 ] } },
{ "type": "Feature", "properties": { "内容": "訪問看護ステーション　福寿【訪問看護】大分県大分市明野北2丁目14-6第一岩本ビル201", "url": "https://www.kaigokensaku.mhlw.go.jp/44/index.php?action_kouhyou_detail_004_kani=true&JigyosyoCd=4460190996-00&ServiceCd=130&Type=search", "url2": null }, "geometry": { "type": "Point", "coordinates": [ 131.6520227, 33.2342237 ] } },
{ "type": "Feature", "properties": { "内容": "訪問看護ステーション心葉【訪問看護】大分県大分市下郡中央3丁目12-30", "url": "https://www.kaigokensaku.mhlw.go.jp/44/index.php?action_kouhyou_detail_004_kani=true&JigyosyoCd=4460190806-00&ServiceCd=130&Type=search", "url2": null }, "geometry": { "type": "Point", "coordinates": [ 131.638044215161528, 33.224963387215794 ] } },
{ "type": "Feature", "properties": { "内容": "オアシス訪問看護ステーション【訪問看護】大分県大分市東鶴崎3丁目3番35号", "url": "https://www.kaigokensaku.mhlw.go.jp/44/index.php?action_kouhyou_detail_004_kani=true&JigyosyoCd=4460191440-00&ServiceCd=130&Type=search", "url2": "https://www.oasis-hp.jp/" }, "geometry": { "type": "Point", "coordinates": [ 131.695609600000012, 33.2381258 ] } },
{ "type": "Feature", "properties": { "内容": "大分記念病院　訪問看護ステーション【訪問看護】大分県大分市大字羽屋5丁目2番10号", "url": "https://www.kaigokensaku.mhlw.go.jp/44/index.php?action_kouhyou_detail_004_kani=true&JigyosyoCd=4460190731-00&ServiceCd=130&Type=search", "url2": "http://oitamh.jp" }, "geometry": { "type": "Point", "coordinates": [ 131.60049314365537, 33.214522977157294 ] } },
{ "type": "Feature", "properties": { "内容": "訪問看護ステーション　ひかり【訪問看護】大分県大分市賀来南２丁目１番１号ふちのビル202", "url": "https://www.kaigokensaku.mhlw.go.jp/44/index.php?action_kouhyou_detail_004_kani=true&JigyosyoCd=4460190269-00&ServiceCd=130&Type=search", "url2": "http://www.inobe.or.jp" }, "geometry": { "type": "Point", "coordinates": [ 131.564217826983594, 33.211759311849598 ] } },
{ "type": "Feature", "properties": { "内容": "大分循環器病院訪問看護ステーション【訪問看護】大分県大分市大字三芳３２０番３", "url": "https://www.kaigokensaku.mhlw.go.jp/44/index.php?action_kouhyou_detail_004_kani=true&JigyosyoCd=4460191275-00&ServiceCd=130&Type=search", "url2": null }, "geometry": { "type": "Point", "coordinates": [ 131.5973764, 33.2249074 ] } },
{ "type": "Feature", "properties": { "内容": "訪問看護ステーションふくろう【訪問看護】大分県大分市明野東2丁目７番３３号明野中央在宅医療介護センター", "url": "https://www.kaigokensaku.mhlw.go.jp/44/index.php?action_kouhyou_detail_004_kani=true&JigyosyoCd=4460190558-00&ServiceCd=130&Type=search", "url2": "http://www.akenohp.jp/" }, "geometry": { "type": "Point", "coordinates": [ 131.657263199999989, 33.2206002 ] } },
{ "type": "Feature", "properties": { "内容": "判田訪問看護ステーションきらら【訪問看護】大字中判田1419番地の2", "url": "https://www.kaigokensaku.mhlw.go.jp/44/index.php?action_kouhyou_detail_004_kani=true&JigyosyoCd=4460191036-00&ServiceCd=130&Type=search", "url2": "https://shinwakai-hosp.com/publics/index/1/detail=1/b_id=1/r_id=38/" }, "geometry": { "type": "Point", "coordinates": [ 131.6317061, 33.1677811 ] } },
{ "type": "Feature", "properties": { "内容": "だいかく病院訪問看護ステーション【訪問看護】大分県大分市下郡山の手2番18号", "url": "https://www.kaigokensaku.mhlw.go.jp/44/index.php?action_kouhyou_detail_004_kani=true&JigyosyoCd=4460190244-00&ServiceCd=130&Type=search", "url2": "http://www.daikaku-hp.jp/" }, "geometry": { "type": "Point", "coordinates": [ 131.638954103331599, 33.220905259663624 ] } },
{ "type": "Feature", "properties": { "内容": "おおつか訪問看護ステーション【訪問看護】大分県大分市住吉町１丁目２番１６号メディケアおおつか１F", "url": "https://www.kaigokensaku.mhlw.go.jp/44/index.php?action_kouhyou_detail_004_kani=true&JigyosyoCd=4460190384-00&ServiceCd=130&Type=search", "url2": null }, "geometry": { "type": "Point", "coordinates": [ 131.605292733755931, 33.245504494691318 ] } },
{ "type": "Feature", "properties": { "内容": "大分市東部訪問看護ｽﾃｰｼｮﾝ【訪問看護】大分県大分市南鶴崎2丁目6番5号つるさきクリニック　1Ｆ", "url": "https://www.kaigokensaku.mhlw.go.jp/44/index.php?action_kouhyou_detail_004_kani=true&JigyosyoCd=4460190046-00&ServiceCd=130&Type=search", "url2": null }, "geometry": { "type": "Point", "coordinates": [ 131.690681899999959, 33.239111 ] } },
{ "type": "Feature", "properties": { "内容": "訪問看護ステーション　つかがわ【訪問看護】大分県大分市東春日町5番25号", "url": "https://www.kaigokensaku.mhlw.go.jp/44/index.php?action_kouhyou_detail_004_kani=true&JigyosyoCd=4460190038-00&ServiceCd=130&Type=search", "url2": "http.www.hakkokai.com/" }, "geometry": { "type": "Point", "coordinates": [ 131.600009300000011, 33.240288 ] } },
{ "type": "Feature", "properties": { "内容": "嶋田循環器科内科【訪問看護】大分県大分市大在中央1丁目10番17号", "url": "https://www.kaigokensaku.mhlw.go.jp/44/index.php?action_kouhyou_detail_004_kani=true&JigyosyoCd=4410116182-00&ServiceCd=130&Type=search", "url2": "http://shimada-j.server-shared.com/" }, "geometry": { "type": "Point", "coordinates": [ 131.7201307, 33.2454677 ] } },
{ "type": "Feature", "properties": { "内容": "訪問看護ハートステーション【訪問看護】大分県大分市光吉1430番地の27", "url": "https://www.kaigokensaku.mhlw.go.jp/44/index.php?action_kouhyou_detail_004_kani=true&JigyosyoCd=4460190111-00&ServiceCd=130&Type=search", "url2": "http://www.heart-cl.com" }, "geometry": { "type": "Point", "coordinates": [ 131.60041942960811, 33.191018578732944 ] } },
{ "type": "Feature", "properties": { "内容": "アルメイダ訪問看護ステーション【訪問看護】大分市大字宮崎1315番地", "url": "https://www.kaigokensaku.mhlw.go.jp/44/index.php?action_kouhyou_detail_004_kani=true&JigyosyoCd=4460190186-00&ServiceCd=130&Type=search", "url2": null }, "geometry": { "type": "Point", "coordinates": [ 131.608861700000034, 33.1933707 ] } },
{ "type": "Feature", "properties": { "内容": "訪問看護ステーション　サクラ-サク【訪問看護】大分県大分市大字津守376-1第一奈良勘ビル101号", "url": "https://www.kaigokensaku.mhlw.go.jp/44/index.php?action_kouhyou_detail_004_kani=true&JigyosyoCd=4460190608-00&ServiceCd=130&Type=search", "url2": "sakura-saku100.com" }, "geometry": { "type": "Point", "coordinates": [ 131.6174661, 33.2121499 ] } },
{ "type": "Feature", "properties": { "内容": "訪問看護ステーション楽【訪問看護】大分県大分市横尾1939-4", "url": "https://www.kaigokensaku.mhlw.go.jp/44/index.php?action_kouhyou_detail_004_kani=true&JigyosyoCd=4460190665-00&ServiceCd=130&Type=search", "url2": "http://www.lifely.co.jp" }, "geometry": { "type": "Point", "coordinates": [ 131.665229599999975, 33.2066299 ] } },
{ "type": "Feature", "properties": { "内容": "Ｇｒｅｅｎガーデンほうかん高江【訪問看護】大分県大分市高江中央1丁目1304-1", "url": "https://www.kaigokensaku.mhlw.go.jp/44/index.php?action_kouhyou_detail_004_kani=true&JigyosyoCd=4460190699-00&ServiceCd=130&Type=search", "url2": "loveloving.co.jp" }, "geometry": { "type": "Point", "coordinates": [ 131.618194899999907, 33.1665015 ] } },
{ "type": "Feature", "properties": { "内容": "訪問看護ステーションコルディアーレ大分【訪問看護】大分県大分市大字津留1916-14-3つかさアーバングリーン六本松103号室", "url": "https://www.kaigokensaku.mhlw.go.jp/44/index.php?action_kouhyou_detail_004_kani=true&JigyosyoCd=4460191077-00&ServiceCd=130&Type=search", "url2": "https://www.jsh-japan.jp" }, "geometry": { "type": "Point", "coordinates": [ 131.6299133, 33.2333266 ] } },
{ "type": "Feature", "properties": { "内容": "訪問看護ｽﾃｰｼｮﾝのつはる【訪問看護】大分県大分市大字太田350番地", "url": "https://www.kaigokensaku.mhlw.go.jp/44/index.php?action_kouhyou_detail_004_kani=true&JigyosyoCd=4460191085-00&ServiceCd=130&Type=search", "url2": null }, "geometry": { "type": "Point", "coordinates": [ 131.501847, 33.1427913 ] } },
{ "type": "Feature", "properties": { "内容": "訪問看護ステーションいろどり【訪問看護】大分県大分市牧2‐7‐23ソファレ中島202", "url": "https://www.kaigokensaku.mhlw.go.jp/44/index.php?action_kouhyou_detail_004_kani=true&JigyosyoCd=4460191218-00&ServiceCd=130&Type=search", "url2": "http://hp.kaipoke.biz/pze/" }, "geometry": { "type": "Point", "coordinates": [ 131.640477800000014, 33.2387534 ] } },
{ "type": "Feature", "properties": { "内容": "訪問看護リハステーション大分駅南【訪問看護】大分県大分市東大道1丁目7番8号立花201", "url": "https://www.kaigokensaku.mhlw.go.jp/44/index.php?action_kouhyou_detail_004_kani=true&JigyosyoCd=4460190855-00&ServiceCd=130&Type=search", "url2": null }, "geometry": { "type": "Point", "coordinates": [ 131.60410539999998, 33.231129 ] } },
{ "type": "Feature", "properties": { "内容": "あさがお訪問看護ステーション【訪問看護】大分県大分市曲832-8", "url": "https://www.kaigokensaku.mhlw.go.jp/44/index.php?action_kouhyou_detail_004_kani=true&JigyosyoCd=4460191424-00&ServiceCd=130&Type=search", "url2": "https://www.asagao-h.com/helper_top.html" }, "geometry": { "type": "Point", "coordinates": [ 131.6174958, 33.1978132 ] } },
{ "type": "Feature", "properties": { "内容": "訪問看護　かえりえ鶴崎【訪問看護】大分県大分市北鶴崎1-4-8", "url": "https://www.kaigokensaku.mhlw.go.jp/44/index.php?action_kouhyou_detail_004_kani=true&JigyosyoCd=4460191408-00&ServiceCd=130&Type=search", "url2": "https://search.yasashiite.com/" }, "geometry": { "type": "Point", "coordinates": [ 131.6882415, 33.2420874 ] } },
{ "type": "Feature", "properties": { "内容": "訪問看護ステーション　アリエ【訪問看護】萩原１丁目２番３３号グリーンパークヨシハラ103号室", "url": "https://www.kaigokensaku.mhlw.go.jp/44/index.php?action_kouhyou_detail_004_kani=true&JigyosyoCd=4460191176-00&ServiceCd=130&Type=search", "url2": null }, "geometry": { "type": "Point", "coordinates": [ 131.6376989, 33.2447378 ] } },
{ "type": "Feature", "properties": { "内容": "訪問看護ステーションこころ【訪問看護】大分県大分市大字松岡字平ノ迫537番2", "url": "https://www.kaigokensaku.mhlw.go.jp/44/index.php?action_kouhyou_detail_004_kani=true&JigyosyoCd=4460190467-00&ServiceCd=130&Type=search", "url2": "http://yu-seikai.jp/publics/index/22/" }, "geometry": { "type": "Point", "coordinates": [ 131.702475600000071, 33.2252292 ] } },
{ "type": "Feature", "properties": { "内容": "悠々訪問看護ステーション【訪問看護】大分県大分市新栄町3-8", "url": "https://www.kaigokensaku.mhlw.go.jp/44/index.php?action_kouhyou_detail_004_kani=true&JigyosyoCd=4460191168-00&ServiceCd=130&Type=search", "url2": null }, "geometry": { "type": "Point", "coordinates": [ 131.6604008, 33.2424103 ] } },
{ "type": "Feature", "properties": { "内容": "訪問看護ステーションはるか【訪問看護】大分県大分市大字片島487－2パールハイツIMOTO　101号室", "url": "https://www.kaigokensaku.mhlw.go.jp/44/index.php?action_kouhyou_detail_004_kani=true&JigyosyoCd=4460191374-00&ServiceCd=130&Type=search", "url2": "https://yuzuka-haruka.wepage.com" }, "geometry": { "type": "Point", "coordinates": [ 131.6254073, 33.2168827 ] } },
{ "type": "Feature", "properties": { "内容": "公益社団法人大分県看護協会訪問看護ステーションおおいた【訪問看護】大分県大分市豊饒二丁目7番1号大分県看護研修会館", "url": "https://www.kaigokensaku.mhlw.go.jp/44/index.php?action_kouhyou_detail_004_kani=true&JigyosyoCd=4460190137-00&ServiceCd=130&Type=search", "url2": "https://www.oita-kango.com/" }, "geometry": { "type": "Point", "coordinates": [ 131.597379199999978, 33.208115900000045 ] } },
{ "type": "Feature", "properties": { "内容": "からだと心の訪問看護ステーション【訪問看護】大分県大分市豊饒3丁目8番20号", "url": "https://www.kaigokensaku.mhlw.go.jp/44/index.php?action_kouhyou_detail_004_kani=true&JigyosyoCd=4460191267-00&ServiceCd=130&Type=search", "url2": "https://karada-cocoro-nursing.space/" }, "geometry": { "type": "Point", "coordinates": [ 131.592722200000054, 33.2084572 ] } },
{ "type": "Feature", "properties": { "内容": "訪問看護ステーションあかり【訪問看護】大分市舞鶴町1丁目7-12市川ビル202", "url": "https://www.kaigokensaku.mhlw.go.jp/44/index.php?action_kouhyou_detail_004_kani=true&JigyosyoCd=4460191283-00&ServiceCd=130&Type=search", "url2": "https://akari-oita.co.jp/" }, "geometry": { "type": "Point", "coordinates": [ 131.6165217, 33.2406484 ] } },
{ "type": "Feature", "properties": { "内容": "訪問看護ステーションといろ【訪問看護】大分県大分市大字鴛野1045番地の3", "url": "https://www.kaigokensaku.mhlw.go.jp/44/index.php?action_kouhyou_detail_004_kani=true&JigyosyoCd=4460190970-00&ServiceCd=130&Type=search", "url2": null }, "geometry": { "type": "Point", "coordinates": [ 131.615781892533477, 33.185699743850357 ] } },
{ "type": "Feature", "properties": { "内容": "訪問看護ステーションまなと【訪問看護】大分県大分市高江中央3丁目4629番4", "url": "https://www.kaigokensaku.mhlw.go.jp/44/index.php?action_kouhyou_detail_004_kani=true&JigyosyoCd=4460191473-00&ServiceCd=130&Type=search", "url2": "http://www.manato.co.jp/index.php" }, "geometry": { "type": "Point", "coordinates": [ 131.6127452, 33.1678839 ] } },
{ "type": "Feature", "properties": { "内容": "訪問看護ステーションあおい【訪問看護】大分県大分市畑中三丁目4番32-504号フォレスト７", "url": "https://www.kaigokensaku.mhlw.go.jp/44/index.php?action_kouhyou_detail_004_kani=true&JigyosyoCd=4460190814-00&ServiceCd=130&Type=search", "url2": null }, "geometry": { "type": "Point", "coordinates": [ 131.595344408528888, 33.204616151680021 ] } },
{ "type": "Feature", "properties": { "内容": "訪問看護ステーション美晴【訪問看護】大分県大分市大字猪野23番地の3上野アパート1号", "url": "https://www.kaigokensaku.mhlw.go.jp/44/index.php?action_kouhyou_detail_004_kani=true&JigyosyoCd=4460190947-00&ServiceCd=130&Type=search", "url2": "http://hp.kaipoke.biz/419" }, "geometry": { "type": "Point", "coordinates": [ 131.665320108598308, 33.217583329294534 ] } },
{ "type": "Feature", "properties": { "内容": "合同会社　訪問看護ステーション　りぼん【訪問看護】大分県大分市星和台１丁目１５番２２号", "url": "https://www.kaigokensaku.mhlw.go.jp/44/index.php?action_kouhyou_detail_004_kani=true&JigyosyoCd=4460190251-00&ServiceCd=130&Type=search", "url2": "http://www.ribon.info/" }, "geometry": { "type": "Point", "coordinates": [ 131.618297199694126, 33.19375740000001 ] } },
{ "type": "Feature", "properties": { "内容": "訪問看護ステーションいろは【訪問看護】大分県大分市坂ノ市中央3丁目14番33号A号セルコ・セゾン", "url": "https://www.kaigokensaku.mhlw.go.jp/44/index.php?action_kouhyou_detail_004_kani=true&JigyosyoCd=4460190525-00&ServiceCd=130&Type=search", "url2": "http://sekiaikai.jp/" }, "geometry": { "type": "Point", "coordinates": [ 131.749329499999931, 33.233382 ] } },
{ "type": "Feature", "properties": { "内容": "訪問看護ステーションかもめ【訪問看護】大分県大分市大字佐賀関792-1", "url": "https://www.kaigokensaku.mhlw.go.jp/44/index.php?action_kouhyou_detail_004_kani=true&JigyosyoCd=4460191309-00&ServiceCd=130&Type=search", "url2": "https://www.sekiaikai.jp" }, "geometry": { "type": "Point", "coordinates": [ 131.867942258335887, 33.248924741923354 ] } },
{ "type": "Feature", "properties": { "内容": "大分中村病院訪問看護ステーション【訪問看護】大分県大分市舞鶴町1-4-1大分中村病院内1階", "url": "https://www.kaigokensaku.mhlw.go.jp/44/index.php?action_kouhyou_detail_004_kani=true&JigyosyoCd=4460191259-00&ServiceCd=130&Type=search", "url2": "https://www.nakamura-hosp.or.jp/home-support/houmonkango/" }, "geometry": { "type": "Point", "coordinates": [ 131.619892389131252, 33.23925949600909 ] } },
{ "type": "Feature", "properties": { "内容": "けいわ訪問看護ステーション大分【訪問看護】大分県大分市大字小池原1021番地在宅支援クリニックすばる　同建物3階", "url": "https://www.kaigokensaku.mhlw.go.jp/44/index.php?action_kouhyou_detail_004_kani=true&JigyosyoCd=4460190145-00&ServiceCd=130&Type=search", "url2": "https://keiwakai.oita.jp" }, "geometry": { "type": "Point", "coordinates": [ 131.6843437, 33.2359417 ] } },
{ "type": "Feature", "properties": { "内容": "天心堂へつぎ訪問看護ステーションひ・まわり【訪問看護】大分県大分市大字中戸次字寺ノ内5111-1", "url": "https://www.kaigokensaku.mhlw.go.jp/44/index.php?action_kouhyou_detail_004_kani=true&JigyosyoCd=4460190160-00&ServiceCd=130&Type=search", "url2": null }, "geometry": { "type": "Point", "coordinates": [ 131.655168213610295, 33.151758117510198 ] } },
{ "type": "Feature", "properties": { "内容": "三愛訪問看護ステーション【訪問看護】大分県大分市大字市1213番地", "url": "https://www.kaigokensaku.mhlw.go.jp/44/index.php?action_kouhyou_detail_004_kani=true&JigyosyoCd=4460190095-00&ServiceCd=130&Type=search", "url2": "http://www.san-ai-group.org/" }, "geometry": { "type": "Point", "coordinates": [ 131.575559, 33.1863196 ] } },
{ "type": "Feature", "properties": { "内容": "創生の里訪問看護ステーション【訪問看護】大分県大分市大字野田３０６番地の２", "url": "https://www.kaigokensaku.mhlw.go.jp/44/index.php?action_kouhyou_detail_004_kani=true&JigyosyoCd=4460190418-00&ServiceCd=130&Type=search", "url2": "http://www.wakakusakai.jp" }, "geometry": { "type": "Point", "coordinates": [ 131.536189700000023, 33.2031772 ] } },
{ "type": "Feature", "properties": { "内容": "清流苑訪問看護ステーション【訪問看護】大分県大分市大字種具144番地", "url": "https://www.kaigokensaku.mhlw.go.jp/44/index.php?action_kouhyou_detail_004_kani=true&JigyosyoCd=4460190434-00&ServiceCd=130&Type=search", "url2": "http://www.seiryu-kyouseikai.org" }, "geometry": { "type": "Point", "coordinates": [ 131.699023500000067, 33.2064893 ] } },
{ "type": "Feature", "properties": { "内容": "百華苑訪問看護ステーション【訪問看護】大分県大分市大字東上野１８００番地", "url": "https://www.kaigokensaku.mhlw.go.jp/44/index.php?action_kouhyou_detail_004_kani=true&JigyosyoCd=4460190483-00&ServiceCd=130&Type=search", "url2": "http://www.hyakkaen.or.jp" }, "geometry": { "type": "Point", "coordinates": [ 131.770325, 33.2293997 ] } },
{ "type": "Feature", "properties": { "内容": "やすらぎの丘訪問看護ステーション【訪問看護】大字下郡939番地の3有料老人ホーム　滝尾やすらぎの丘", "url": "https://www.kaigokensaku.mhlw.go.jp/44/index.php?action_kouhyou_detail_004_kani=true&JigyosyoCd=4460190863-00&ServiceCd=130&Type=search", "url2": null }, "geometry": { "type": "Point", "coordinates": [ 131.6448315, 33.2172639 ] } },
{ "type": "Feature", "properties": { "内容": "けんせい訪問看護ステーション【訪問看護】大分市大字津留字六本松1970番地7", "url": "https://www.kaigokensaku.mhlw.go.jp/44/index.php?action_kouhyou_detail_004_kani=true&JigyosyoCd=4460190350-00&ServiceCd=130&Type=search", "url2": "http://www.oita-min.or.jp/" }, "geometry": { "type": "Point", "coordinates": [ 131.629321357008422, 33.233448835194125 ] } },
{ "type": "Feature", "properties": { "内容": "訪問看護ステーションあいしん【訪問看護】大分県大分市横田2丁目11番45号大分医療センター宿舎1号棟101号", "url": "https://www.kaigokensaku.mhlw.go.jp/44/index.php?action_kouhyou_detail_004_kani=true&JigyosyoCd=4460190848-00&ServiceCd=130&Type=search", "url2": null }, "geometry": { "type": "Point", "coordinates": [ 131.721916179691902, 33.252195593641801 ] } },
{ "type": "Feature", "properties": { "内容": "大分赤十字訪問看護ステーション【訪問看護】大分県大分市千代町3丁目2番３7号", "url": "https://www.kaigokensaku.mhlw.go.jp/44/index.php?action_kouhyou_detail_004_kani=true&JigyosyoCd=4460190103-00&ServiceCd=130&Type=search", "url2": null }, "geometry": { "type": "Point", "coordinates": [ 131.604963394581517, 33.243731985779377 ] } },
{ "type": "Feature", "properties": { "内容": "訪問看護ステーション　いずみ【訪問看護】大分県大分市大在北1丁目12番12号", "url": "https://www.kaigokensaku.mhlw.go.jp/44/index.php?action_kouhyou_detail_004_kani=true&JigyosyoCd=4460190053-00&ServiceCd=130&Type=search", "url2": "https://www.eff-izumi.com" }, "geometry": { "type": "Point", "coordinates": [ 131.710007499999961, 33.2520987 ] } },
{ "type": "Feature", "properties": { "内容": "訪問看護ステーション　幸せの家【訪問看護】大分県大分市猪野1354番地の１", "url": "https://www.kaigokensaku.mhlw.go.jp/44/index.php?action_kouhyou_detail_004_kani=true&JigyosyoCd=4460191002-00&ServiceCd=130&Type=search", "url2": null }, "geometry": { "type": "Point", "coordinates": [ 131.664684099999988, 33.221984 ] } },
{ "type": "Feature", "properties": { "内容": "大嶋医院【訪問看護】大分市竹中2666番地", "url": "https://www.kaigokensaku.mhlw.go.jp/44/index.php?action_kouhyou_detail_004_kani=true&JigyosyoCd=4410123782-00&ServiceCd=130&Type=search", "url2": "https://www.kigankai.or.jp" }, "geometry": { "type": "Point", "coordinates": [ 131.652273900000012, 33.1412354 ] } },
{ "type": "Feature", "properties": { "内容": "訪問看護ステーションめいわ【訪問看護】大分県大分市明野北4丁目1－１　旧山本ビル3F", "url": "https://www.kaigokensaku.mhlw.go.jp/44/index.php?action_kouhyou_detail_004_kani=true&JigyosyoCd=4460190343-00&ServiceCd=130&Type=search", "url2": null }, "geometry": { "type": "Point", "coordinates": [ 131.656334290876771, 33.225849500000088 ] } },
{ "type": "Feature", "properties": { "内容": "訪問看護ステーションアケル【訪問看護】大分県大分市政所2丁目18-28", "url": "https://www.kaigokensaku.mhlw.go.jp/44/index.php?action_kouhyou_detail_004_kani=true&JigyosyoCd=4460190889-00&ServiceCd=130&Type=search", "url2": null }, "geometry": { "type": "Point", "coordinates": [ 131.726253884649594, 33.247319396151724 ] } },
{ "type": "Feature", "properties": { "内容": "ケア・スプリングハート訪問看護ステーション【訪問看護】大分県大分市下郡山の手1番３７号夢まごころ苑内", "url": "https://www.kaigokensaku.mhlw.go.jp/44/index.php?action_kouhyou_detail_004_kani=true&JigyosyoCd=4460191663-00&ServiceCd=130&Type=search", "url2": null }, "geometry": { "type": "Point", "coordinates": [ 131.638576869975253, 33.219784402893517 ] } },
{ "type": "Feature", "properties": { "内容": "訪問看護ステーションcoupler【訪問看護】大分県大分市羽田38-1アルテール米良202", "url": "https://www.kaigokensaku.mhlw.go.jp/44/index.php?action_kouhyou_detail_004_kani=true&JigyosyoCd=4460191341-00&ServiceCd=130&Type=search", "url2": "https://www.local-train.jp/" }, "geometry": { "type": "Point", "coordinates": [ 131.6363982, 33.2199192 ] } },
{ "type": "Feature", "properties": { "内容": "在宅サポートゆいまーる【訪問看護】大分県大分市高江北１丁目８番１号", "url": "https://www.kaigokensaku.mhlw.go.jp/44/index.php?action_kouhyou_detail_004_kani=true&JigyosyoCd=4460191325-00&ServiceCd=130&Type=search", "url2": "https://www.oita-yuima-ru.com/" }, "geometry": { "type": "Point", "coordinates": [ 131.618022, 33.1718343 ] } },
{ "type": "Feature", "properties": { "内容": "訪問看護ステーション　ING【訪問看護】大分県大分市大字本神崎1295番地の17", "url": "https://www.kaigokensaku.mhlw.go.jp/44/index.php?action_kouhyou_detail_004_kani=true&JigyosyoCd=4460191721-00&ServiceCd=130&Type=search", "url2": null }, "geometry": { "type": "Point", "coordinates": [ 131.8037233, 33.2389999 ] } },
{ "type": "Feature", "properties": { "内容": "訪問看護ステーション　里庵【訪問看護】大分県別府市石垣西9丁目1番38号", "url": "https://www.kaigokensaku.mhlw.go.jp/44/index.php?action_kouhyou_detail_004_kani=true&JigyosyoCd=4460290127-00&ServiceCd=130&Type=search", "url2": null }, "geometry": { "type": "Point", "coordinates": [ 131.494502600000033, 33.3034483 ] } },
{ "type": "Feature", "properties": { "内容": "セントケア訪問看護ステーション別府【訪問看護】大分県別府市石垣西4-5-12九十歩ビル1階九十歩ビル1階", "url": "https://www.kaigokensaku.mhlw.go.jp/44/index.php?action_kouhyou_detail_004_kani=true&JigyosyoCd=4460290101-00&ServiceCd=130&Type=search", "url2": "http://www.saintーcare.com" }, "geometry": { "type": "Point", "coordinates": [ 131.491630699999973, 33.2945636 ] } },
{ "type": "Feature", "properties": { "内容": "訪問看護ステーション　ふじみ【訪問看護】大分県別府市北的ヶ浜5番19号", "url": "https://www.kaigokensaku.mhlw.go.jp/44/index.php?action_kouhyou_detail_004_kani=true&JigyosyoCd=4460290259-00&ServiceCd=130&Type=search", "url2": null }, "geometry": { "type": "Point", "coordinates": [ 131.50398789999997, 33.2848978 ] } },
{ "type": "Feature", "properties": { "内容": "中村病院訪問看護ステーション【訪問看護】大分県別府市秋葉町8番24号医療法人恵愛会　中村病院　5階", "url": "https://www.kaigokensaku.mhlw.go.jp/44/index.php?action_kouhyou_detail_004_kani=true&JigyosyoCd=4460290234-00&ServiceCd=130&Type=search", "url2": "http://www.nakamura-med.or.jp/" }, "geometry": { "type": "Point", "coordinates": [ 131.501149100000021, 33.275915500000011 ] } },
{ "type": "Feature", "properties": { "内容": "訪問看護ステーション　むらはし【訪問看護】大分県別府市千代町2番5号", "url": "https://www.kaigokensaku.mhlw.go.jp/44/index.php?action_kouhyou_detail_004_kani=true&JigyosyoCd=4460290077-00&ServiceCd=130&Type=search", "url2": "http://www.murahashi-hp.jp/" }, "geometry": { "type": "Point", "coordinates": [ 131.5047154, 33.2746295 ] } },
{ "type": "Feature", "properties": { "内容": "やまなみ訪問看護ステーション【訪問看護】大分県別府市大字南立石274番地の2", "url": "https://www.kaigokensaku.mhlw.go.jp/44/index.php?action_kouhyou_detail_004_kani=true&JigyosyoCd=4460290242-00&ServiceCd=130&Type=search", "url2": "http://www.yamanamien.com" }, "geometry": { "type": "Point", "coordinates": [ 131.4571082, 33.2905051 ] } },
{ "type": "Feature", "properties": { "内容": "訪問看護ステーションくろき【訪問看護】大分県別府市照波園町14番38号", "url": "https://www.kaigokensaku.mhlw.go.jp/44/index.php?action_kouhyou_detail_004_kani=true&JigyosyoCd=4460290036-00&ServiceCd=130&Type=search", "url2": "http://www.kuroki-hp.or.jp" }, "geometry": { "type": "Point", "coordinates": [ 131.49792487553259, 33.319817662319394 ] } },
{ "type": "Feature", "properties": { "内容": "訪問看護ステーションひまわり【訪問看護】大分県別府市中島町17番6号", "url": "https://www.kaigokensaku.mhlw.go.jp/44/index.php?action_kouhyou_detail_004_kani=true&JigyosyoCd=4460290317-00&ServiceCd=130&Type=search", "url2": "https://hata.or.jp" }, "geometry": { "type": "Point", "coordinates": [ 131.491258300000027, 33.2759294 ] } },
{ "type": "Feature", "properties": { "内容": "訪問看護ステーション上人【訪問看護】大分県別府市大字北石垣深町851番地", "url": "https://www.kaigokensaku.mhlw.go.jp/44/index.php?action_kouhyou_detail_004_kani=true&JigyosyoCd=4460290028-00&ServiceCd=130&Type=search", "url2": null }, "geometry": { "type": "Point", "coordinates": [ 131.500633209885564, 33.311068729421272 ] } },
{ "type": "Feature", "properties": { "内容": "訪問看護　白梅の花【訪問看護】別府市大字浜脇29-11", "url": "https://www.kaigokensaku.mhlw.go.jp/44/index.php?action_kouhyou_detail_004_kani=true&JigyosyoCd=4460290200-00&ServiceCd=130&Type=search", "url2": null }, "geometry": { "type": "Point", "coordinates": [ 131.512946689246405, 33.266496506448739 ] } },
{ "type": "Feature", "properties": { "内容": "湯のまち訪問看護ステーション【訪問看護】大分県別府市大字南立石1079番地の132", "url": "https://www.kaigokensaku.mhlw.go.jp/44/index.php?action_kouhyou_detail_004_kani=true&JigyosyoCd=4460290085-00&ServiceCd=130&Type=search", "url2": "http://yunomachi.jp" }, "geometry": { "type": "Point", "coordinates": [ 131.467846300000019, 33.2915995 ] } },
{ "type": "Feature", "properties": { "内容": "別府市医師会訪問看護ステーション【訪問看護】大分県別府市上田の湯町10番5号", "url": "https://www.kaigokensaku.mhlw.go.jp/44/index.php?action_kouhyou_detail_004_kani=true&JigyosyoCd=4460290192-00&ServiceCd=130&Type=search", "url2": "http://www.beppu-med.or.jp/" }, "geometry": { "type": "Point", "coordinates": [ 131.494608, 33.277843 ] } },
{ "type": "Feature", "properties": { "内容": "訪問看護ステーションほのぼの【訪問看護】大分県別府市山の手町9番39号別府山の手ライフガーデン内", "url": "https://www.kaigokensaku.mhlw.go.jp/44/index.php?action_kouhyou_detail_004_kani=true&JigyosyoCd=4460290218-00&ServiceCd=130&Type=search", "url2": null }, "geometry": { "type": "Point", "coordinates": [ 131.486137683467064, 33.281190209033269 ] } },
{ "type": "Feature", "properties": { "内容": "訪問看護ステーションあけぼし【訪問看護】大分県別府市大字鶴見１９５１番地の３０", "url": "https://www.kaigokensaku.mhlw.go.jp/44/index.php?action_kouhyou_detail_004_kani=true&JigyosyoCd=4460290333-00&ServiceCd=130&Type=search", "url2": "https://yuuwa1122.jp/" }, "geometry": { "type": "Point", "coordinates": [ 131.463261100000011, 33.2996052 ] } },
{ "type": "Feature", "properties": { "内容": "訪問看護ステーション　エミアス鉄輪【訪問看護】大分県別府市大字鉄輪628番地の3（御幸9組）", "url": "https://www.kaigokensaku.mhlw.go.jp/44/index.php?action_kouhyou_detail_004_kani=true&JigyosyoCd=4460290168-00&ServiceCd=130&Type=search", "url2": "http://www.bls-oita.co.jp/" }, "geometry": { "type": "Point", "coordinates": [ 131.474665346649061, 33.31653871385177 ] } },
{ "type": "Feature", "properties": { "内容": "訪問看護ステーション楓【訪問看護】大分県別府市東荘園四丁目6番17号", "url": "https://www.kaigokensaku.mhlw.go.jp/44/index.php?action_kouhyou_detail_004_kani=true&JigyosyoCd=4460290119-00&ServiceCd=130&Type=search", "url2": "http://kaede-care.com/" }, "geometry": { "type": "Point", "coordinates": [ 131.488446858860812, 33.293996799973606 ] } },
{ "type": "Feature", "properties": { "内容": "訪問看護ステーションオリナス【訪問看護】大分県別府市石垣東8丁目2-20GRCopusbeppu35501号", "url": "https://www.kaigokensaku.mhlw.go.jp/44/index.php?action_kouhyou_detail_004_kani=true&JigyosyoCd=4460290432-00&ServiceCd=130&Type=search", "url2": "https://beppu-orinas.com" }, "geometry": { "type": "Point", "coordinates": [ 131.4980372, 33.301987700000019 ] } },
{ "type": "Feature", "properties": { "内容": "株式会社ＹＵＩ訪問看護ステーション結【訪問看護】大分県別府市大字鶴見３０４５番地の１", "url": "https://www.kaigokensaku.mhlw.go.jp/44/index.php?action_kouhyou_detail_004_kani=true&JigyosyoCd=4460290408-00&ServiceCd=130&Type=search", "url2": null }, "geometry": { "type": "Point", "coordinates": [ 131.480408594442707, 33.307832167837127 ] } },
{ "type": "Feature", "properties": { "内容": "かがやき訪問看護ステーション【訪問看護】大分県別府市大字鉄輪828番地の6", "url": "https://www.kaigokensaku.mhlw.go.jp/44/index.php?action_kouhyou_detail_004_kani=true&JigyosyoCd=4460290135-00&ServiceCd=130&Type=search", "url2": "http://office-kagayaki.co.jp" }, "geometry": { "type": "Point", "coordinates": [ 131.482921282873491, 33.316473826884462 ] } },
{ "type": "Feature", "properties": { "内容": "訪問看護ステーションミスト【訪問看護】東荘園五丁目8番26号ロイヤルハウスミスト", "url": "https://www.kaigokensaku.mhlw.go.jp/44/index.php?action_kouhyou_detail_004_kani=true&JigyosyoCd=4460290358-00&ServiceCd=130&Type=search", "url2": "https://grandhousemyst.jp/" }, "geometry": { "type": "Point", "coordinates": [ 131.485275229655741, 33.294795052405583 ] } },
{ "type": "Feature", "properties": { "内容": "訪問看護ステーションまどか【訪問看護】大分県別府市浜脇３丁目２番１０号", "url": "https://www.kaigokensaku.mhlw.go.jp/44/index.php?action_kouhyou_detail_004_kani=true&JigyosyoCd=4460290366-00&ServiceCd=130&Type=search", "url2": "ymg-oita.com" }, "geometry": { "type": "Point", "coordinates": [ 131.5045504, 33.2701136 ] } },
{ "type": "Feature", "properties": { "内容": "訪問看護ステーションだるま別府【訪問看護】大分県別府市天満町2-16YUAIビル４０１号", "url": "https://www.kaigokensaku.mhlw.go.jp/44/index.php?action_kouhyou_detail_004_kani=true&JigyosyoCd=4460290440-00&ServiceCd=130&Type=search", "url2": "justright-care．net" }, "geometry": { "type": "Point", "coordinates": [ 131.494209230619049, 33.28444336560657 ] } },
{ "type": "Feature", "properties": { "内容": "訪問看護事業所わらく【訪問看護】大分県別府市小倉町30番51-201号ガーデンヒルズ松本Ⅱ", "url": "https://www.kaigokensaku.mhlw.go.jp/44/index.php?action_kouhyou_detail_004_kani=true&JigyosyoCd=4460290424-00&ServiceCd=130&Type=search", "url2": null }, "geometry": { "type": "Point", "coordinates": [ 131.464279058581695, 33.307876799937155 ] } },
{ "type": "Feature", "properties": { "内容": "訪問看護ステーションつなぐ【訪問看護】大分県別府市石垣東7丁目2番24号岡山ビル103号", "url": "https://www.kaigokensaku.mhlw.go.jp/44/index.php?action_kouhyou_detail_004_kani=true&JigyosyoCd=4460290390-00&ServiceCd=130&Type=search", "url2": null }, "geometry": { "type": "Point", "coordinates": [ 131.496064499999989, 33.2997922 ] } },
{ "type": "Feature", "properties": { "内容": "一燈園訪問看護ステーション【訪問看護】大分県別府市南立石八幡町3組デイサービスセンター南立石一燈園内　3階", "url": "https://www.kaigokensaku.mhlw.go.jp/44/index.php?action_kouhyou_detail_004_kani=true&JigyosyoCd=4460290010-00&ServiceCd=130&Type=search", "url2": "http://www.ittouen.or.jp" }, "geometry": { "type": "Point", "coordinates": [ 131.473863373331767, 33.287144986385648 ] } },
{ "type": "Feature", "properties": { "内容": "訪問看護ステーション偕楽園【訪問看護】大分県別府市南荘園町4番18号", "url": "https://www.kaigokensaku.mhlw.go.jp/44/index.php?action_kouhyou_detail_004_kani=true&JigyosyoCd=4460290325-00&ServiceCd=130&Type=search", "url2": "https://kikakukai.com" }, "geometry": { "type": "Point", "coordinates": [ 131.480639397344959, 33.287546102169166 ] } },
{ "type": "Feature", "properties": { "内容": "訪問看護ステーション　たけい【訪問看護】大分県別府市幸町11番20号", "url": "https://www.kaigokensaku.mhlw.go.jp/44/index.php?action_kouhyou_detail_004_kani=true&JigyosyoCd=4460290580-00&ServiceCd=130&Type=search", "url2": "http://www.takei3411.com/" }, "geometry": { "type": "Point", "coordinates": [ 131.496605100000011, 33.2879474 ] } },
{ "type": "Feature", "properties": { "内容": "h・a株式会社　訪問看護ステーションあずき【訪問看護】大分県中津市大字永添27519", "url": "https://www.kaigokensaku.mhlw.go.jp/44/index.php?action_kouhyou_detail_004_kani=true&JigyosyoCd=4460390034-00&ServiceCd=130&Type=search", "url2": "http://kango-azuki.net" }, "geometry": { "type": "Point", "coordinates": [ 131.196919532485822, 33.559691862739449 ] } },
{ "type": "Feature", "properties": { "内容": "医療法人中津第一病院　訪問看護ステーション　ゆいのて【訪問看護】大分県中津市大字宮夫252-2", "url": "https://www.kaigokensaku.mhlw.go.jp/44/index.php?action_kouhyou_detail_004_kani=true&JigyosyoCd=4460390133-00&ServiceCd=130&Type=search", "url2": "www.nakatsu-daiichi.jp" }, "geometry": { "type": "Point", "coordinates": [ 131.207937500000043, 33.5885075 ] } },
{ "type": "Feature", "properties": { "内容": "訪問看護ステーションひのき【訪問看護】寺町871-2", "url": "https://www.kaigokensaku.mhlw.go.jp/44/index.php?action_kouhyou_detail_004_kani=true&JigyosyoCd=4460390182-00&ServiceCd=130&Type=search", "url2": "https://leaf-kaigo.co.jp/home4/" }, "geometry": { "type": "Point", "coordinates": [ -21.942501, 64.147399 ] } },
{ "type": "Feature", "properties": { "内容": "訪問看護ステーションいちょう並木【訪問看護】大分県中津市大字永添字鍋田507番地2", "url": "https://www.kaigokensaku.mhlw.go.jp/44/index.php?action_kouhyou_detail_004_kani=true&JigyosyoCd=4460390190-00&ServiceCd=130&Type=search", "url2": null }, "geometry": { "type": "Point", "coordinates": [ 131.204900566822943, 33.580687892327205 ] } },
{ "type": "Feature", "properties": { "内容": "訪問看護ステーション　よつ葉【訪問看護】大分県中津市大字永添2636-114", "url": "https://www.kaigokensaku.mhlw.go.jp/44/index.php?action_kouhyou_detail_004_kani=true&JigyosyoCd=4460390042-00&ServiceCd=130&Type=search", "url2": "www.kaigo-yotsuba.com" }, "geometry": { "type": "Point", "coordinates": [ 131.202402, 33.5623198 ] } },
{ "type": "Feature", "properties": { "内容": "訪問看護ステーションふくろう【訪問看護】大分県中津市大字角木232番3", "url": "https://www.kaigokensaku.mhlw.go.jp/44/index.php?action_kouhyou_detail_004_kani=true&JigyosyoCd=4460390091-00&ServiceCd=130&Type=search", "url2": null }, "geometry": { "type": "Point", "coordinates": [ 131.196542002761959, 33.612146312977202 ] } },
{ "type": "Feature", "properties": { "内容": "まつざきクリニック【訪問看護】大分県中津市三光臼木1218", "url": "https://www.kaigokensaku.mhlw.go.jp/44/index.php?action_kouhyou_detail_004_kani=true&JigyosyoCd=4410312450-00&ServiceCd=130&Type=search", "url2": "https://www.matsuzaki-clinic-hp.jp/" }, "geometry": { "type": "Point", "coordinates": [ 131.180273700000043, 33.5310974 ] } },
{ "type": "Feature", "properties": { "内容": "梶原病院訪問看護ステーション【訪問看護】大分県中津市中殿町３丁目２９－８医療法人　梶原病院", "url": "https://www.kaigokensaku.mhlw.go.jp/44/index.php?action_kouhyou_detail_004_kani=true&JigyosyoCd=4460390166-00&ServiceCd=130&Type=search", "url2": "www.kajiwarabyouin.com" }, "geometry": { "type": "Point", "coordinates": [ 131.1945888, 33.5949423 ] } },
{ "type": "Feature", "properties": { "内容": "医療法人三光会なかつ訪問看護ステーション【訪問看護】中津市中央町1丁目3番地54号住宅型有料老人ホーム燦々館中央1階", "url": "https://www.kaigokensaku.mhlw.go.jp/44/index.php?action_kouhyou_detail_004_kani=true&JigyosyoCd=4460390083-00&ServiceCd=130&Type=search", "url2": "houmonkango@dune.ocn.ne.jp" }, "geometry": { "type": "Point", "coordinates": [ 131.192581309354154, 33.592437778048485 ] } },
{ "type": "Feature", "properties": { "内容": "酒井病院訪問看護ステーション【訪問看護】大分県中津市中央町１丁目１番４３号", "url": "https://www.kaigokensaku.mhlw.go.jp/44/index.php?action_kouhyou_detail_004_kani=true&JigyosyoCd=4460390075-00&ServiceCd=130&Type=search", "url2": "http://www.sakai24.org" }, "geometry": { "type": "Point", "coordinates": [ 131.18964410000001, 33.5935743 ] } },
{ "type": "Feature", "properties": { "内容": "訪問看護かえりえ中津【訪問看護】大分県中津市大字下池永826", "url": "https://www.kaigokensaku.mhlw.go.jp/44/index.php?action_kouhyou_detail_004_kani=true&JigyosyoCd=4460390141-00&ServiceCd=130&Type=search", "url2": "https://search.yasashiite.com/detail/houmonkango_nakatsu/" }, "geometry": { "type": "Point", "coordinates": [ 131.220447899999982, 33.587446 ] } },
{ "type": "Feature", "properties": { "内容": "Will訪問看護リハビリテーション【訪問看護】大分県中津市大字大貞371-148", "url": "https://www.kaigokensaku.mhlw.go.jp/44/index.php?action_kouhyou_detail_004_kani=true&JigyosyoCd=4460390174-00&ServiceCd=130&Type=search", "url2": null }, "geometry": { "type": "Point", "coordinates": [ 131.2112668, 33.5663103 ] } },
{ "type": "Feature", "properties": { "内容": "訪問看護ステーションだるま【訪問看護】大分県中津市大字今津620-1", "url": "https://www.kaigokensaku.mhlw.go.jp/44/index.php?action_kouhyou_detail_004_kani=true&JigyosyoCd=4460390109-00&ServiceCd=130&Type=search", "url2": "https://justright-care.net" }, "geometry": { "type": "Point", "coordinates": [ 131.2634583, 33.577044900000018 ] } },
{ "type": "Feature", "properties": { "内容": "かわしま訪問看護リハビリステーション【訪問看護】大分県中津市大字下池永93番地13", "url": "https://www.kaigokensaku.mhlw.go.jp/44/index.php?action_kouhyou_detail_004_kani=true&JigyosyoCd=4460390026-00&ServiceCd=130&Type=search", "url2": "http://kawashimahp.jp/zaitaku/index.html" }, "geometry": { "type": "Point", "coordinates": [ 131.211978389935354, 33.591836956066473 ] } },
{ "type": "Feature", "properties": { "内容": "いずみの園訪問看護ステーション【訪問看護】大分県中津市大字蛎瀬643", "url": "https://www.kaigokensaku.mhlw.go.jp/44/index.php?action_kouhyou_detail_004_kani=true&JigyosyoCd=4460390349-00&ServiceCd=130&Type=search", "url2": "http://www.izuminosono.jp/" }, "geometry": { "type": "Point", "coordinates": [ 131.201215, 33.6034127 ] } },
{ "type": "Feature", "properties": { "内容": "訪問看護ステーションリハビリ倶楽部樹の子【訪問看護】大分県中津市上池永717番地1ビューラースエヒロ3　101号", "url": "https://www.kaigokensaku.mhlw.go.jp/44/index.php?action_kouhyou_detail_004_kani=true&JigyosyoCd=4460390000-00&ServiceCd=130&Type=search", "url2": "https://reha-kinoko.com/" }, "geometry": { "type": "Point", "coordinates": [ 131.207501407534181, 33.578252834585619 ] } },
{ "type": "Feature", "properties": { "内容": "わたなべ整形外科クリニック【訪問看護】大分県中津市大字加来字加来原2283番地201", "url": "https://www.kaigokensaku.mhlw.go.jp/44/index.php?action_kouhyou_detail_004_kani=true&JigyosyoCd=4410312872-00&ServiceCd=130&Type=search", "url2": "https://watanabe-seikei.org" }, "geometry": { "type": "Point", "coordinates": [ 131.202547915344269, 33.559792650518915 ] } },
{ "type": "Feature", "properties": { "内容": "訪問看護ステーションAnge【訪問看護】大分県中津市上宮永友ノ町13番地4", "url": "https://www.kaigokensaku.mhlw.go.jp/44/index.php?action_kouhyou_detail_004_kani=true&JigyosyoCd=4460390232-00&ServiceCd=130&Type=search", "url2": null }, "geometry": { "type": "Point", "coordinates": [ 131.184148599999986, 33.5876211 ] } },
{ "type": "Feature", "properties": { "内容": "訪問看護ステーション青藍【訪問看護】大分県日田市日高町1434番地1医療法人秋水堂在宅事業本部事務所（ケアプラン若宮・訪問看護ステーション青藍）", "url": "https://www.kaigokensaku.mhlw.go.jp/44/index.php?action_kouhyou_detail_004_kani=true&JigyosyoCd=4460490040-00&ServiceCd=130&Type=search", "url2": "http://www.shusuido.or.jp/" }, "geometry": { "type": "Point", "coordinates": [ 130.955271989736559, 33.304091101169739 ] } },
{ "type": "Feature", "properties": { "内容": "堀田クリニック訪問看護部【訪問看護】大分県日田市大字十二町474-1", "url": "https://www.kaigokensaku.mhlw.go.jp/44/index.php?action_kouhyou_detail_004_kani=true&JigyosyoCd=4410412144-00&ServiceCd=130&Type=search", "url2": "http://horita-clinic.com/" }, "geometry": { "type": "Point", "coordinates": [ 130.92014847279259, 33.323703306831554 ] } },
{ "type": "Feature", "properties": { "内容": "訪問看護ステーション訪問看護ほうどう【訪問看護】大分県日田市大字十二町六手726-5岩尾整形外科病院スタッフ棟1階", "url": "https://www.kaigokensaku.mhlw.go.jp/44/index.php?action_kouhyou_detail_004_kani=true&JigyosyoCd=4460490099-00&ServiceCd=130&Type=search", "url2": "https://www.iwaoseikei.com" }, "geometry": { "type": "Point", "coordinates": [ 130.9292245, 33.320333 ] } },
{ "type": "Feature", "properties": { "内容": "日田中央病院訪問看護ステーション【訪問看護】淡窓２丁目５－１７", "url": "https://www.kaigokensaku.mhlw.go.jp/44/index.php?action_kouhyou_detail_004_kani=true&JigyosyoCd=4460490032-00&ServiceCd=130&Type=search", "url2": "http://www.kangikai.or.jp" }, "geometry": { "type": "Point", "coordinates": [ 130.9337554, 33.3222352 ] } },
{ "type": "Feature", "properties": { "内容": "日田市医師会立訪問看護ステーション【訪問看護】大分県日田市清水町８０２－５日田市医師会立日田准看護学院内", "url": "https://www.kaigokensaku.mhlw.go.jp/44/index.php?action_kouhyou_detail_004_kani=true&JigyosyoCd=4460490057-00&ServiceCd=130&Type=search", "url2": "hppt://www.hk-hita.com" }, "geometry": { "type": "Point", "coordinates": [ 130.94208098849947, 33.345776779633745 ] } },
{ "type": "Feature", "properties": { "内容": "あおい訪問看護ステーション【訪問看護】大分県日田市田島2丁目5-6大幸ビル11号", "url": "https://www.kaigokensaku.mhlw.go.jp/44/index.php?action_kouhyou_detail_004_kani=true&JigyosyoCd=4460490073-00&ServiceCd=130&Type=search", "url2": "https://www.nanairo-official.com/" }, "geometry": { "type": "Point", "coordinates": [ 130.941271906745897, 33.320442963772763 ] } },
{ "type": "Feature", "properties": { "内容": "ニチイケアセンター日田訪問看護ステーション【訪問看護】大分県日田市三芳小渕町36番", "url": "https://www.kaigokensaku.mhlw.go.jp/44/index.php?action_kouhyou_detail_004_kani=true&JigyosyoCd=4460490016-00&ServiceCd=130&Type=search", "url2": null }, "geometry": { "type": "Point", "coordinates": [ 130.9508045, 33.3049484 ] } },
{ "type": "Feature", "properties": { "内容": "済生会まほろば訪問看護ステーション【訪問看護】大分県日田市大字三和643番地7（済生会日田病院敷地内）", "url": "https://www.kaigokensaku.mhlw.go.jp/44/index.php?action_kouhyou_detail_004_kani=true&JigyosyoCd=4460490081-00&ServiceCd=130&Type=search", "url2": "https://saiseikai.hita.oita.jp/byoin/kanrenshisetsu/mahoroba.html" }, "geometry": { "type": "Point", "coordinates": [ 130.940943, 33.345466 ] } },
{ "type": "Feature", "properties": { "内容": "訪問看護ステーション　いわさと【訪問看護】大字庄手242", "url": "https://www.kaigokensaku.mhlw.go.jp/44/index.php?action_kouhyou_detail_004_kani=true&JigyosyoCd=4460490024-00&ServiceCd=130&Type=search", "url2": "http://www/seiryou.or.jp/" }, "geometry": { "type": "Point", "coordinates": [ 130.923139445075179, 33.316585508505355 ] } },
{ "type": "Feature", "properties": { "内容": "訪問看護フローラ和【訪問看護】大分県佐伯市長島町３丁目13-12", "url": "https://www.kaigokensaku.mhlw.go.jp/44/index.php?action_kouhyou_detail_004_kani=true&JigyosyoCd=4460590096-00&ServiceCd=130&Type=search", "url2": null }, "geometry": { "type": "Point", "coordinates": [ 131.9071427, 32.9567732 ] } },
{ "type": "Feature", "properties": { "内容": "やよい・まちの訪問看護ステーション【訪問看護】弥生大字上小倉154番地1", "url": "https://www.kaigokensaku.mhlw.go.jp/44/index.php?action_kouhyou_detail_004_kani=true&JigyosyoCd=4460590047-00&ServiceCd=130&Type=search", "url2": "https://r.goope.jp/sr-44-4440210031" }, "geometry": { "type": "Point", "coordinates": [ 131.832245599999965, 32.9728004 ] } },
{ "type": "Feature", "properties": { "内容": "訪問看護ステーションほの花【訪問看護】大分県佐伯市直川大字下直見2477番地", "url": "https://www.kaigokensaku.mhlw.go.jp/44/index.php?action_kouhyou_detail_004_kani=true&JigyosyoCd=4460590104-00&ServiceCd=130&Type=search", "url2": null }, "geometry": { "type": "Point", "coordinates": [ 131.8089185, 32.9296221 ] } },
{ "type": "Feature", "properties": { "内容": "訪問看護ステーションさいき【訪問看護】池船町３０番１３号", "url": "https://www.kaigokensaku.mhlw.go.jp/44/index.php?action_kouhyou_detail_004_kani=true&JigyosyoCd=4460590021-00&ServiceCd=130&Type=search", "url2": "http://www.homenurse.jp" }, "geometry": { "type": "Point", "coordinates": [ 131.892544600000065, 32.9521011 ] } },
{ "type": "Feature", "properties": { "内容": "社会医療法人敬和会　けいわ訪問看護ステーション　佐伯【訪問看護】大分県佐伯市東町27-12おおいた県南ホスピタル院内", "url": "https://www.kaigokensaku.mhlw.go.jp/44/index.php?action_kouhyou_detail_004_kani=true&JigyosyoCd=4460590088-00&ServiceCd=130&Type=search", "url2": "https：//keiwakai.oita.jp" }, "geometry": { "type": "Point", "coordinates": [ 131.909646040475394, 32.964134255137935 ] } },
{ "type": "Feature", "properties": { "内容": "訪問看護ステーション　佐伯の太陽【訪問看護】大分県佐伯市常盤東町6－30佐伯中央病院　佐伯の太陽", "url": "https://www.kaigokensaku.mhlw.go.jp/44/index.php?action_kouhyou_detail_004_kani=true&JigyosyoCd=4460590013-00&ServiceCd=130&Type=search", "url2": "http://www.saikichuo.net" }, "geometry": { "type": "Point", "coordinates": [ 131.90214399350134, 32.965365646887626 ] } },
{ "type": "Feature", "properties": { "内容": "訪問看護ステーション長門【訪問看護】大分県佐伯市鶴岡町１丁目６番３号", "url": "https://www.kaigokensaku.mhlw.go.jp/44/index.php?action_kouhyou_detail_004_kani=true&JigyosyoCd=4460590666-00&ServiceCd=130&Type=search", "url2": "https://www.nagato.or.jp/" }, "geometry": { "type": "Point", "coordinates": [ 131.883120100000042, 32.9582057 ] } },
{ "type": "Feature", "properties": { "内容": "独立行政法人地域医療機能推進機構　南海医療センター附属訪問看護ステーション【訪問看護】大分県佐伯市常盤西町7番8号", "url": "https://www.kaigokensaku.mhlw.go.jp/44/index.php?action_kouhyou_detail_004_kani=true&JigyosyoCd=4460590120-00&ServiceCd=130&Type=search", "url2": "https://nankai.jcho.go.jp/" }, "geometry": { "type": "Point", "coordinates": [ 131.8995578, 32.9651922 ] } },
{ "type": "Feature", "properties": { "内容": "野津第一内科医院【訪問看護】大分県臼杵市野津町大字野津市５１０", "url": "https://www.kaigokensaku.mhlw.go.jp/44/index.php?action_kouhyou_detail_004_kani=true&JigyosyoCd=4410611281-00&ServiceCd=130&Type=search", "url2": null }, "geometry": { "type": "Point", "coordinates": [ 131.688891600000034, 33.0408022 ] } },
{ "type": "Feature", "properties": { "内容": "臼杵市医師会訪問看護ステーションコスモス【訪問看護】大分県臼杵市大字戸室字長谷1131番1", "url": "https://www.kaigokensaku.mhlw.go.jp/44/index.php?action_kouhyou_detail_004_kani=true&JigyosyoCd=4460690128-00&ServiceCd=130&Type=search", "url2": "http://www.usukicosmos-med.or.jp" }, "geometry": { "type": "Point", "coordinates": [ 131.779565070747395, 33.123820845841969 ] } },
{ "type": "Feature", "properties": { "内容": "臼杵病院訪問看護ステーション【訪問看護】大分県臼杵市大字江無田1154番地1臼杵病院", "url": "https://www.kaigokensaku.mhlw.go.jp/44/index.php?action_kouhyou_detail_004_kani=true&JigyosyoCd=4460690060-00&ServiceCd=130&Type=search", "url2": "http://usuki-hospital.or.jp/" }, "geometry": { "type": "Point", "coordinates": [ 131.780135299999984, 33.1251661 ] } },
{ "type": "Feature", "properties": { "内容": "訪問看護ステーション　秋岡【訪問看護】大分県津久見市徳浦本町7番3号", "url": "https://www.kaigokensaku.mhlw.go.jp/44/index.php?action_kouhyou_detail_004_kani=true&JigyosyoCd=4460790027-00&ServiceCd=130&Type=search", "url2": "https://www.i-kkan-ken.jp/" }, "geometry": { "type": "Point", "coordinates": [ 131.8508501, 33.0918084 ] } },
{ "type": "Feature", "properties": { "内容": "津久見市医師会　訪問看護ステーション　やすら木【訪問看護】大分県津久見市大字千怒６１１１番地ー１", "url": "https://www.kaigokensaku.mhlw.go.jp/44/index.php?action_kouhyou_detail_004_kani=true&JigyosyoCd=4460790530-00&ServiceCd=130&Type=search", "url2": null }, "geometry": { "type": "Point", "coordinates": [ 131.888519099999939, 33.0721396 ] } },
{ "type": "Feature", "properties": { "内容": "竹田市医師会立竹田訪問看護ステーション【訪問看護】大分県竹田市大字拝田原４４８番地", "url": "https://www.kaigokensaku.mhlw.go.jp/44/index.php?action_kouhyou_detail_004_kani=true&JigyosyoCd=4460890454-00&ServiceCd=130&Type=search", "url2": "http://taketasiisikai.sakura.ne.jp/0009x.html" }, "geometry": { "type": "Point", "coordinates": [ 131.379520899999989, 32.9585433 ] } },
{ "type": "Feature", "properties": { "内容": "おしうみ訪問看護ステーション【訪問看護】大分県豊後高田市玉津357番地", "url": "https://www.kaigokensaku.mhlw.go.jp/44/index.php?action_kouhyou_detail_004_kani=true&JigyosyoCd=4460990023-00&ServiceCd=130&Type=search", "url2": "https://oshiumi.net/" }, "geometry": { "type": "Point", "coordinates": [ 131.4439295, 33.5611119 ] } },
{ "type": "Feature", "properties": { "内容": "豊後高田訪問看護ステーションあゆみ【訪問看護】大分県豊後高田市新地1176番地1", "url": "https://www.kaigokensaku.mhlw.go.jp/44/index.php?action_kouhyou_detail_004_kani=true&JigyosyoCd=4460990205-00&ServiceCd=130&Type=search", "url2": "http://www.takachuo.com/" }, "geometry": { "type": "Point", "coordinates": [ 131.440571871163911, 33.554251614684368 ] } },
{ "type": "Feature", "properties": { "内容": "杵築中央病院訪問看護ステーション【訪問看護】大分県杵築市大字杵築120番地", "url": "https://www.kaigokensaku.mhlw.go.jp/44/index.php?action_kouhyou_detail_004_kani=true&JigyosyoCd=4461090021-00&ServiceCd=130&Type=search", "url2": null }, "geometry": { "type": "Point", "coordinates": [ 131.6234551, 33.4156875 ] } },
{ "type": "Feature", "properties": { "内容": "株式会社訪問看護ステーション青空【訪問看護】大分県杵築市熊野857-73", "url": "https://www.kaigokensaku.mhlw.go.jp/44/index.php?action_kouhyou_detail_004_kani=true&JigyosyoCd=4461090013-00&ServiceCd=130&Type=search", "url2": "https://st-aozora2011.com/" }, "geometry": { "type": "Point", "coordinates": [ 131.643842322229034, 33.381254287937125 ] } },
{ "type": "Feature", "properties": { "内容": "杵築市山香訪問看護ステーション【訪問看護】大分県杵築市山香町大字野原1612番地の1", "url": "https://www.kaigokensaku.mhlw.go.jp/44/index.php?action_kouhyou_detail_004_kani=true&JigyosyoCd=4462290174-00&ServiceCd=130&Type=search", "url2": "http://yamaga-hp.jp" }, "geometry": { "type": "Point", "coordinates": [ 131.508643399999983, 33.445336 ] } },
{ "type": "Feature", "properties": { "内容": "むすび訪問看護ステーション【訪問看護】大分県杵築市大字杵築665番地623シーサイドタウンSEN　D201号", "url": "https://www.kaigokensaku.mhlw.go.jp/44/index.php?action_kouhyou_detail_004_kani=true&JigyosyoCd=4461090047-00&ServiceCd=130&Type=search", "url2": "musubi-kango.co.jp/" }, "geometry": { "type": "Point", "coordinates": [ 131.631684741884584, 33.41544560382043 ] } },
{ "type": "Feature", "properties": { "内容": "きつき訪問看護ステーション【訪問看護】大分県杵築市大字大内字塩浜7701番1", "url": "https://www.kaigokensaku.mhlw.go.jp/44/index.php?action_kouhyou_detail_004_kani=true&JigyosyoCd=4461090526-00&ServiceCd=130&Type=search", "url2": "http://etoh-g.jp/" }, "geometry": { "type": "Point", "coordinates": [ 131.631311815205436, 33.424493119376024 ] } },
{ "type": "Feature", "properties": { "内容": "訪問看護ステーションたんぽぽ【訪問看護】大分県宇佐市安心院町新原130-1", "url": "https://www.kaigokensaku.mhlw.go.jp/44/index.php?action_kouhyou_detail_004_kani=true&JigyosyoCd=4461190110-00&ServiceCd=130&Type=search", "url2": "https://ｒ.goope.jp>houkan-tannpopo" }, "geometry": { "type": "Point", "coordinates": [ 131.365158165171238, 33.440575772493233 ] } },
{ "type": "Feature", "properties": { "内容": "医療法人時枝内科医院【介護予防訪問看護】【訪問看護】大分県宇佐市大字葛原７７７番地の１", "url": "https://www.kaigokensaku.mhlw.go.jp/44/index.php?action_kouhyou_detail_004_kani=true&JigyosyoCd=4411111364-00&ServiceCd=130&Type=search", "url2": "https://tokiedaclinic.jp/" }, "geometry": { "type": "Point", "coordinates": [ 131.330050699999958, 33.536252 ] } },
{ "type": "Feature", "properties": { "内容": "セントケア訪問看護ステーション宇佐【訪問看護】大分県宇佐市四日市1469－1", "url": "https://www.kaigokensaku.mhlw.go.jp/44/index.php?action_kouhyou_detail_004_kani=true&JigyosyoCd=4461190078-00&ServiceCd=130&Type=search", "url2": "なし" }, "geometry": { "type": "Point", "coordinates": [ 131.330059100000028, 33.5278749 ] } },
{ "type": "Feature", "properties": { "内容": "訪問看護ステーションみらい【訪問看護】大分県宇佐市大字出光165番地の1", "url": "https://www.kaigokensaku.mhlw.go.jp/44/index.php?action_kouhyou_detail_004_kani=true&JigyosyoCd=4461190128-00&ServiceCd=130&Type=search", "url2": "https://wadahp.com/section/support/nursing_visiting.html" }, "geometry": { "type": "Point", "coordinates": [ 131.411668387696864, 33.529877667864497 ] } },
{ "type": "Feature", "properties": { "内容": "訪問看護ステーション明日花【訪問看護】大分県宇佐市法鏡寺77の1", "url": "https://www.kaigokensaku.mhlw.go.jp/44/index.php?action_kouhyou_detail_004_kani=true&JigyosyoCd=4461190094-00&ServiceCd=130&Type=search", "url2": "https://sato-d1.com/" }, "geometry": { "type": "Point", "coordinates": [ 131.3434337, 33.5263517 ] } },
{ "type": "Feature", "properties": { "内容": "訪問看護ステーションいとぐち【訪問看護】大分県宇佐市大字猿渡１０４８番地の３２", "url": "https://www.kaigokensaku.mhlw.go.jp/44/index.php?action_kouhyou_detail_004_kani=true&JigyosyoCd=4461190029-00&ServiceCd=130&Type=search", "url2": "http://www.houmonkango-itoguchi.com/" }, "geometry": { "type": "Point", "coordinates": [ 131.302502953885408, 33.541774238465543 ] } },
{ "type": "Feature", "properties": { "内容": "訪問看護ステーション　えにし【訪問看護】大分県宇佐市大字上高家1348番地", "url": "https://www.kaigokensaku.mhlw.go.jp/44/index.php?action_kouhyou_detail_004_kani=true&JigyosyoCd=4461190060-00&ServiceCd=130&Type=search", "url2": "https://enishi-care.jp/" }, "geometry": { "type": "Point", "coordinates": [ 131.321256393254089, 33.563845310150711 ] } },
{ "type": "Feature", "properties": { "内容": "訪問看護ステーション夢【訪問看護】大分県宇佐市別府１６番地の５", "url": "https://www.kaigokensaku.mhlw.go.jp/44/index.php?action_kouhyou_detail_004_kani=true&JigyosyoCd=4461190011-00&ServiceCd=130&Type=search", "url2": "http://www.human-totalcare.co.jp" }, "geometry": { "type": "Point", "coordinates": [ 131.345262, 33.5242422 ] } },
{ "type": "Feature", "properties": { "内容": "訪問看護ステーション宇佐【訪問看護】大分県宇佐市東高家138-1", "url": "https://www.kaigokensaku.mhlw.go.jp/44/index.php?action_kouhyou_detail_004_kani=true&JigyosyoCd=4461190045-00&ServiceCd=130&Type=search", "url2": null }, "geometry": { "type": "Point", "coordinates": [ 131.308372776718386, 33.568651315312195 ] } },
{ "type": "Feature", "properties": { "内容": "医療法人　悠久会【訪問看護】院内町櫛野167-1", "url": "https://www.kaigokensaku.mhlw.go.jp/44/index.php?action_kouhyou_detail_004_kani=true&JigyosyoCd=4411111240-00&ServiceCd=130&Type=search", "url2": "http://www.care-horikawa.info/" }, "geometry": { "type": "Point", "coordinates": [ 131.328235899999981, 33.4535929 ] } },
{ "type": "Feature", "properties": { "内容": "天心堂おおの訪問看護ステーション【訪問看護】大分県豊後大野市大野町田中2番地9", "url": "https://www.kaigokensaku.mhlw.go.jp/44/index.php?action_kouhyou_detail_004_kani=true&JigyosyoCd=4461290035-00&ServiceCd=130&Type=search", "url2": "https://www.tenshindo.org/" }, "geometry": { "type": "Point", "coordinates": [ 131.501976899999988, 33.0363957 ] } },
{ "type": "Feature", "properties": { "内容": "訪問看護ステーションふくしま【訪問看護】大分県豊後大野市三重町市場231", "url": "https://www.kaigokensaku.mhlw.go.jp/44/index.php?action_kouhyou_detail_004_kani=true&JigyosyoCd=4461290068-00&ServiceCd=130&Type=search", "url2": "https://shinseikai-fukushima.com" }, "geometry": { "type": "Point", "coordinates": [ 131.58653910000001, 32.9813767 ] } },
{ "type": "Feature", "properties": { "内容": "福島病院指定訪問看護事業係【訪問看護】大分県豊後大野市三重町市場231番地", "url": "https://www.kaigokensaku.mhlw.go.jp/44/index.php?action_kouhyou_detail_004_kani=true&JigyosyoCd=4411210182-00&ServiceCd=130&Type=search", "url2": "https://www.shinseikai-fukushima.com" }, "geometry": { "type": "Point", "coordinates": [ 131.586714222964474, 32.98159020238451 ] } },
{ "type": "Feature", "properties": { "内容": "ナーシングステーションI.C【訪問看護】三重町芦刈1464", "url": "https://www.kaigokensaku.mhlw.go.jp/44/index.php?action_kouhyou_detail_004_kani=true&JigyosyoCd=4461290050-00&ServiceCd=130&Type=search", "url2": "https://www.individuality-care.jp/" }, "geometry": { "type": "Point", "coordinates": [ 131.599898533035287, 32.997752150298886 ] } },
{ "type": "Feature", "properties": { "内容": "みえ訪問看護ステーション【訪問看護】大分県豊後大野市三重町赤嶺1259番地", "url": "https://www.kaigokensaku.mhlw.go.jp/44/index.php?action_kouhyou_detail_004_kani=true&JigyosyoCd=4462690076-00&ServiceCd=130&Type=search", "url2": "http://www.kigankai.or.jp/" }, "geometry": { "type": "Point", "coordinates": [ 131.599570699999958, 32.9873799 ] } },
{ "type": "Feature", "properties": { "内容": "すこやか訪問看護ステーション【訪問看護】大分県豊後大野市緒方町馬場２７６番地", "url": "https://www.kaigokensaku.mhlw.go.jp/44/index.php?action_kouhyou_detail_004_kani=true&JigyosyoCd=4462690068-00&ServiceCd=130&Type=search", "url2": "http://bungo-ohno-hp.jp/houmon.html" }, "geometry": { "type": "Point", "coordinates": [ 131.476086799999962, 32.9698389 ] } },
{ "type": "Feature", "properties": { "内容": "訪問看護ステーションまごの手【訪問看護】大分県豊後大野市朝地町下野442番地2", "url": "https://www.kaigokensaku.mhlw.go.jp/44/index.php?action_kouhyou_detail_004_kani=true&JigyosyoCd=4461290043-00&ServiceCd=130&Type=search", "url2": "https://magonote-care.com" }, "geometry": { "type": "Point", "coordinates": [ 131.4591356, 33.0042628 ] } },
{ "type": "Feature", "properties": { "内容": "あかね訪問看護ステーション【訪問看護】大分県由布市挾間町下市578番2コーポ杉本102", "url": "https://www.kaigokensaku.mhlw.go.jp/44/index.php?action_kouhyou_detail_004_kani=true&JigyosyoCd=4461390074-00&ServiceCd=130&Type=search", "url2": "http://hp.kaipoke.biz/653/" }, "geometry": { "type": "Point", "coordinates": [ 131.520210535581981, 33.204104239626616 ] } },
{ "type": "Feature", "properties": { "内容": "ゆずの木訪問看護ステーション【訪問看護】由布市湯布院町川上2730－1番地", "url": "https://www.kaigokensaku.mhlw.go.jp/44/index.php?action_kouhyou_detail_004_kani=true&JigyosyoCd=4461390058-00&ServiceCd=130&Type=search", "url2": "https://yuzunoki-clinic.com/" }, "geometry": { "type": "Point", "coordinates": [ 131.3633259, 33.2652187 ] } },
{ "type": "Feature", "properties": { "内容": "訪問看護ステーション　ハンズ【訪問看護】大分県由布市挾間町挟間612番地1", "url": "https://www.kaigokensaku.mhlw.go.jp/44/index.php?action_kouhyou_detail_004_kani=true&JigyosyoCd=4461390017-00&ServiceCd=130&Type=search", "url2": "https://hanzu-houkan.com" }, "geometry": { "type": "Point", "coordinates": [ 131.518024400000058, 33.2001048 ] } },
{ "type": "Feature", "properties": { "内容": "ＬＡ・ＬＡ訪問看護ステーション【訪問看護】挾間町赤野字芥神814番地-1", "url": "https://www.kaigokensaku.mhlw.go.jp/44/index.php?action_kouhyou_detail_004_kani=true&JigyosyoCd=4461390066-00&ServiceCd=130&Type=search", "url2": null }, "geometry": { "type": "Point", "coordinates": [ 131.496203054553234, 33.211309708732571 ] } },
{ "type": "Feature", "properties": { "内容": "独立行政法人地域医療推進機構湯布院病院付属訪問看護ステーション【訪問看護】大分県由布市湯布院町川南２５２番地", "url": "https://www.kaigokensaku.mhlw.go.jp/44/index.php?action_kouhyou_detail_004_kani=true&JigyosyoCd=4461390033-00&ServiceCd=130&Type=search", "url2": "https://yufuin.jcho.go.jp" }, "geometry": { "type": "Point", "coordinates": [ 131.362473899999941, 33.2564816 ] } },
{ "type": "Feature", "properties": { "内容": "クローバー訪問看護ステーション【訪問看護】大分県国東市安岐町塩屋345番地1ハーバーライトＩ１０１", "url": "https://www.kaigokensaku.mhlw.go.jp/44/index.php?action_kouhyou_detail_004_kani=true&JigyosyoCd=4461490015-00&ServiceCd=130&Type=search", "url2": "https://clover-st.com" }, "geometry": { "type": "Point", "coordinates": [ 131.719961246032682, 33.455532863895137 ] } },
{ "type": "Feature", "properties": { "内容": "訪問看護ステーションはるかぜ【訪問看護】大分県国東市国見町大熊毛字花開１８２番地はるかぜ醫院", "url": "https://www.kaigokensaku.mhlw.go.jp/44/index.php?action_kouhyou_detail_004_kani=true&JigyosyoCd=4462190614-00&ServiceCd=130&Type=search", "url2": "harukaze-med.jp" }, "geometry": { "type": "Point", "coordinates": [ 131.666120500000034, 33.656255 ] } },
{ "type": "Feature", "properties": { "内容": "指定訪問看護ステーション　あずき【訪問看護】国東町小原2650番地あおぞら病院", "url": "https://www.kaigokensaku.mhlw.go.jp/44/index.php?action_kouhyou_detail_004_kani=true&JigyosyoCd=4461490031-00&ServiceCd=130&Type=search", "url2": null }, "geometry": { "type": "Point", "coordinates": [ 131.7385917, 33.5448552 ] } },
{ "type": "Feature", "properties": { "内容": "訪問看護ステーション　はまゆう【訪問看護】大分県国東市国見町伊美2641番地1", "url": "https://www.kaigokensaku.mhlw.go.jp/44/index.php?action_kouhyou_detail_004_kani=true&JigyosyoCd=4462190622-00&ServiceCd=130&Type=search", "url2": "http://www.horita.or.jp" }, "geometry": { "type": "Point", "coordinates": [ 131.5983268, 33.6846962 ] } },
{ "type": "Feature", "properties": { "内容": "訪問看護ステーションひなた【訪問看護】大分県国東市国東町富来浦1233番地", "url": "https://www.kaigokensaku.mhlw.go.jp/44/index.php?action_kouhyou_detail_004_kani=true&JigyosyoCd=4461490023-00&ServiceCd=130&Type=search", "url2": "http://hp.kaipoke.biz>zxp" }, "geometry": { "type": "Point", "coordinates": [ 131.7086198, 33.6039605 ] } },
{ "type": "Feature", "properties": { "内容": "訪問看護ステーションくにさき【訪問看護】大分県国東市安岐町下原1456番地", "url": "https://www.kaigokensaku.mhlw.go.jp/44/index.php?action_kouhyou_detail_004_kani=true&JigyosyoCd=4462190333-00&ServiceCd=130&Type=search", "url2": "http://www.kunisaki-hp.jp/site/hospital/ns-homen.html" }, "geometry": { "type": "Point", "coordinates": [ 131.720273818910186, 33.468456201215965 ] } },
{ "type": "Feature", "properties": { "内容": "ひじ訪問看護ステーション【訪問看護】大分県速見郡日出町川崎837番地１", "url": "https://www.kaigokensaku.mhlw.go.jp/44/index.php?action_kouhyou_detail_004_kani=true&JigyosyoCd=4462290216-00&ServiceCd=130&Type=search", "url2": "http//www.hiji-kodama.jp/" }, "geometry": { "type": "Point", "coordinates": [ 131.54378040000006, 33.3678188 ] } },
{ "type": "Feature", "properties": { "内容": "訪問看護ステーション　サンライズ・ビュー【訪問看護】大分県速見郡日出町1827番地1", "url": "https://www.kaigokensaku.mhlw.go.jp/44/index.php?action_kouhyou_detail_004_kani=true&JigyosyoCd=4462290497-00&ServiceCd=130&Type=search", "url2": "http://www.heiseikai.com/" }, "geometry": { "type": "Point", "coordinates": [ 131.529048870608563, 33.370944783134085 ] } },
{ "type": "Feature", "properties": { "内容": "訪問看護ステーション　あゆみ【訪問看護】大分県速見郡日出町豊岡1027‐9", "url": "https://www.kaigokensaku.mhlw.go.jp/44/index.php?action_kouhyou_detail_004_kani=true&JigyosyoCd=4462290034-00&ServiceCd=130&Type=search", "url2": null }, "geometry": { "type": "Point", "coordinates": [ 131.498086, 33.3591812 ] } },
{ "type": "Feature", "properties": { "内容": "暘谷苑訪問看護ステーション【訪問看護】大分県速見郡日出町３８７８ー１３ブルームビル２階", "url": "https://www.kaigokensaku.mhlw.go.jp/44/index.php?action_kouhyou_detail_004_kani=true&JigyosyoCd=4462290018-00&ServiceCd=130&Type=search", "url2": "http://www.youkoku.or.jp/" }, "geometry": { "type": "Point", "coordinates": [ 131.534361613543979, 33.373125048307848 ] } },
{ "type": "Feature", "properties": { "内容": "明友サービスセンター【訪問看護】大分県玖珠郡九重町大字菅原739-219", "url": "https://www.kaigokensaku.mhlw.go.jp/44/index.php?action_kouhyou_detail_004_kani=true&JigyosyoCd=4462890015-00&ServiceCd=130&Type=search", "url2": null }, "geometry": { "type": "Point", "coordinates": [ 131.127066, 33.1821458 ] } }
]
}
