{
"type": "FeatureCollection",
"name": "geo_44_地域密着型通所介護",
"crs": { "type": "name", "properties": { "name": "urn:ogc:def:crs:OGC:1.3:CRS84" } },
"features": [
{ "type": "Feature", "properties": { "内容": "フェリス高尾【地域密着型通所介護】大分県大分市大字横尾字高尾4067-1", "url": "https://www.kaigokensaku.mhlw.go.jp/44/index.php?action_kouhyou_detail_004_kani=true&JigyosyoCd=4490100650-00&ServiceCd=780&Type=search", "url2": null }, "geometry": { "type": "Point", "coordinates": [ 131.660409811921227, 33.209473348005119 ] } },
{ "type": "Feature", "properties": { "内容": "デイサービス　心笑花【地域密着型通所介護】大分県大分市野津原字久保1505-13", "url": "https://www.kaigokensaku.mhlw.go.jp/44/index.php?action_kouhyou_detail_004_kani=true&JigyosyoCd=4490100817-00&ServiceCd=780&Type=search", "url2": null }, "geometry": { "type": "Point", "coordinates": [ 131.527054546050067, 33.160637312563871 ] } },
{ "type": "Feature", "properties": { "内容": "リハプライド　おおいたわさだ【地域密着型通所介護】上宗方567番地8日生第6マンション102", "url": "https://www.kaigokensaku.mhlw.go.jp/44/index.php?action_kouhyou_detail_004_kani=true&JigyosyoCd=4490100791-00&ServiceCd=780&Type=search", "url2": "https://www.rehapride.co.jp/ooitawasada/" }, "geometry": { "type": "Point", "coordinates": [ 131.579135995106526, 33.194916720858231 ] } },
{ "type": "Feature", "properties": { "内容": "ガーデン【地域密着型通所介護】大分県大分市大字鴛野1339番地の1", "url": "https://www.kaigokensaku.mhlw.go.jp/44/index.php?action_kouhyou_detail_004_kani=true&JigyosyoCd=4470110208-00&ServiceCd=780&Type=search", "url2": null }, "geometry": { "type": "Point", "coordinates": [ 131.617178, 33.1840915 ] } },
{ "type": "Feature", "properties": { "内容": "大分市大在中央1丁目4番8号【地域密着型通所介護】大分県大分市大在中央1丁目4番8号", "url": "https://www.kaigokensaku.mhlw.go.jp/44/index.php?action_kouhyou_detail_004_kani=true&JigyosyoCd=4490100874-00&ServiceCd=780&Type=search", "url2": null }, "geometry": { "type": "Point", "coordinates": [ 131.717614700000013, 33.2472484 ] } },
{ "type": "Feature", "properties": { "内容": "デイサービスセンター赤とんぼ三佐【地域密着型通所介護】大分県大分市三佐１－６－２３", "url": "https://www.kaigokensaku.mhlw.go.jp/44/index.php?action_kouhyou_detail_004_kani=true&JigyosyoCd=4470106354-00&ServiceCd=780&Type=search", "url2": "http://www.akatombo-oita.jp" }, "geometry": { "type": "Point", "coordinates": [ 131.678060400000049, 33.2520923 ] } },
{ "type": "Feature", "properties": { "内容": "介護予防センター　早稲田イーライフ大分【地域密着型通所介護】大分県大分市大道町4-3-12ルーセント大道101", "url": "https://www.kaigokensaku.mhlw.go.jp/44/index.php?action_kouhyou_detail_004_kani=true&JigyosyoCd=4490100858-00&ServiceCd=780&Type=search", "url2": "http://hp.kaipoke.biz/vtb/index.html" }, "geometry": { "type": "Point", "coordinates": [ 131.598399699999959, 33.228799 ] } },
{ "type": "Feature", "properties": { "内容": "デイサービスセンター　イゴコチ【地域密着型通所介護】大分県大分市横塚一丁目３１１番", "url": "https://www.kaigokensaku.mhlw.go.jp/44/index.php?action_kouhyou_detail_004_kani=true&JigyosyoCd=4470109143-00&ServiceCd=780&Type=search", "url2": null }, "geometry": { "type": "Point", "coordinates": [ 131.740649599999983, 33.2394117 ] } },
{ "type": "Feature", "properties": { "内容": "デイサービスセンター母家【地域密着型通所介護】大分県大分市大字志生木2466-1", "url": "https://www.kaigokensaku.mhlw.go.jp/44/index.php?action_kouhyou_detail_004_kani=true&JigyosyoCd=4472400227-00&ServiceCd=780&Type=search", "url2": null }, "geometry": { "type": "Point", "coordinates": [ 131.8451374, 33.2434452 ] } },
{ "type": "Feature", "properties": { "内容": "リハプライドおおいたわさだ【地域密着型通所介護】大分県大分市上宗方567番地8日生第６マンション102", "url": "https://www.kaigokensaku.mhlw.go.jp/44/index.php?action_kouhyou_detail_004_kani=true&JigyosyoCd=4490100981-00&ServiceCd=780&Type=search", "url2": "https//www.rehapride.co.jp/ooitawasada/" }, "geometry": { "type": "Point", "coordinates": [ 131.579070200000018, 33.1949754 ] } },
{ "type": "Feature", "properties": { "内容": "デイサービス　Family【地域密着型通所介護】羽田256-1タンネンバウム　１階", "url": "https://www.kaigokensaku.mhlw.go.jp/44/index.php?action_kouhyou_detail_004_kani=true&JigyosyoCd=4490101062-00&ServiceCd=780&Type=search", "url2": null }, "geometry": { "type": "Point", "coordinates": [ 131.63629, 33.21797 ] } },
{ "type": "Feature", "properties": { "内容": "医療法人NOCななせリハデイ【地域密着型通所介護】大分県大分市玉沢696番地の1", "url": "https://www.kaigokensaku.mhlw.go.jp/44/index.php?action_kouhyou_detail_004_kani=true&JigyosyoCd=4490100882-00&ServiceCd=780&Type=search", "url2": null }, "geometry": { "type": "Point", "coordinates": [ 131.579406699999936, 33.1863938 ] } },
{ "type": "Feature", "properties": { "内容": "けいわデイサービスいきいきみなはる【地域密着型通所介護】大分県大分市大字皆春1521番地の13階", "url": "https://www.kaigokensaku.mhlw.go.jp/44/index.php?action_kouhyou_detail_004_kani=true&JigyosyoCd=4490100940-00&ServiceCd=780&Type=search", "url2": "https://keiwakai.oita.jp/hojuen" }, "geometry": { "type": "Point", "coordinates": [ 131.6845629, 33.2357412 ] } },
{ "type": "Feature", "properties": { "内容": "デイサービス　よっちょくれ【地域密着型通所介護】大字横尾3074番地4", "url": "https://www.kaigokensaku.mhlw.go.jp/44/index.php?action_kouhyou_detail_004_kani=true&JigyosyoCd=4490101203-00&ServiceCd=780&Type=search", "url2": "https://www.big-advance.site/s/207/1556" }, "geometry": { "type": "Point", "coordinates": [ 131.6671251, 33.2063768 ] } },
{ "type": "Feature", "properties": { "内容": "あおばデイルーム【地域密着型通所介護】畑中三丁目９番２号", "url": "https://www.kaigokensaku.mhlw.go.jp/44/index.php?action_kouhyou_detail_004_kani=true&JigyosyoCd=4490101153-00&ServiceCd=780&Type=search", "url2": null }, "geometry": { "type": "Point", "coordinates": [ 131.593277771025072, 33.207358324267176 ] } },
{ "type": "Feature", "properties": { "内容": "Let’ｓリハ！　桃園店【地域密着型通所介護】山津町2丁目6番3号", "url": "https://www.kaigokensaku.mhlw.go.jp/44/index.php?action_kouhyou_detail_004_kani=true&JigyosyoCd=4490101229-00&ServiceCd=780&Type=search", "url2": "https://www.lets-reha.jp/shop/momozono/" }, "geometry": { "type": "Point", "coordinates": [ 131.6701837374344, 33.242152164855909 ] } },
{ "type": "Feature", "properties": { "内容": "Let’sリハ！わさだ店【地域密着型通所介護】大分県大分市玉沢696－1", "url": "https://www.kaigokensaku.mhlw.go.jp/44/index.php?action_kouhyou_detail_004_kani=true&JigyosyoCd=4490101286-00&ServiceCd=780&Type=search", "url2": "https://www.lets-reha.jp/" }, "geometry": { "type": "Point", "coordinates": [ 131.5794797, 33.1864369 ] } },
{ "type": "Feature", "properties": { "内容": "Let’sリハ！トキハ医大前店【地域密着型通所介護】大分県大分市東野台2丁目1番トキハインダストリーアテオ学園台センター　1階", "url": "https://www.kaigokensaku.mhlw.go.jp/44/index.php?action_kouhyou_detail_004_kani=true&JigyosyoCd=4490101310-00&ServiceCd=780&Type=search", "url2": "https://www.lets-reha.jp/" }, "geometry": { "type": "Point", "coordinates": [ 131.5397006, 33.2086068 ] } },
{ "type": "Feature", "properties": { "内容": "デイサービスセンターレンゲ【地域密着型通所介護】大分市野津原二ノ瀬原655番", "url": "https://www.kaigokensaku.mhlw.go.jp/44/index.php?action_kouhyou_detail_004_kani=true&JigyosyoCd=4490101328-00&ServiceCd=780&Type=search", "url2": null }, "geometry": { "type": "Point", "coordinates": [ 131.5262184, 33.1606607 ] } },
{ "type": "Feature", "properties": { "内容": "デイサービスセンターななせの里【地域密着型通所介護】大分県大分市大字光吉1843番地３８", "url": "https://www.kaigokensaku.mhlw.go.jp/44/index.php?action_kouhyou_detail_004_kani=true&JigyosyoCd=4470103211-00&ServiceCd=780&Type=search", "url2": null }, "geometry": { "type": "Point", "coordinates": [ 131.59794039999997, 33.1890344 ] } },
{ "type": "Feature", "properties": { "内容": "デイサービスなごみ【地域密着型通所介護】加納１５組３", "url": "https://www.kaigokensaku.mhlw.go.jp/44/index.php?action_kouhyou_detail_004_kani=true&JigyosyoCd=4470107956-00&ServiceCd=780&Type=search", "url2": null }, "geometry": { "type": "Point", "coordinates": [ 131.637223011114571, 33.233752085562259 ] } },
{ "type": "Feature", "properties": { "内容": "ﾘﾊﾋﾞﾘﾃﾞｲｻｰﾋﾞｽ未来へ【地域密着型通所介護】新貝104番地２", "url": "https://www.kaigokensaku.mhlw.go.jp/44/index.php?action_kouhyou_detail_004_kani=true&JigyosyoCd=4470108137-00&ServiceCd=780&Type=search", "url2": "www.karoku-oita.com" }, "geometry": { "type": "Point", "coordinates": [ 131.645993800000042, 33.2468943 ] } },
{ "type": "Feature", "properties": { "内容": "デイサービスちひろ【地域密着型通所介護】大分県大分市徳島1丁目2番22号", "url": "https://www.kaigokensaku.mhlw.go.jp/44/index.php?action_kouhyou_detail_004_kani=true&JigyosyoCd=4470106255-00&ServiceCd=780&Type=search", "url2": null }, "geometry": { "type": "Point", "coordinates": [ 131.69395929999996, 33.2427967 ] } },
{ "type": "Feature", "properties": { "内容": "リハビリ専門デイサービスよくなる【地域密着型通所介護】大分市中津留2丁目７－２", "url": "https://www.kaigokensaku.mhlw.go.jp/44/index.php?action_kouhyou_detail_004_kani=true&JigyosyoCd=4470108756-00&ServiceCd=780&Type=search", "url2": "https://www.yokunaru4976.com/" }, "geometry": { "type": "Point", "coordinates": [ 131.628675599999951, 33.2457163 ] } },
{ "type": "Feature", "properties": { "内容": "おひさまデイサービスセンター【地域密着型通所介護】大分県大分市大字佐賀関3ノ3338番7", "url": "https://www.kaigokensaku.mhlw.go.jp/44/index.php?action_kouhyou_detail_004_kani=true&JigyosyoCd=4470105810-00&ServiceCd=780&Type=search", "url2": null }, "geometry": { "type": "Point", "coordinates": [ 131.876822042991677, 33.250410264880294 ] } },
{ "type": "Feature", "properties": { "内容": "さくら親児会デイサービスセンター【地域密着型通所介護】大分市大字城原1954番地の2", "url": "https://www.kaigokensaku.mhlw.go.jp/44/index.php?action_kouhyou_detail_004_kani=true&JigyosyoCd=4470105869-00&ServiceCd=780&Type=search", "url2": "www.sakuraoyajikai.com" }, "geometry": { "type": "Point", "coordinates": [ 131.731816827677903, 33.236154447053579 ] } },
{ "type": "Feature", "properties": { "内容": "のりこえデイサービスセンター【地域密着型通所介護】大分県大分市牧1丁目9番24号", "url": "https://www.kaigokensaku.mhlw.go.jp/44/index.php?action_kouhyou_detail_004_kani=true&JigyosyoCd=4470102700-00&ServiceCd=780&Type=search", "url2": "http://shigeishi.o-jita.com/" }, "geometry": { "type": "Point", "coordinates": [ 131.637661100000059, 33.2409807 ] } },
{ "type": "Feature", "properties": { "内容": "デイサービスセンター茜【地域密着型通所介護】大分県大分市三川上二丁目6番36号", "url": "https://www.kaigokensaku.mhlw.go.jp/44/index.php?action_kouhyou_detail_004_kani=true&JigyosyoCd=4470104623-00&ServiceCd=780&Type=search", "url2": null }, "geometry": { "type": "Point", "coordinates": [ 131.673344400000019, 33.2448623 ] } },
{ "type": "Feature", "properties": { "内容": "デイサービスセンター幸せの家【地域密着型通所介護】大分県大分市猪野1354番地の1", "url": "https://www.kaigokensaku.mhlw.go.jp/44/index.php?action_kouhyou_detail_004_kani=true&JigyosyoCd=4470107147-00&ServiceCd=780&Type=search", "url2": null }, "geometry": { "type": "Point", "coordinates": [ 131.664693100000022, 33.2220782 ] } },
{ "type": "Feature", "properties": { "内容": "デイサービスゆりかごの家【地域密着型通所介護】本神崎74番地1", "url": "https://www.kaigokensaku.mhlw.go.jp/44/index.php?action_kouhyou_detail_004_kani=true&JigyosyoCd=4470106479-00&ServiceCd=780&Type=search", "url2": "https://yurikago.roukyou.gr.jp/" }, "geometry": { "type": "Point", "coordinates": [ 131.791084, 33.2405076 ] } },
{ "type": "Feature", "properties": { "内容": "ほねつぎデイサービス大分元町【地域密着型通所介護】大分県大分市大字大分4705ほねつぎデイサービス大分元町", "url": "https://www.kaigokensaku.mhlw.go.jp/44/index.php?action_kouhyou_detail_004_kani=true&JigyosyoCd=4490100809-00&ServiceCd=780&Type=search", "url2": null }, "geometry": { "type": "Point", "coordinates": [ 131.618500050597021, 33.222081975067383 ] } },
{ "type": "Feature", "properties": { "内容": "デイサービスつむぎ【地域密着型通所介護】大在中央1丁目4番7号", "url": "https://www.kaigokensaku.mhlw.go.jp/44/index.php?action_kouhyou_detail_004_kani=true&JigyosyoCd=4490100957-00&ServiceCd=780&Type=search", "url2": null }, "geometry": { "type": "Point", "coordinates": [ 131.7180232, 33.246882 ] } },
{ "type": "Feature", "properties": { "内容": "コミュニケーションデイサービス言の葉【地域密着型通所介護】大分県大分市富士見が丘東2丁目23-13", "url": "https://www.kaigokensaku.mhlw.go.jp/44/index.php?action_kouhyou_detail_004_kani=true&JigyosyoCd=4490100635-00&ServiceCd=780&Type=search", "url2": "https://habisapo.jp" }, "geometry": { "type": "Point", "coordinates": [ 131.547800300000063, 33.1835605 ] } },
{ "type": "Feature", "properties": { "内容": "なかしまデイサービスビートルズ【地域密着型通所介護】大分県大分市中島西1丁目8番8号", "url": "https://www.kaigokensaku.mhlw.go.jp/44/index.php?action_kouhyou_detail_004_kani=true&JigyosyoCd=4490100833-00&ServiceCd=780&Type=search", "url2": "http://smile-lib.com/" }, "geometry": { "type": "Point", "coordinates": [ 131.610362500000065, 33.2435192 ] } },
{ "type": "Feature", "properties": { "内容": "デイサービスわくわくおひさまランド【地域密着型通所介護】大分県大分市賀来北１丁目３７５２番地", "url": "https://www.kaigokensaku.mhlw.go.jp/44/index.php?action_kouhyou_detail_004_kani=true&JigyosyoCd=4490101104-00&ServiceCd=780&Type=search", "url2": "wakuwaku-oita.com" }, "geometry": { "type": "Point", "coordinates": [ 131.5718539, 33.2150165 ] } },
{ "type": "Feature", "properties": { "内容": "デイホームあん【地域密着型通所介護】大分県大分市大字上宗方544-1グリーンシティ雄城台100号室", "url": "https://www.kaigokensaku.mhlw.go.jp/44/index.php?action_kouhyou_detail_004_kani=true&JigyosyoCd=4490100700-00&ServiceCd=780&Type=search", "url2": "https://www.endear.info/" }, "geometry": { "type": "Point", "coordinates": [ 131.580714100000023, 33.1957467 ] } },
{ "type": "Feature", "properties": { "内容": "デイサービスセンターホタルの家【地域密着型通所介護】大分県大分市大字野津原１３７１番地", "url": "https://www.kaigokensaku.mhlw.go.jp/44/index.php?action_kouhyou_detail_004_kani=true&JigyosyoCd=4490100932-00&ServiceCd=780&Type=search", "url2": null }, "geometry": { "type": "Point", "coordinates": [ 131.526725699999986, 33.15898405427874 ] } },
{ "type": "Feature", "properties": { "内容": "だんらんの家　大分春川【地域密着型通所介護】三川上1丁目2-12", "url": "https://www.kaigokensaku.mhlw.go.jp/44/index.php?action_kouhyou_detail_004_kani=true&JigyosyoCd=4490101211-00&ServiceCd=780&Type=search", "url2": null }, "geometry": { "type": "Point", "coordinates": [ 131.674803700000012, 33.2435192 ] } },
{ "type": "Feature", "properties": { "内容": "デイサービスセンターむらもと【地域密着型通所介護】大字白木1166-1", "url": "https://www.kaigokensaku.mhlw.go.jp/44/index.php?action_kouhyou_detail_004_kani=true&JigyosyoCd=4490101302-00&ServiceCd=780&Type=search", "url2": null }, "geometry": { "type": "Point", "coordinates": [ 131.8707138, 33.2328928 ] } },
{ "type": "Feature", "properties": { "内容": "碧【地域密着型通所介護】大分県大分市松原町１丁目３番１号", "url": "https://www.kaigokensaku.mhlw.go.jp/44/index.php?action_kouhyou_detail_004_kani=true&JigyosyoCd=4490101120-00&ServiceCd=780&Type=search", "url2": "https://oita-ao.jp/" }, "geometry": { "type": "Point", "coordinates": [ 131.656069699999989, 33.247644 ] } },
{ "type": "Feature", "properties": { "内容": "旦の原デイサービスセンターひととき【地域密着型通所介護】旦野原880番地の92", "url": "https://www.kaigokensaku.mhlw.go.jp/44/index.php?action_kouhyou_detail_004_kani=true&JigyosyoCd=4490100908-00&ServiceCd=780&Type=search", "url2": null }, "geometry": { "type": "Point", "coordinates": [ 131.619962, 33.1726149 ] } },
{ "type": "Feature", "properties": { "内容": "デイサービスBASARA【地域密着型通所介護】大分県大分市大字三芳1305番地の1", "url": "https://www.kaigokensaku.mhlw.go.jp/44/index.php?action_kouhyou_detail_004_kani=true&JigyosyoCd=4490100866-00&ServiceCd=780&Type=search", "url2": "https://sanfukai.jp" }, "geometry": { "type": "Point", "coordinates": [ 131.576411266959667, 33.226429531219821 ] } },
{ "type": "Feature", "properties": { "内容": "コープおおいたデイサービスセンターにじいろ二目川【地域密着型通所介護】大分県　大分市　大字横尾　字猪野原３６１３－１", "url": "https://www.kaigokensaku.mhlw.go.jp/44/index.php?action_kouhyou_detail_004_kani=true&JigyosyoCd=4490100643-00&ServiceCd=780&Type=search", "url2": "ｈｔｔｐ：//www.oita.coop" }, "geometry": { "type": "Point", "coordinates": [ 131.66373442195129, 33.214372740016003 ] } },
{ "type": "Feature", "properties": { "内容": "デイサービス風香【地域密着型通所介護】賀来西１丁目3番13号", "url": "https://www.kaigokensaku.mhlw.go.jp/44/index.php?action_kouhyou_detail_004_kani=true&JigyosyoCd=4470107022-00&ServiceCd=780&Type=search", "url2": "http://www.fukujyukai.net" }, "geometry": { "type": "Point", "coordinates": [ 131.562231893254051, 33.213831496787151 ] } },
{ "type": "Feature", "properties": { "内容": "デイサービス公園通り【地域密着型通所介護】大分県大分市公園通り1-5-8", "url": "https://www.kaigokensaku.mhlw.go.jp/44/index.php?action_kouhyou_detail_004_kani=true&JigyosyoCd=4470109549-00&ServiceCd=780&Type=search", "url2": "https://www.local-train.jp/index.html" }, "geometry": { "type": "Point", "coordinates": [ 131.655786066270451, 33.188656630963528 ] } },
{ "type": "Feature", "properties": { "内容": "地域密着型通所介護　デイサービス迫【地域密着型通所介護】大分県大分市大字迫1294-1", "url": "https://www.kaigokensaku.mhlw.go.jp/44/index.php?action_kouhyou_detail_004_kani=true&JigyosyoCd=4490101021-00&ServiceCd=780&Type=search", "url2": "https://www.local-train.jp/" }, "geometry": { "type": "Point", "coordinates": [ 131.69841120000001, 33.2290751 ] } },
{ "type": "Feature", "properties": { "内容": "ＮＰＯ法人たすけあい組織鼓楼デイサービス【地域密着型通所介護】大分県別府市鶴見園町4-2", "url": "https://www.kaigokensaku.mhlw.go.jp/44/index.php?action_kouhyou_detail_004_kani=true&JigyosyoCd=4470201213-00&ServiceCd=780&Type=search", "url2": "http://koroh.x0.com/" }, "geometry": { "type": "Point", "coordinates": [ 131.475703899999985, 33.2874306 ] } },
{ "type": "Feature", "properties": { "内容": "湯けむりの郷　南荘園【地域密着型通所介護】大分県別府市大字南立石板地中須賀1926‐46", "url": "https://www.kaigokensaku.mhlw.go.jp/44/index.php?action_kouhyou_detail_004_kani=true&JigyosyoCd=4470202716-00&ServiceCd=780&Type=search", "url2": "yukemurinosato.net" }, "geometry": { "type": "Point", "coordinates": [ 131.474856509052984, 33.287846406596685 ] } },
{ "type": "Feature", "properties": { "内容": "静雲荘指定地域密着型通所介護事業所【地域密着型通所介護】大分県別府市大字野田字サッショウ原１２９３番地の１", "url": "https://www.kaigokensaku.mhlw.go.jp/44/index.php?action_kouhyou_detail_004_kani=true&JigyosyoCd=4470202351-00&ServiceCd=780&Type=search", "url2": "http:/seiunso.com/" }, "geometry": { "type": "Point", "coordinates": [ 131.453823806332366, 33.323154995600675 ] } },
{ "type": "Feature", "properties": { "内容": "デイサービスステップアップ【地域密着型通所介護】大分県別府市南立石本町４組", "url": "https://www.kaigokensaku.mhlw.go.jp/44/index.php?action_kouhyou_detail_004_kani=true&JigyosyoCd=4470202906-00&ServiceCd=780&Type=search", "url2": null }, "geometry": { "type": "Point", "coordinates": [ 131.469587700000034, 33.2855085 ] } },
{ "type": "Feature", "properties": { "内容": "デイサービスおぐら山荘【地域密着型通所介護】別府市大字鶴見字岡1561番地の2有料老人ホームおぐら山荘", "url": "https://www.kaigokensaku.mhlw.go.jp/44/index.php?action_kouhyou_detail_004_kani=true&JigyosyoCd=4470202831-00&ServiceCd=780&Type=search", "url2": "http://ogura.link/" }, "geometry": { "type": "Point", "coordinates": [ 131.459733750634797, 33.309021163918601 ] } },
{ "type": "Feature", "properties": { "内容": "デイサービスセンター　さくら草【地域密着型通所介護】大分県別府市鶴見字サ1520番21", "url": "https://www.kaigokensaku.mhlw.go.jp/44/index.php?action_kouhyou_detail_004_kani=true&JigyosyoCd=4470202237-00&ServiceCd=780&Type=search", "url2": null }, "geometry": { "type": "Point", "coordinates": [ 131.457971077124057, 33.309455222392167 ] } },
{ "type": "Feature", "properties": { "内容": "デイサービスかんなわ【地域密着型通所介護】大分県別府市大字平道1002-4　（小坂7組）", "url": "https://www.kaigokensaku.mhlw.go.jp/44/index.php?action_kouhyou_detail_004_kani=true&JigyosyoCd=4470203011-00&ServiceCd=780&Type=search", "url2": null }, "geometry": { "type": "Point", "coordinates": [ 131.494956076614926, 33.348014233884911 ] } },
{ "type": "Feature", "properties": { "内容": "デイサービスセンターきずな【地域密着型通所介護】大分県別府市浜町17番15号", "url": "https://www.kaigokensaku.mhlw.go.jp/44/index.php?action_kouhyou_detail_004_kani=true&JigyosyoCd=4470202203-00&ServiceCd=780&Type=search", "url2": "http://www.respitecc.co.jp" }, "geometry": { "type": "Point", "coordinates": [ 131.509545500000058, 33.2713827 ] } },
{ "type": "Feature", "properties": { "内容": "デイサービスセンター亀川一燈園【地域密着型通所介護】大分県別府市亀川中央町１９－１３", "url": "https://www.kaigokensaku.mhlw.go.jp/44/index.php?action_kouhyou_detail_004_kani=true&JigyosyoCd=4470201700-00&ServiceCd=780&Type=search", "url2": "http://www.ittouen.or.jp/" }, "geometry": { "type": "Point", "coordinates": [ 131.493827813526536, 33.326999278326781 ] } },
{ "type": "Feature", "properties": { "内容": "リハビリ特化型デイサービスつるりん通り一燈園【地域密着型通所介護】大分県別府市馬場１組－６", "url": "https://www.kaigokensaku.mhlw.go.jp/44/index.php?action_kouhyou_detail_004_kani=true&JigyosyoCd=4470202633-00&ServiceCd=780&Type=search", "url2": "http://www.ittouen.or.jp/" }, "geometry": { "type": "Point", "coordinates": [ 131.475548600000025, 33.3055703 ] } },
{ "type": "Feature", "properties": { "内容": "はがくれデイサービス【地域密着型通所介護】大分県別府市鶴見園町６番９号", "url": "https://www.kaigokensaku.mhlw.go.jp/44/index.php?action_kouhyou_detail_004_kani=true&JigyosyoCd=4470202690-00&ServiceCd=780&Type=search", "url2": "https://sakurademari.com" }, "geometry": { "type": "Point", "coordinates": [ 131.4779565, 33.287514 ] } },
{ "type": "Feature", "properties": { "内容": "湯けむりの郷【地域密着型通所介護】大分県別府市大字鶴見3275番地の５", "url": "https://www.kaigokensaku.mhlw.go.jp/44/index.php?action_kouhyou_detail_004_kani=true&JigyosyoCd=4470202419-00&ServiceCd=780&Type=search", "url2": "yukemurinosato.net" }, "geometry": { "type": "Point", "coordinates": [ 131.486417345910581, 33.30961552676397 ] } },
{ "type": "Feature", "properties": { "内容": "茶寿苑通所介護サービス事業【地域密着型通所介護】大分県別府市大字鉄輪1050番地", "url": "https://www.kaigokensaku.mhlw.go.jp/44/index.php?action_kouhyou_detail_004_kani=true&JigyosyoCd=4470200637-00&ServiceCd=780&Type=search", "url2": "http://sajuen.nejp/" }, "geometry": { "type": "Point", "coordinates": [ 131.476588342599058, 33.319005166283191 ] } },
{ "type": "Feature", "properties": { "内容": "泰生の里デイサービスセンター「ルプリーズ別府」【地域密着型通所介護】大分県別府市大字鶴見字中山田1068番地の1", "url": "https://www.kaigokensaku.mhlw.go.jp/44/index.php?action_kouhyou_detail_004_kani=true&JigyosyoCd=4470200454-00&ServiceCd=780&Type=search", "url2": "http://www.wellb.or.jp/" }, "geometry": { "type": "Point", "coordinates": [ 131.462651994043, 33.31288107605468 ] } },
{ "type": "Feature", "properties": { "内容": "和幸苑指定通所介護事業所【地域密着型通所介護】大分県別府市大字野田１４９０番地", "url": "https://www.kaigokensaku.mhlw.go.jp/44/index.php?action_kouhyou_detail_004_kani=true&JigyosyoCd=4470200322-00&ServiceCd=780&Type=search", "url2": null }, "geometry": { "type": "Point", "coordinates": [ 131.47670119999998, 33.3252628 ] } },
{ "type": "Feature", "properties": { "内容": "デイサービスさんさんの荘　東荘園【地域密着型通所介護】別府市東荘園3丁目6番20号", "url": "https://www.kaigokensaku.mhlw.go.jp/44/index.php?action_kouhyou_detail_004_kani=true&JigyosyoCd=4470202914-00&ServiceCd=780&Type=search", "url2": "https://beppu9.wixsite.com/b-passion-b" }, "geometry": { "type": "Point", "coordinates": [ 131.48018419999994, 33.2935827 ] } },
{ "type": "Feature", "properties": { "内容": "ケアー・ホープ荘園【地域密着型通所介護】大分県　別府市　南荘園町17-6", "url": "https://www.kaigokensaku.mhlw.go.jp/44/index.php?action_kouhyou_detail_004_kani=true&JigyosyoCd=4470202070-00&ServiceCd=780&Type=search", "url2": "http://carehope-souen.com" }, "geometry": { "type": "Point", "coordinates": [ 131.478784300000029, 33.2896915 ] } },
{ "type": "Feature", "properties": { "内容": "早稲田イーライフ別府【地域密着型通所介護】大分県別府市石垣東2-3-22エクセルおかた　1階", "url": "https://www.kaigokensaku.mhlw.go.jp/44/index.php?action_kouhyou_detail_004_kani=true&JigyosyoCd=4490200328-00&ServiceCd=780&Type=search", "url2": "https://waseda-e-life.co.jp/facilities/facilities-232/" }, "geometry": { "type": "Point", "coordinates": [ 131.497571599999958, 33.2914888 ] } },
{ "type": "Feature", "properties": { "内容": "ケアライフおおいた　デイサービス　花・花【地域密着型通所介護】大分県別府市亀川四の湯町2区1-5", "url": "https://www.kaigokensaku.mhlw.go.jp/44/index.php?action_kouhyou_detail_004_kani=true&JigyosyoCd=4470201767-00&ServiceCd=780&Type=search", "url2": "http://nihon-caretec.com/" }, "geometry": { "type": "Point", "coordinates": [ 131.491240141454512, 33.317018107056938 ] } },
{ "type": "Feature", "properties": { "内容": "デイサービスセンター　”ふれあいハウス”【地域密着型通所介護】大分県中津市豊田町1丁目12番地26中里ビル1階", "url": "https://www.kaigokensaku.mhlw.go.jp/44/index.php?action_kouhyou_detail_004_kani=true&JigyosyoCd=4470300452-00&ServiceCd=780&Type=search", "url2": "http://fureai-house.com/" }, "geometry": { "type": "Point", "coordinates": [ 131.187201689549227, 33.6000293 ] } },
{ "type": "Feature", "properties": { "内容": "デイサービスセンター箭海荘【地域密着型通所介護】大分県中津市三光森山８１０番地１", "url": "https://www.kaigokensaku.mhlw.go.jp/44/index.php?action_kouhyou_detail_004_kani=true&JigyosyoCd=4470301047-00&ServiceCd=780&Type=search", "url2": "http://www.chokusin.jp/" }, "geometry": { "type": "Point", "coordinates": [ 131.218642199999977, 33.5480197 ] } },
{ "type": "Feature", "properties": { "内容": "デイサービスはじめ【地域密着型通所介護】大分県中津市大字宮夫２４５番地１", "url": "https://www.kaigokensaku.mhlw.go.jp/44/index.php?action_kouhyou_detail_004_kani=true&JigyosyoCd=4470300932-00&ServiceCd=780&Type=search", "url2": null }, "geometry": { "type": "Point", "coordinates": [ 131.207459400000062, 33.5870729 ] } },
{ "type": "Feature", "properties": { "内容": "中津利休【地域密着型通所介護】大分県中津市上池永911-2", "url": "https://www.kaigokensaku.mhlw.go.jp/44/index.php?action_kouhyou_detail_004_kani=true&JigyosyoCd=4490300359-00&ServiceCd=780&Type=search", "url2": null }, "geometry": { "type": "Point", "coordinates": [ 131.213014, 33.5817531 ] } },
{ "type": "Feature", "properties": { "内容": "鳩友園デイサービスセンター【地域密着型通所介護】大分県日田市鶴城町1898", "url": "https://www.kaigokensaku.mhlw.go.jp/44/index.php?action_kouhyou_detail_004_kani=true&JigyosyoCd=4470400187-00&ServiceCd=780&Type=search", "url2": null }, "geometry": { "type": "Point", "coordinates": [ 130.898227024745211, 33.407262564956248 ] } },
{ "type": "Feature", "properties": { "内容": "デイサービスゆず【地域密着型通所介護】大分県日田市下井出町1067-1", "url": "https://www.kaigokensaku.mhlw.go.jp/44/index.php?action_kouhyou_detail_004_kani=true&JigyosyoCd=4470401227-00&ServiceCd=780&Type=search", "url2": null }, "geometry": { "type": "Point", "coordinates": [ 130.949554499999977, 33.3072009 ] } },
{ "type": "Feature", "properties": { "内容": "介護サービス美和　デイサービス【地域密着型通所介護】大分県日田市南友田町12-2", "url": "https://www.kaigokensaku.mhlw.go.jp/44/index.php?action_kouhyou_detail_004_kani=true&JigyosyoCd=4470401300-00&ServiceCd=780&Type=search", "url2": "www.kaigo-miwa.com" }, "geometry": { "type": "Point", "coordinates": [ 130.91921237603583, 33.326100906994057 ] } },
{ "type": "Feature", "properties": { "内容": "日田市社協デイサービスセンター「なかつえ」【地域密着型通所介護】大分県日田市中津江村栃野２６２０番地２日田市中津江高齢者生活福祉センター", "url": "https://www.kaigokensaku.mhlw.go.jp/44/index.php?action_kouhyou_detail_004_kani=true&JigyosyoCd=4472900143-00&ServiceCd=780&Type=search", "url2": "http://hitashakyo.jp/" }, "geometry": { "type": "Point", "coordinates": [ 130.963249, 33.1331124 ] } },
{ "type": "Feature", "properties": { "内容": "早稲田イーライフ日田【地域密着型通所介護】大分県日田市日高町1434－1", "url": "https://www.kaigokensaku.mhlw.go.jp/44/index.php?action_kouhyou_detail_004_kani=true&JigyosyoCd=4470401110-00&ServiceCd=780&Type=search", "url2": "hita@waseda-e-life.co.jp" }, "geometry": { "type": "Point", "coordinates": [ 130.955401400000028, 33.3070094 ] } },
{ "type": "Feature", "properties": { "内容": "日田市社協デイサービスセンター「かみつえ」【地域密着型通所介護】大分県日田市上津江町川原3938番地", "url": "https://www.kaigokensaku.mhlw.go.jp/44/index.php?action_kouhyou_detail_004_kani=true&JigyosyoCd=4472900127-00&ServiceCd=780&Type=search", "url2": "https://hitashakyo.jp/" }, "geometry": { "type": "Point", "coordinates": [ 130.968629800000031, 33.119099800000043 ] } },
{ "type": "Feature", "properties": { "内容": "デイサービス　暖【地域密着型通所介護】大分県日田市求町844番地", "url": "https://www.kaigokensaku.mhlw.go.jp/44/index.php?action_kouhyou_detail_004_kani=true&JigyosyoCd=4470401078-00&ServiceCd=780&Type=search", "url2": null }, "geometry": { "type": "Point", "coordinates": [ 130.967589931995917, 33.309767758655099 ] } },
{ "type": "Feature", "properties": { "内容": "聖陵ストリーム通所介護サービスセンター【地域密着型通所介護】大分県日田市中釣町485番地の3", "url": "https://www.kaigokensaku.mhlw.go.jp/44/index.php?action_kouhyou_detail_004_kani=true&JigyosyoCd=4470400674-00&ServiceCd=780&Type=search", "url2": "http://www.seiryou.or.jp/" }, "geometry": { "type": "Point", "coordinates": [ 130.919773066549823, 33.315144979570562 ] } },
{ "type": "Feature", "properties": { "内容": "デイサービスセンター森の棲家【地域密着型通所介護】大分県日田市大字石井631番地9", "url": "https://www.kaigokensaku.mhlw.go.jp/44/index.php?action_kouhyou_detail_004_kani=true&JigyosyoCd=4470401268-00&ServiceCd=780&Type=search", "url2": "http://morinosumika.com" }, "geometry": { "type": "Point", "coordinates": [ 130.909463085913814, 33.315481050247485 ] } },
{ "type": "Feature", "properties": { "内容": "デイサービス　元気になる　虹の家【地域密着型通所介護】大分県日田市玉川3丁目1479-3", "url": "https://www.kaigokensaku.mhlw.go.jp/44/index.php?action_kouhyou_detail_004_kani=true&JigyosyoCd=4470400815-00&ServiceCd=780&Type=search", "url2": null }, "geometry": { "type": "Point", "coordinates": [ 130.925280898855362, 33.325533982137614 ] } },
{ "type": "Feature", "properties": { "内容": "デイサービス　木の音【地域密着型通所介護】大分県日田市清岸寺町1034番地1", "url": "https://www.kaigokensaku.mhlw.go.jp/44/index.php?action_kouhyou_detail_004_kani=true&JigyosyoCd=4470401359-00&ServiceCd=780&Type=search", "url2": null }, "geometry": { "type": "Point", "coordinates": [ 130.929952800000024, 33.3361894 ] } },
{ "type": "Feature", "properties": { "内容": "デイサービスセンター　ケアビレッジしろまち【地域密着型通所介護】大分県日田市城町2丁目7-12", "url": "https://www.kaigokensaku.mhlw.go.jp/44/index.php?action_kouhyou_detail_004_kani=true&JigyosyoCd=4470401003-00&ServiceCd=780&Type=search", "url2": null }, "geometry": { "type": "Point", "coordinates": [ 130.9433656, 33.3303653 ] } },
{ "type": "Feature", "properties": { "内容": "若宮病院　シニアトレーニングセンター【地域密着型通所介護】大分県日田市南元町24番地10号", "url": "https://www.kaigokensaku.mhlw.go.jp/44/index.php?action_kouhyou_detail_004_kani=true&JigyosyoCd=4490400233-00&ServiceCd=780&Type=search", "url2": "https://med-corp.shusuido.or.jp/network/training/" }, "geometry": { "type": "Point", "coordinates": [ 130.940762409154075, 33.311987335294369 ] } },
{ "type": "Feature", "properties": { "内容": "古民家デイサービスuLuの木【地域密着型通所介護】大分県日田市大字花月1914番地1", "url": "https://www.kaigokensaku.mhlw.go.jp/44/index.php?action_kouhyou_detail_004_kani=true&JigyosyoCd=4490400266-00&ServiceCd=780&Type=search", "url2": "https://dayservice-ulunoki.com" }, "geometry": { "type": "Point", "coordinates": [ 130.9811956, 33.3668647 ] } },
{ "type": "Feature", "properties": { "内容": "地域密着型デイサービス　凪【地域密着型通所介護】大分県日田市亀山町5番30号", "url": "https://www.kaigokensaku.mhlw.go.jp/44/index.php?action_kouhyou_detail_004_kani=true&JigyosyoCd=4490400258-00&ServiceCd=780&Type=search", "url2": null }, "geometry": { "type": "Point", "coordinates": [ 130.9306593, 33.3178142 ] } },
{ "type": "Feature", "properties": { "内容": "日田市社協　デイサービスセンター「まえつえ」【地域密着型通所介護】大分県日田市前津江町大野２１７７番地２", "url": "https://www.kaigokensaku.mhlw.go.jp/44/index.php?action_kouhyou_detail_004_kani=true&JigyosyoCd=4472900176-00&ServiceCd=780&Type=search", "url2": "http.//www.hitashakyo.jp" }, "geometry": { "type": "Point", "coordinates": [ 130.918850300000031, 33.2097596 ] } },
{ "type": "Feature", "properties": { "内容": "日田市社協デイサービスセンター「あまがせ」【地域密着型通所介護】大分県日田市天瀬町合田1986-2日田市天瀬複合施設", "url": "https://www.kaigokensaku.mhlw.go.jp/44/index.php?action_kouhyou_detail_004_kani=true&JigyosyoCd=4472900200-00&ServiceCd=780&Type=search", "url2": "https://hitashakyo.lp" }, "geometry": { "type": "Point", "coordinates": [ 131.007107100000013, 33.2838163 ] } },
{ "type": "Feature", "properties": { "内容": "デイサービス　おとなの学校【地域密着型通所介護】佐伯市戸穴７３３番地1有料老人ホーム愛夢フェニックス内", "url": "https://www.kaigokensaku.mhlw.go.jp/44/index.php?action_kouhyou_detail_004_kani=true&JigyosyoCd=4470501661-00&ServiceCd=780&Type=search", "url2": null }, "geometry": { "type": "Point", "coordinates": [ 131.889521100000024, 33.0015905 ] } },
{ "type": "Feature", "properties": { "内容": "デイサービス　花の里【地域密着型通所介護】大分県佐伯市弥生大字江良１４５１－１", "url": "https://www.kaigokensaku.mhlw.go.jp/44/index.php?action_kouhyou_detail_004_kani=true&JigyosyoCd=4470501711-00&ServiceCd=780&Type=search", "url2": null }, "geometry": { "type": "Point", "coordinates": [ 131.830852400000026, 32.9434171 ] } },
{ "type": "Feature", "properties": { "内容": "佐伯市社協デイサ－ビスセンタ－「よのうづ」【地域密着型通所介護】大分県佐伯市米水津大字色利浦1728番地1佐伯市米水津高齢者生活福祉センタ－", "url": "https://www.kaigokensaku.mhlw.go.jp/44/index.php?action_kouhyou_detail_004_kani=true&JigyosyoCd=4472500364-00&ServiceCd=780&Type=search", "url2": "http://sashakyo.or.jp/" }, "geometry": { "type": "Point", "coordinates": [ 131.9891189, 32.8860864 ] } },
{ "type": "Feature", "properties": { "内容": "デイサービスセンターほんじょう【地域密着型通所介護】本匠大字堂ノ間283番地１本匠高齢者生活生活福祉センター", "url": "https://www.kaigokensaku.mhlw.go.jp/44/index.php?action_kouhyou_detail_004_kani=true&JigyosyoCd=4490500321-00&ServiceCd=780&Type=search", "url2": "www.nagato.or.jp/" }, "geometry": { "type": "Point", "coordinates": [ 131.71251657235257, 32.929893192347805 ] } },
{ "type": "Feature", "properties": { "内容": "佐伯市社協デイサービスセンター「やよい」【地域密着型通所介護】大分県佐伯市弥生大字上小倉1208番地", "url": "https://www.kaigokensaku.mhlw.go.jp/44/index.php?action_kouhyou_detail_004_kani=true&JigyosyoCd=4490500370-00&ServiceCd=780&Type=search", "url2": "http://sashakyo.or.jp/" }, "geometry": { "type": "Point", "coordinates": [ 131.840791354631023, 32.96920817969216 ] } },
{ "type": "Feature", "properties": { "内容": "デイサービスセンター愛情苑鶴見【地域密着型通所介護】大分県佐伯市鶴見大字沖松浦５０８−２", "url": "https://www.kaigokensaku.mhlw.go.jp/44/index.php?action_kouhyou_detail_004_kani=true&JigyosyoCd=4490500453-00&ServiceCd=780&Type=search", "url2": "http://r.goope.jp/choyokai" }, "geometry": { "type": "Point", "coordinates": [ 131.962728199999987, 32.9422955 ] } },
{ "type": "Feature", "properties": { "内容": "蒲江やすらぎデイサービスセンター【地域密着型通所介護】蒲江大字蒲江浦４４９１番地５", "url": "https://www.kaigokensaku.mhlw.go.jp/44/index.php?action_kouhyou_detail_004_kani=true&JigyosyoCd=4470501042-00&ServiceCd=780&Type=search", "url2": "https://care-net.biz/44/yasuragi3951/" }, "geometry": { "type": "Point", "coordinates": [ 131.921349238233461, 32.802074575107142 ] } },
{ "type": "Feature", "properties": { "内容": "デイサービスセンター愛情苑八幡【地域密着型通所介護】大分県佐伯市大字戸穴619-9", "url": "https://www.kaigokensaku.mhlw.go.jp/44/index.php?action_kouhyou_detail_004_kani=true&JigyosyoCd=4490500461-00&ServiceCd=780&Type=search", "url2": "http://r.goope.jp/choyokai" }, "geometry": { "type": "Point", "coordinates": [ 131.888896, 32.999602 ] } },
{ "type": "Feature", "properties": { "内容": "デイサービスセンターうめの里【地域密着型通所介護】大分県佐伯市宇目大字小野市字井ノ上3754番1", "url": "https://www.kaigokensaku.mhlw.go.jp/44/index.php?action_kouhyou_detail_004_kani=true&JigyosyoCd=4490500347-00&ServiceCd=780&Type=search", "url2": "ｈｔｔｐ://ｒ.ｇｏｏｐｅ.ｊｐ/ｃｈｏｙｏｋａｉ" }, "geometry": { "type": "Point", "coordinates": [ 131.631116600000041, 32.8726941 ] } },
{ "type": "Feature", "properties": { "内容": "佐伯市社協デイサービスセンター「なおかわ」【地域密着型通所介護】大分県佐伯市直川大字赤木1235番地", "url": "https://www.kaigokensaku.mhlw.go.jp/44/index.php?action_kouhyou_detail_004_kani=true&JigyosyoCd=4490500388-00&ServiceCd=780&Type=search", "url2": "http://www.sashakyo/or/jp" }, "geometry": { "type": "Point", "coordinates": [ 131.7847102, 32.873051300000014 ] } },
{ "type": "Feature", "properties": { "内容": "デイサービスセンターはたのうら【地域密着型通所介護】大分県佐伯市蒲江大字畑野浦596-32", "url": "https://www.kaigokensaku.mhlw.go.jp/44/index.php?action_kouhyou_detail_004_kani=true&JigyosyoCd=4490500479-00&ServiceCd=780&Type=search", "url2": "http://r.goope.jp/choyokai" }, "geometry": { "type": "Point", "coordinates": [ 131.9500232, 32.8563467 ] } },
{ "type": "Feature", "properties": { "内容": "デイサービスセンター　彦岳の太陽【地域密着型通所介護】大分県佐伯市大字狩生418番地2", "url": "https://www.kaigokensaku.mhlw.go.jp/44/index.php?action_kouhyou_detail_004_kani=true&JigyosyoCd=4490500412-00&ServiceCd=780&Type=search", "url2": "http://www.hikodake.net" }, "geometry": { "type": "Point", "coordinates": [ 131.9018252, 33.0162824 ] } },
{ "type": "Feature", "properties": { "内容": "直川苑指定通所介護事業所【地域密着型通所介護】大分県佐伯市直川大字仁田原1962-1", "url": "https://www.kaigokensaku.mhlw.go.jp/44/index.php?action_kouhyou_detail_004_kani=true&JigyosyoCd=4472500091-00&ServiceCd=780&Type=search", "url2": "http://www.naokawaen.com/" }, "geometry": { "type": "Point", "coordinates": [ 131.757325600000058, 32.8786413 ] } },
{ "type": "Feature", "properties": { "内容": "デイサービスセンター海悠園【地域密着型通所介護】大分県佐伯市大字久保浦1059番地の13", "url": "https://www.kaigokensaku.mhlw.go.jp/44/index.php?action_kouhyou_detail_004_kani=true&JigyosyoCd=4470500234-00&ServiceCd=780&Type=search", "url2": "http://r.goopejp/choyokai" }, "geometry": { "type": "Point", "coordinates": [ 131.923176499999954, 32.9988862 ] } },
{ "type": "Feature", "properties": { "内容": "デイサービスコスモなおかわ【地域密着型通所介護】大分県佐伯市直川大字横川５０８番地", "url": "https://www.kaigokensaku.mhlw.go.jp/44/index.php?action_kouhyou_detail_004_kani=true&JigyosyoCd=4470500697-00&ServiceCd=780&Type=search", "url2": "http://www.caretsukasa.jp" }, "geometry": { "type": "Point", "coordinates": [ 131.754058799999939, 32.8905429 ] } },
{ "type": "Feature", "properties": { "内容": "早稲田イーライフ臼杵【地域密着型通所介護】大分県臼杵市臼杵字洲崎72-254大分県臼杵土木事務所　別館2階", "url": "https://www.kaigokensaku.mhlw.go.jp/44/index.php?action_kouhyou_detail_004_kani=true&JigyosyoCd=4470600984-00&ServiceCd=780&Type=search", "url2": null }, "geometry": { "type": "Point", "coordinates": [ 131.806361099138485, 33.125761358691385 ] } },
{ "type": "Feature", "properties": { "内容": "デイサービスセンター・もみじ【地域密着型通所介護】野津町大字野津市1050番地", "url": "https://www.kaigokensaku.mhlw.go.jp/44/index.php?action_kouhyou_detail_004_kani=true&JigyosyoCd=4490600105-00&ServiceCd=780&Type=search", "url2": null }, "geometry": { "type": "Point", "coordinates": [ 131.692150399999946, 33.0405837 ] } },
{ "type": "Feature", "properties": { "内容": "アート訪問看護ステーション療養通所介護事業所【地域密着型通所介護】大分県臼杵市大字江無田字中通257番地4臼杵市大字江無田字中通257番地4", "url": "https://www.kaigokensaku.mhlw.go.jp/44/index.php?action_kouhyou_detail_004_kani=true&JigyosyoCd=4470600802-00&ServiceCd=780&Type=search", "url2": null }, "geometry": { "type": "Point", "coordinates": [ 131.789666236662214, 33.126715021933286 ] } },
{ "type": "Feature", "properties": { "内容": "デイサービス花の詩【地域密着型通所介護】大分県臼杵市野津町大字野津市１５０番地の2", "url": "https://www.kaigokensaku.mhlw.go.jp/44/index.php?action_kouhyou_detail_004_kani=true&JigyosyoCd=4470600992-00&ServiceCd=780&Type=search", "url2": "manyounahana.com" }, "geometry": { "type": "Point", "coordinates": [ 131.691194099999962, 33.0431131 ] } },
{ "type": "Feature", "properties": { "内容": "コープおおいた　デイサービスセンターにじいろ２号館【地域密着型通所介護】大字江無田２８０－２", "url": "https://www.kaigokensaku.mhlw.go.jp/44/index.php?action_kouhyou_detail_004_kani=true&JigyosyoCd=4470600901-00&ServiceCd=780&Type=search", "url2": null }, "geometry": { "type": "Point", "coordinates": [ 131.791751422618802, 33.125044768519665 ] } },
{ "type": "Feature", "properties": { "内容": "デイサービスセンターはれやかパートⅡ【地域密着型通所介護】大分県臼杵市大字市浜字下市989番地の3", "url": "https://www.kaigokensaku.mhlw.go.jp/44/index.php?action_kouhyou_detail_004_kani=true&JigyosyoCd=4470600752-00&ServiceCd=780&Type=search", "url2": "http://www4.ocn.ne.jp/~hareyaka/" }, "geometry": { "type": "Point", "coordinates": [ 131.793697800000018, 33.1214115 ] } },
{ "type": "Feature", "properties": { "内容": "デイサービスセンター・どんぐり【地域密着型通所介護】野津町大字吉田3266", "url": "https://www.kaigokensaku.mhlw.go.jp/44/index.php?action_kouhyou_detail_004_kani=true&JigyosyoCd=4470600471-00&ServiceCd=780&Type=search", "url2": null }, "geometry": { "type": "Point", "coordinates": [ 131.685425799999962, 33.0291559 ] } },
{ "type": "Feature", "properties": { "内容": "小規模デイサービス　だん・だん【地域密着型通所介護】大分県臼杵市野津町大字亀甲3745番地の3", "url": "https://www.kaigokensaku.mhlw.go.jp/44/index.php?action_kouhyou_detail_004_kani=true&JigyosyoCd=4472600933-00&ServiceCd=780&Type=search", "url2": null }, "geometry": { "type": "Point", "coordinates": [ 131.7088817, 33.046905 ] } },
{ "type": "Feature", "properties": { "内容": "佐志生黒島デイサービス【地域密着型通所介護】大分県臼杵市大字佐志生2045番地の1", "url": "https://www.kaigokensaku.mhlw.go.jp/44/index.php?action_kouhyou_detail_004_kani=true&JigyosyoCd=4470600927-00&ServiceCd=780&Type=search", "url2": null }, "geometry": { "type": "Point", "coordinates": [ 131.827048399999967, 33.1764596 ] } },
{ "type": "Feature", "properties": { "内容": "緑の園デイサービスセンターやすらぎ【地域密着型通所介護】大分県臼杵市大字諏訪２８９番地の１", "url": "https://www.kaigokensaku.mhlw.go.jp/44/index.php?action_kouhyou_detail_004_kani=true&JigyosyoCd=4470600950-00&ServiceCd=780&Type=search", "url2": "http://fuku-doushinkai.or.jp/suwa-midori.html" }, "geometry": { "type": "Point", "coordinates": [ 131.80395210000006, 33.134355 ] } },
{ "type": "Feature", "properties": { "内容": "緑の園デイサービスセンターほのぼの【地域密着型通所介護】大分県臼杵市大字大泊220番地", "url": "https://www.kaigokensaku.mhlw.go.jp/44/index.php?action_kouhyou_detail_004_kani=true&JigyosyoCd=4470600851-00&ServiceCd=780&Type=search", "url2": "http://fuku-doushinkai.or.jp/midori.html" }, "geometry": { "type": "Point", "coordinates": [ 131.834949700000038, 33.118069 ] } },
{ "type": "Feature", "properties": { "内容": "榮やデイサービスセンター【地域密着型通所介護】大分県臼杵市野津町大字野津市１６２番地", "url": "https://www.kaigokensaku.mhlw.go.jp/44/index.php?action_kouhyou_detail_004_kani=true&JigyosyoCd=4470600612-00&ServiceCd=780&Type=search", "url2": null }, "geometry": { "type": "Point", "coordinates": [ 131.692552299999988, 33.0438215 ] } },
{ "type": "Feature", "properties": { "内容": "コープおおいたデイサービスセンターにじいろ【地域密着型通所介護】大分県　臼杵市　臼杵８１番地の４８", "url": "https://www.kaigokensaku.mhlw.go.jp/44/index.php?action_kouhyou_detail_004_kani=true&JigyosyoCd=4470600828-00&ServiceCd=780&Type=search", "url2": null }, "geometry": { "type": "Point", "coordinates": [ 131.801846899999987, 33.124822600000023 ] } },
{ "type": "Feature", "properties": { "内容": "ﾃﾞｲｻｰﾋﾞｽｾﾝﾀｰいごこち良好【地域密着型通所介護】臼杵市大字藤河内1055番地ﾃﾞｲｻｰﾋﾞｽｾﾝﾀｰいごこち良好", "url": "https://www.kaigokensaku.mhlw.go.jp/44/index.php?action_kouhyou_detail_004_kani=true&JigyosyoCd=4470600943-00&ServiceCd=780&Type=search", "url2": null }, "geometry": { "type": "Point", "coordinates": [ 131.787402983668443, 33.16051807767488 ] } },
{ "type": "Feature", "properties": { "内容": "保戸島デイサービスセンター【地域密着型通所介護】大分県津久見市大字保戸島1132番地保戸島コミュニティセンター（保戸島デイサービスセンター）", "url": "https://www.kaigokensaku.mhlw.go.jp/44/index.php?action_kouhyou_detail_004_kani=true&JigyosyoCd=4470700339-00&ServiceCd=780&Type=search", "url2": null }, "geometry": { "type": "Point", "coordinates": [ 132.006468199999972, 33.1052693 ] } },
{ "type": "Feature", "properties": { "内容": "保戸島デイサービスセンター【地域密着型通所介護】大分県津久見市大字保戸島1132番地", "url": "https://www.kaigokensaku.mhlw.go.jp/44/index.php?action_kouhyou_detail_004_kani=true&JigyosyoCd=4490700087-00&ServiceCd=780&Type=search", "url2": null }, "geometry": { "type": "Point", "coordinates": [ 132.006650900000068, 33.1051575 ] } },
{ "type": "Feature", "properties": { "内容": "デイサービスセンター喫茶去津久見【地域密着型通所介護】大分県津久見市大字千怒６２０１番地", "url": "https://www.kaigokensaku.mhlw.go.jp/44/index.php?action_kouhyou_detail_004_kani=true&JigyosyoCd=4470700271-00&ServiceCd=780&Type=search", "url2": null }, "geometry": { "type": "Point", "coordinates": [ 131.88981339999998, 33.0733534 ] } },
{ "type": "Feature", "properties": { "内容": "デイサービスセンターみなみ【地域密着型通所介護】大分県津久見市大字四浦字久保泊2944番地", "url": "https://www.kaigokensaku.mhlw.go.jp/44/index.php?action_kouhyou_detail_004_kani=true&JigyosyoCd=4470700388-00&ServiceCd=780&Type=search", "url2": "https://tsukumikan.jp" }, "geometry": { "type": "Point", "coordinates": [ 131.964568, 33.0648166 ] } },
{ "type": "Feature", "properties": { "内容": "しおさいデイサービスセンター【地域密着型通所介護】大分県津久見市大字長目2715番地の5", "url": "https://www.kaigokensaku.mhlw.go.jp/44/index.php?action_kouhyou_detail_004_kani=true&JigyosyoCd=4470700206-00&ServiceCd=780&Type=search", "url2": "http://fuku-doushinkai.or.jp" }, "geometry": { "type": "Point", "coordinates": [ 131.8861293, 33.1110795 ] } },
{ "type": "Feature", "properties": { "内容": "Haru＋【地域密着型通所介護】大分県竹田市荻町恵良原２０２１番地２", "url": "https://www.kaigokensaku.mhlw.go.jp/44/index.php?action_kouhyou_detail_004_kani=true&JigyosyoCd=4490800192-00&ServiceCd=780&Type=search", "url2": null }, "geometry": { "type": "Point", "coordinates": [ 131.313475, 32.9237296 ] } },
{ "type": "Feature", "properties": { "内容": "デイサービス　五つの実【地域密着型通所介護】大分県竹田市大字会々2576番地1", "url": "https://www.kaigokensaku.mhlw.go.jp/44/index.php?action_kouhyou_detail_004_kani=true&JigyosyoCd=4470800469-00&ServiceCd=780&Type=search", "url2": null }, "geometry": { "type": "Point", "coordinates": [ 131.386786499999971, 32.9704393 ] } },
{ "type": "Feature", "properties": { "内容": "荻町デイサービスセンター【地域密着型通所介護】竹田市荻町恵良原1772-7竹田市荻福祉健康エリア", "url": "https://www.kaigokensaku.mhlw.go.jp/44/index.php?action_kouhyou_detail_004_kani=true&JigyosyoCd=4490800150-00&ServiceCd=780&Type=search", "url2": "https://www.taketa-shakyo.jp/" }, "geometry": { "type": "Point", "coordinates": [ 131.3027485, 32.9215344 ] } },
{ "type": "Feature", "properties": { "内容": "デイサービス玄々堂・高田【地域密着型通所介護】大分県豊後高田市新町２００８番地２", "url": "https://www.kaigokensaku.mhlw.go.jp/44/index.php?action_kouhyou_detail_004_kani=true&JigyosyoCd=4470900392-00&ServiceCd=780&Type=search", "url2": "https://ag-holdings.jp/actcare/takada/" }, "geometry": { "type": "Point", "coordinates": [ 131.436552099999972, 33.5592569 ] } },
{ "type": "Feature", "properties": { "内容": "ハートフルケア笑顔【地域密着型通所介護】大分県杵築市山香町大字野原1682番地1", "url": "https://www.kaigokensaku.mhlw.go.jp/44/index.php?action_kouhyou_detail_004_kani=true&JigyosyoCd=4471000481-00&ServiceCd=780&Type=search", "url2": "https://npoegao.web.fc2.com/" }, "geometry": { "type": "Point", "coordinates": [ 131.506449100000026, 33.4467663 ] } },
{ "type": "Feature", "properties": { "内容": "デイサービスセンターすこやかの里【地域密着型通所介護】大分県宇佐市大字松崎524番地", "url": "https://www.kaigokensaku.mhlw.go.jp/44/index.php?action_kouhyou_detail_004_kani=true&JigyosyoCd=4471101214-00&ServiceCd=780&Type=search", "url2": "http://www.sukoyaka-usa.com/index2.html" }, "geometry": { "type": "Point", "coordinates": [ 131.401195899999948, 33.5597006 ] } },
{ "type": "Feature", "properties": { "内容": "デイサービスセンタ―のどか園【地域密着型通所介護】大分県宇佐市大字長洲１１１８番地", "url": "https://www.kaigokensaku.mhlw.go.jp/44/index.php?action_kouhyou_detail_004_kani=true&JigyosyoCd=4471100836-00&ServiceCd=780&Type=search", "url2": null }, "geometry": { "type": "Point", "coordinates": [ 131.383041300000059, 33.5636663 ] } },
{ "type": "Feature", "properties": { "内容": "阿香月デイサービスセンター【地域密着型通所介護】大分県宇佐市大字上元重697-2", "url": "https://www.kaigokensaku.mhlw.go.jp/44/index.php?action_kouhyou_detail_004_kani=true&JigyosyoCd=4471100323-00&ServiceCd=780&Type=search", "url2": null }, "geometry": { "type": "Point", "coordinates": [ 131.3001299, 33.518897 ] } },
{ "type": "Feature", "properties": { "内容": "デイサービスかぼす【地域密着型通所介護】大分県宇佐市大字大塚741-1", "url": "https://www.kaigokensaku.mhlw.go.jp/44/index.php?action_kouhyou_detail_004_kani=true&JigyosyoCd=4471101032-00&ServiceCd=780&Type=search", "url2": null }, "geometry": { "type": "Point", "coordinates": [ 131.336182399999984, 33.518862 ] } },
{ "type": "Feature", "properties": { "内容": "ひかりデイサービス【地域密着型通所介護】大分県宇佐市大字四日市4442-4", "url": "https://www.kaigokensaku.mhlw.go.jp/44/index.php?action_kouhyou_detail_004_kani=true&JigyosyoCd=4471100703-00&ServiceCd=780&Type=search", "url2": "http://meihokai.or.jp" }, "geometry": { "type": "Point", "coordinates": [ 131.318897500000048, 33.5232332 ] } },
{ "type": "Feature", "properties": { "内容": "デイサービス木もれ陽【地域密着型通所介護】大分県宇佐市大字江須賀4046-2", "url": "https://www.kaigokensaku.mhlw.go.jp/44/index.php?action_kouhyou_detail_004_kani=true&JigyosyoCd=4471101420-00&ServiceCd=780&Type=search", "url2": "http://www.usa-chuo.jp/rindou/" }, "geometry": { "type": "Point", "coordinates": [ 131.366323100000045, 33.5568611 ] } },
{ "type": "Feature", "properties": { "内容": "デイサービス海原の郷【地域密着型通所介護】大分県宇佐市大字四日市4501番地の1", "url": "https://www.kaigokensaku.mhlw.go.jp/44/index.php?action_kouhyou_detail_004_kani=true&JigyosyoCd=4491100147-00&ServiceCd=780&Type=search", "url2": "http://yamabuki-no-sato.com" }, "geometry": { "type": "Point", "coordinates": [ 131.315208494442743, 33.532828583862042 ] } },
{ "type": "Feature", "properties": { "内容": "デイサービスやまぶき【地域密着型通所介護】大分県宇佐市大字上高３１番地の10有料老人ホームやまぶきの里", "url": "https://www.kaigokensaku.mhlw.go.jp/44/index.php?action_kouhyou_detail_004_kani=true&JigyosyoCd=4471101123-00&ServiceCd=780&Type=search", "url2": "http://www.yamabuki-no-sato.com/" }, "geometry": { "type": "Point", "coordinates": [ 131.31032289999996, 33.5350176 ] } },
{ "type": "Feature", "properties": { "内容": "泰生の里デイサービスセンター「ルプリーズ宇佐」【地域密着型通所介護】大分県宇佐市大字山下字下坂本２１００番地", "url": "https://www.kaigokensaku.mhlw.go.jp/44/index.php?action_kouhyou_detail_004_kani=true&JigyosyoCd=4471100166-00&ServiceCd=780&Type=search", "url2": "http://www.wellb.or.jp/usa/index.html" }, "geometry": { "type": "Point", "coordinates": [ 131.305439989640803, 33.535160966189125 ] } },
{ "type": "Feature", "properties": { "内容": "いきいきデイサービスセンター【地域密着型通所介護】大分県宇佐市上田１０５２番地宇佐整骨院", "url": "https://www.kaigokensaku.mhlw.go.jp/44/index.php?action_kouhyou_detail_004_kani=true&JigyosyoCd=4471100521-00&ServiceCd=780&Type=search", "url2": "http://usa1961.com/？page_id=147" }, "geometry": { "type": "Point", "coordinates": [ 131.3489085, 33.533244 ] } },
{ "type": "Feature", "properties": { "内容": "アクリス【地域密着型通所介護】大分県豊後大野市緒方町馬場21番地1豊後大野市民病院内", "url": "https://www.kaigokensaku.mhlw.go.jp/44/index.php?action_kouhyou_detail_004_kani=true&JigyosyoCd=4472600875-00&ServiceCd=780&Type=search", "url2": "http://bungo-fukushi.jimdo.com/" }, "geometry": { "type": "Point", "coordinates": [ 131.4749564, 32.9699666 ] } },
{ "type": "Feature", "properties": { "内容": "優緩倶楽部フェリス【地域密着型通所介護】千歳町前田1157", "url": "https://www.kaigokensaku.mhlw.go.jp/44/index.php?action_kouhyou_detail_004_kani=true&JigyosyoCd=4471200545-00&ServiceCd=780&Type=search", "url2": "http://www.citydo.com/prf/oita/guide/sg/520002912.html" }, "geometry": { "type": "Point", "coordinates": [ 131.58366, 33.0198094 ] } },
{ "type": "Feature", "properties": { "内容": "デイサービスセンター創寿苑【地域密着型通所介護】大分県豊後大野市千歳町新殿314番地1", "url": "https://www.kaigokensaku.mhlw.go.jp/44/index.php?action_kouhyou_detail_004_kani=true&JigyosyoCd=4472600669-00&ServiceCd=780&Type=search", "url2": "http://bungo-fukushi.jimdo.com/" }, "geometry": { "type": "Point", "coordinates": [ 131.596369505557277, 33.045073864836269 ] } },
{ "type": "Feature", "properties": { "内容": "くつろぎ園【地域密着型通所介護】大分県豊後大野市犬飼町犬飼86", "url": "https://www.kaigokensaku.mhlw.go.jp/44/index.php?action_kouhyou_detail_004_kani=true&JigyosyoCd=4472600727-00&ServiceCd=780&Type=search", "url2": null }, "geometry": { "type": "Point", "coordinates": [ 131.635676217335458, 33.073780525550319 ] } },
{ "type": "Feature", "properties": { "内容": "デイサービス丸山【地域密着型通所介護】大分県豊後大野市千歳町新殿７７１番地１", "url": "https://www.kaigokensaku.mhlw.go.jp/44/index.php?action_kouhyou_detail_004_kani=true&JigyosyoCd=4491200129-00&ServiceCd=780&Type=search", "url2": null }, "geometry": { "type": "Point", "coordinates": [ 131.597356847885123, 33.03910949698431 ] } },
{ "type": "Feature", "properties": { "内容": "デイサービス　あさがお【地域密着型通所介護】大分県豊後大野市三重町内田2540番地", "url": "https://www.kaigokensaku.mhlw.go.jp/44/index.php?action_kouhyou_detail_004_kani=true&JigyosyoCd=4471200412-00&ServiceCd=780&Type=search", "url2": null }, "geometry": { "type": "Point", "coordinates": [ 131.592302099999984, 32.9800027 ] } },
{ "type": "Feature", "properties": { "内容": "わくわくデイサービスセンター【地域密着型通所介護】大分県豊後大野市三重町市場1163番地", "url": "https://www.kaigokensaku.mhlw.go.jp/44/index.php?action_kouhyou_detail_004_kani=true&JigyosyoCd=4471200701-00&ServiceCd=780&Type=search", "url2": "http://www.kigankai.or.jp/" }, "geometry": { "type": "Point", "coordinates": [ 131.582747691123927, 32.977913688663243 ] } },
{ "type": "Feature", "properties": { "内容": "デイサービスセンター憩いの村【地域密着型通所介護】大分県豊後大野市朝地町朝地906番地7", "url": "https://www.kaigokensaku.mhlw.go.jp/44/index.php?action_kouhyou_detail_004_kani=true&JigyosyoCd=4491200103-00&ServiceCd=780&Type=search", "url2": "https://www.bghohnosw.com/" }, "geometry": { "type": "Point", "coordinates": [ 131.4312519, 33.0062031 ] } },
{ "type": "Feature", "properties": { "内容": "デイサービスセンター悠々【地域密着型通所介護】大分県豊後大野市緒方町上冬原493番地2", "url": "https://www.kaigokensaku.mhlw.go.jp/44/index.php?action_kouhyou_detail_004_kani=true&JigyosyoCd=4472600537-00&ServiceCd=780&Type=search", "url2": "http://bungo-fukushi.jimdo.com/" }, "geometry": { "type": "Point", "coordinates": [ 131.440433915344244, 32.91558883368895 ] } },
{ "type": "Feature", "properties": { "内容": "デイサービスセンターみつば苑【地域密着型通所介護】大分県豊後大野市清川町砂田1844番地", "url": "https://www.kaigokensaku.mhlw.go.jp/44/index.php?action_kouhyou_detail_004_kani=true&JigyosyoCd=4472600495-00&ServiceCd=780&Type=search", "url2": "https://www.bghohnosw.com/" }, "geometry": { "type": "Point", "coordinates": [ 131.512700066934258, 32.967889739906845 ] } },
{ "type": "Feature", "properties": { "内容": "デイサービスセンターまごの手【地域密着型通所介護】大分県豊後大野市朝地町下野442番地2", "url": "https://www.kaigokensaku.mhlw.go.jp/44/index.php?action_kouhyou_detail_004_kani=true&JigyosyoCd=4471200065-00&ServiceCd=780&Type=search", "url2": "https://magonote-care.com" }, "geometry": { "type": "Point", "coordinates": [ 131.459216100000049, 33.004293 ] } },
{ "type": "Feature", "properties": { "内容": "デイサービスセンターあけぼの【地域密着型通所介護】大分県豊後大野市犬飼町田原1513番地1", "url": "https://www.kaigokensaku.mhlw.go.jp/44/index.php?action_kouhyou_detail_004_kani=true&JigyosyoCd=4472600883-00&ServiceCd=780&Type=search", "url2": "https://www.bghohnosw.com/" }, "geometry": { "type": "Point", "coordinates": [ 131.631453844215002, 33.064667532834314 ] } },
{ "type": "Feature", "properties": { "内容": "白心荘デイサービスセンター【地域密着型通所介護】大分県由布市湯布院町川北１３４８番地３", "url": "https://www.kaigokensaku.mhlw.go.jp/44/index.php?action_kouhyou_detail_004_kani=true&JigyosyoCd=4472300187-00&ServiceCd=780&Type=search", "url2": "http://hakushinsou.com/" }, "geometry": { "type": "Point", "coordinates": [ 131.336045499999955, 33.2599955 ] } },
{ "type": "Feature", "properties": { "内容": "有限会社　すぎた福祉サービスセンター【地域密着型通所介護】大分県由布市湯布院町川上３７２０－１", "url": "https://www.kaigokensaku.mhlw.go.jp/44/index.php?action_kouhyou_detail_004_kani=true&JigyosyoCd=4472300765-00&ServiceCd=780&Type=search", "url2": null }, "geometry": { "type": "Point", "coordinates": [ 131.355826900000011, 33.2650284 ] } },
{ "type": "Feature", "properties": { "内容": "富山型デイサービス　あした天気になあれ【地域密着型通所介護】大分県由布市湯布院町川上３５７１番地", "url": "https://www.kaigokensaku.mhlw.go.jp/44/index.php?action_kouhyou_detail_004_kani=true&JigyosyoCd=4491300143-00&ServiceCd=780&Type=search", "url2": "https://ashitatenki.net/staff.php" }, "geometry": { "type": "Point", "coordinates": [ 131.35211110489351, 33.264748549716117 ] } },
{ "type": "Feature", "properties": { "内容": "地域密着型デイサービス明日葉【地域密着型通所介護】大分県由布市挾間町下市503番地", "url": "https://www.kaigokensaku.mhlw.go.jp/44/index.php?action_kouhyou_detail_004_kani=true&JigyosyoCd=4491300168-00&ServiceCd=780&Type=search", "url2": "ashitaba.gloomy.jp" }, "geometry": { "type": "Point", "coordinates": [ 131.523165192559787, 33.200848342770072 ] } },
{ "type": "Feature", "properties": { "内容": "デイサービスせきじょうあん【地域密着型通所介護】大分県由布市挾間町来鉢６１番地", "url": "https://www.kaigokensaku.mhlw.go.jp/44/index.php?action_kouhyou_detail_004_kani=true&JigyosyoCd=4491300150-00&ServiceCd=780&Type=search", "url2": "https://sekijyonakayosi.wixsite.com/community-space-an" }, "geometry": { "type": "Point", "coordinates": [ 131.522383265992744, 33.222571479107927 ] } },
{ "type": "Feature", "properties": { "内容": "くにさきケアセンターたんぽぽ【地域密着型通所介護】大分県国東市国見町伊美2225番地1", "url": "https://www.kaigokensaku.mhlw.go.jp/44/index.php?action_kouhyou_detail_004_kani=true&JigyosyoCd=4472100025-00&ServiceCd=780&Type=search", "url2": null }, "geometry": { "type": "Point", "coordinates": [ 131.59123, 33.6771659 ] } },
{ "type": "Feature", "properties": { "内容": "健康堂デイサービスセンター【地域密着型通所介護】大分県国東市国東町田深1001", "url": "https://www.kaigokensaku.mhlw.go.jp/44/index.php?action_kouhyou_detail_004_kani=true&JigyosyoCd=4472100389-00&ServiceCd=780&Type=search", "url2": "http://ksiseikotu.web.fc2.com/dei.html" }, "geometry": { "type": "Point", "coordinates": [ 131.731272511528545, 33.571763072531098 ] } },
{ "type": "Feature", "properties": { "内容": "デイサービスセンター　鈴鳴荘【地域密着型通所介護】大分県国東市安岐町下山口58番地", "url": "https://www.kaigokensaku.mhlw.go.jp/44/index.php?action_kouhyou_detail_004_kani=true&JigyosyoCd=4472100306-00&ServiceCd=780&Type=search", "url2": "http://www.akinosato.com/" }, "geometry": { "type": "Point", "coordinates": [ 131.691195900000025, 33.4607761 ] } },
{ "type": "Feature", "properties": { "内容": "デイサービスセンター笑みの杜おおが【地域密着型通所介護】大分県速見郡日出町大神5891-35", "url": "https://www.kaigokensaku.mhlw.go.jp/44/index.php?action_kouhyou_detail_004_kani=true&JigyosyoCd=4472200536-00&ServiceCd=780&Type=search", "url2": null }, "geometry": { "type": "Point", "coordinates": [ 131.593319800000017, 33.3537181 ] } },
{ "type": "Feature", "properties": { "内容": "通所介護おおがの郷株式会社【地域密着型通所介護】大分県速見郡日出町大字真那井2486番地", "url": "https://www.kaigokensaku.mhlw.go.jp/44/index.php?action_kouhyou_detail_004_kani=true&JigyosyoCd=4472200528-00&ServiceCd=780&Type=search", "url2": "http://www.ooganosato.com" }, "geometry": { "type": "Point", "coordinates": [ 131.596735699999954, 33.3764269 ] } },
{ "type": "Feature", "properties": { "内容": "デイサービスきらきら【地域密着型通所介護】4619-5", "url": "https://www.kaigokensaku.mhlw.go.jp/44/index.php?action_kouhyou_detail_004_kani=true&JigyosyoCd=4472200676-00&ServiceCd=780&Type=search", "url2": null }, "geometry": { "type": "Point", "coordinates": [ 131.580546250289899, 33.355290501037395 ] } },
{ "type": "Feature", "properties": { "内容": "デイサービス暘谷苑・豊岡【地域密着型通所介護】大分県速見郡日出町豊岡749番地12", "url": "https://www.kaigokensaku.mhlw.go.jp/44/index.php?action_kouhyou_detail_004_kani=true&JigyosyoCd=4472200643-00&ServiceCd=780&Type=search", "url2": "http://www.youkoku.or.jp/" }, "geometry": { "type": "Point", "coordinates": [ 131.50714210000001, 33.3660451 ] } },
{ "type": "Feature", "properties": { "内容": "デイサービスセンターぷらすわん【地域密着型通所介護】大分県速見郡日出町豊岡6069-22", "url": "https://www.kaigokensaku.mhlw.go.jp/44/index.php?action_kouhyou_detail_004_kani=true&JigyosyoCd=4472200312-00&ServiceCd=780&Type=search", "url2": "http://www.scnws.jp/" }, "geometry": { "type": "Point", "coordinates": [ 131.515316200000029, 33.3731029 ] } },
{ "type": "Feature", "properties": { "内容": "デイサービスセンターいちょう【地域密着型通所介護】大分県速見郡日出町川崎5953番地23", "url": "https://www.kaigokensaku.mhlw.go.jp/44/index.php?action_kouhyou_detail_004_kani=true&JigyosyoCd=4492200060-00&ServiceCd=780&Type=search", "url2": null }, "geometry": { "type": "Point", "coordinates": [ 131.5448916, 33.3560528 ] } },
{ "type": "Feature", "properties": { "内容": "リハビリ特化型デイサービスフィットネス暘谷苑【地域密着型通所介護】大分県速見郡日出町3879-9ブルームビル1階", "url": "https://www.kaigokensaku.mhlw.go.jp/44/index.php?action_kouhyou_detail_004_kani=true&JigyosyoCd=4472200577-00&ServiceCd=780&Type=search", "url2": "http://www.youkoku.or.jp" }, "geometry": { "type": "Point", "coordinates": [ 131.53421999189186, 33.37326681678784 ] } },
{ "type": "Feature", "properties": { "内容": "飯田高原福祉サービスセンター「プラトー」【地域密着型通所介護】大分県玖珠郡九重町大字田野1624－79", "url": "https://www.kaigokensaku.mhlw.go.jp/44/index.php?action_kouhyou_detail_004_kani=true&JigyosyoCd=4472800327-00&ServiceCd=780&Type=search", "url2": "http://www.careport-keiwa.jp" }, "geometry": { "type": "Point", "coordinates": [ 131.221856399999979, 33.1572779 ] } },
{ "type": "Feature", "properties": { "内容": "地域密着型通所介護八満【地域密着型通所介護】大分県玖珠郡九重町大字田野1624-79", "url": "https://www.kaigokensaku.mhlw.go.jp/44/index.php?action_kouhyou_detail_004_kani=true&JigyosyoCd=4492800042-00&ServiceCd=780&Type=search", "url2": "https://s-a-narrative.com/" }, "geometry": { "type": "Point", "coordinates": [ 131.2218669, 33.157261 ] } }
]
}
