{
"type": "FeatureCollection",
"name": "geo_44_高校",
"crs": { "type": "name", "properties": { "name": "urn:ogc:def:crs:EPSG::6668" } },
"features": [
{ "type": "Feature", "properties": { "P29_001": "44201", "P29_002": "D144210000013", "P29_003": "16004", "P29_004": "大分県立大分上野丘高等学校", "P29_005": "大分県大分市上野丘2-10-1", "P29_006": "2", "P29_007": "0", "P29_008": "00", "P29_009": null }, "geometry": { "type": "Point", "coordinates": [ 131.611451618057544, 33.22130954275557 ] } },
{ "type": "Feature", "properties": { "P29_001": "44201", "P29_002": "D144210000022", "P29_003": "16004", "P29_004": "大分県立大分舞鶴高等学校", "P29_005": "大分県大分市今津留1-19-1", "P29_006": "2", "P29_007": "0", "P29_008": "00", "P29_009": null }, "geometry": { "type": "Point", "coordinates": [ 131.623151829685924, 33.244352775678621 ] } },
{ "type": "Feature", "properties": { "P29_001": "44201", "P29_002": "D144210000031", "P29_003": "16004", "P29_004": "大分県立大分工業高等学校", "P29_005": "大分県大分市芳河原台12-1", "P29_006": "2", "P29_007": "0", "P29_008": "00", "P29_009": null }, "geometry": { "type": "Point", "coordinates": [ 131.615658553479392, 33.195996409972992 ] } },
{ "type": "Feature", "properties": { "P29_001": "44201", "P29_002": "D144210000040", "P29_003": "16004", "P29_004": "大分県立大分商業高等学校", "P29_005": "大分県大分市西浜4-2", "P29_006": "2", "P29_007": "0", "P29_008": "00", "P29_009": null }, "geometry": { "type": "Point", "coordinates": [ 131.627455453795704, 33.247126056671775 ] } },
{ "type": "Feature", "properties": { "P29_001": "44201", "P29_002": "D144210000059", "P29_003": "16004", "P29_004": "大分県立大分西高等学校", "P29_005": "大分県大分市新春日町2-1-1", "P29_006": "2", "P29_007": "0", "P29_008": "00", "P29_009": null }, "geometry": { "type": "Point", "coordinates": [ 131.589859551998842, 33.233397068971172 ] } },
{ "type": "Feature", "properties": { "P29_001": "44201", "P29_002": "D144210000068", "P29_003": "16004", "P29_004": "大分県立大分鶴崎高等学校", "P29_005": "大分県大分市南鶴崎3-5-1", "P29_006": "2", "P29_007": "0", "P29_008": "00", "P29_009": null }, "geometry": { "type": "Point", "coordinates": [ 131.691928075211933, 33.237971256044354 ] } },
{ "type": "Feature", "properties": { "P29_001": "44201", "P29_002": "D144210000077", "P29_003": "16004", "P29_004": "大分県立鶴崎工業高等学校", "P29_005": "大分県大分市大字葛木509", "P29_006": "2", "P29_007": "0", "P29_008": "00", "P29_009": null }, "geometry": { "type": "Point", "coordinates": [ 131.673361022566723, 33.222674135406379 ] } },
{ "type": "Feature", "properties": { "P29_001": "44201", "P29_002": "D144210000086", "P29_003": "16004", "P29_004": "大分県立大分東高等学校", "P29_005": "大分県大分市大字屋山2009", "P29_006": "2", "P29_007": "0", "P29_008": "00", "P29_009": null }, "geometry": { "type": "Point", "coordinates": [ 131.744487281283796, 33.220443619747869 ] } },
{ "type": "Feature", "properties": { "P29_001": "44201", "P29_002": "D144210000095", "P29_003": "16004", "P29_004": "大分県立大分雄城台高等学校", "P29_005": "大分県大分市大字玉沢1250", "P29_006": "2", "P29_007": "0", "P29_008": "00", "P29_009": null }, "geometry": { "type": "Point", "coordinates": [ 131.580513979602983, 33.192602284194408 ] } },
{ "type": "Feature", "properties": { "P29_001": "44202", "P29_002": "D144210000102", "P29_003": "16004", "P29_004": "大分県立別府鶴見丘高等学校", "P29_005": "大分県別府市4433-2", "P29_006": "2", "P29_007": "0", "P29_008": "00", "P29_009": null }, "geometry": { "type": "Point", "coordinates": [ 131.490156080930404, 33.293788638162439 ] } },
{ "type": "Feature", "properties": { "P29_001": "44201", "P29_002": "D144210000111", "P29_003": "16004", "P29_004": "大分県立芸術緑丘高等学校", "P29_005": "大分県大分市上野丘東1-11", "P29_006": "2", "P29_007": "0", "P29_008": "00", "P29_009": null }, "geometry": { "type": "Point", "coordinates": [ 131.616193655022073, 33.223875299187164 ] } },
{ "type": "Feature", "properties": { "P29_001": "44203", "P29_002": "D144210000120", "P29_003": "16004", "P29_004": "大分県立中津南高等学校", "P29_005": "大分県中津市高畑2093", "P29_006": "2", "P29_007": "0", "P29_008": "00", "P29_009": null }, "geometry": { "type": "Point", "coordinates": [ 131.181584661367395, 33.597572981670559 ] } },
{ "type": "Feature", "properties": { "P29_001": "44203", "P29_002": "D144210000139", "P29_003": "16004", "P29_004": "大分県立中津北高等学校", "P29_005": "大分県中津市中央町1-6-83", "P29_006": "2", "P29_007": "0", "P29_008": "00", "P29_009": null }, "geometry": { "type": "Point", "coordinates": [ 131.19372417845878, 33.589633293715266 ] } },
{ "type": "Feature", "properties": { "P29_001": "44204", "P29_002": "D144210000148", "P29_003": "16004", "P29_004": "大分県立日田高等学校", "P29_005": "大分県日田市田島2-9-30", "P29_006": "2", "P29_007": "0", "P29_008": "00", "P29_009": null }, "geometry": { "type": "Point", "coordinates": [ 130.944357978166892, 33.322349879411206 ] } },
{ "type": "Feature", "properties": { "P29_001": "44204", "P29_002": "D144210000157", "P29_003": "16004", "P29_004": "大分県立日田林工高等学校", "P29_005": "大分県日田市吹上町30", "P29_006": "2", "P29_007": "0", "P29_008": "00", "P29_009": null }, "geometry": { "type": "Point", "coordinates": [ 130.933971572383854, 33.331469363101533 ] } },
{ "type": "Feature", "properties": { "P29_001": "44204", "P29_002": "D144210000166", "P29_003": "16004", "P29_004": "大分県立日田三隈高等学校", "P29_005": "大分県日田市大字友田1546-1", "P29_006": "2", "P29_007": "0", "P29_008": "00", "P29_009": null }, "geometry": { "type": "Point", "coordinates": [ 130.914903582169131, 33.330534422327354 ] } },
{ "type": "Feature", "properties": { "P29_001": "44205", "P29_002": "D144210000175", "P29_003": "16004", "P29_004": "大分県立佐伯鶴城高等学校", "P29_005": "大分県佐伯市城下東町7-1", "P29_006": "2", "P29_007": "0", "P29_008": "00", "P29_009": null }, "geometry": { "type": "Point", "coordinates": [ 131.895115963989127, 32.960982611511881 ] } },
{ "type": "Feature", "properties": { "P29_001": "44206", "P29_002": "D144210000184", "P29_003": "16004", "P29_004": "大分県立臼杵高等学校", "P29_005": "大分県臼杵市海添2521-1", "P29_006": "2", "P29_007": "0", "P29_008": "00", "P29_009": null }, "geometry": { "type": "Point", "coordinates": [ 131.805248838514814, 33.117807691031757 ] } },
{ "type": "Feature", "properties": { "P29_001": "44208", "P29_002": "D144210000193", "P29_003": "16004", "P29_004": "大分県立竹田高等学校", "P29_005": "大分県竹田市竹田2642", "P29_006": "2", "P29_007": "0", "P29_008": "00", "P29_009": null }, "geometry": { "type": "Point", "coordinates": [ 131.398134873277314, 32.967924600727805 ] } },
{ "type": "Feature", "properties": { "P29_001": "44209", "P29_002": "D144210000200", "P29_003": "16004", "P29_004": "大分県立高田高等学校", "P29_005": "大分県豊後高田市玉津1834-1", "P29_006": "2", "P29_007": "0", "P29_008": "00", "P29_009": null }, "geometry": { "type": "Point", "coordinates": [ 131.443760560505922, 33.567413713397677 ] } },
{ "type": "Feature", "properties": { "P29_001": "44210", "P29_002": "D144210000219", "P29_003": "16004", "P29_004": "大分県立杵築高等学校", "P29_005": "大分県杵築市本庄2379", "P29_006": "2", "P29_007": "0", "P29_008": "00", "P29_009": null }, "geometry": { "type": "Point", "coordinates": [ 131.601702066501701, 33.419273315431063 ] } },
{ "type": "Feature", "properties": { "P29_001": "44211", "P29_002": "D144210000228", "P29_003": "16004", "P29_004": "大分県立宇佐産業科学高等学校", "P29_005": "大分県宇佐市四日市292", "P29_006": "2", "P29_007": "0", "P29_008": "00", "P29_009": null }, "geometry": { "type": "Point", "coordinates": [ 131.323975679534783, 33.537060847801918 ] } },
{ "type": "Feature", "properties": { "P29_001": "44213", "P29_002": "D144210000237", "P29_003": "16004", "P29_004": "大分県立由布高等学校", "P29_005": "大分県由布市庄内町大龍2674-1", "P29_006": "2", "P29_007": "0", "P29_008": "00", "P29_009": null }, "geometry": { "type": "Point", "coordinates": [ 131.453347547354639, 33.182207572759033 ] } },
{ "type": "Feature", "properties": { "P29_001": "44211", "P29_002": "D144210000246", "P29_003": "16004", "P29_004": "大分県立安心院高等学校", "P29_005": "大分県宇佐市安心院町折敷田64", "P29_006": "2", "P29_007": "0", "P29_008": "00", "P29_009": null }, "geometry": { "type": "Point", "coordinates": [ 131.352295404790937, 33.437317794036069 ] } },
{ "type": "Feature", "properties": { "P29_001": "44201", "P29_002": "D144210000255", "P29_003": "16004", "P29_004": "大分県立大分南高等学校", "P29_005": "大分県大分市判田台南1-1-1", "P29_006": "2", "P29_007": "0", "P29_008": "00", "P29_009": null }, "geometry": { "type": "Point", "coordinates": [ 131.63007335495422, 33.15954244145675 ] } },
{ "type": "Feature", "properties": { "P29_001": "44201", "P29_002": "D144210000264", "P29_003": "16004", "P29_004": "大分県立豊府高等学校", "P29_005": "大分県大分市花園3-3-1", "P29_006": "2", "P29_007": "0", "P29_008": "00", "P29_009": null }, "geometry": { "type": "Point", "coordinates": [ 131.605507072254966, 33.207080652462743 ] } },
{ "type": "Feature", "properties": { "P29_001": "44201", "P29_002": "D144210000273", "P29_003": "16004", "P29_004": "大分県立情報科学高等学校", "P29_005": "大分県大分市大字横尾1605", "P29_006": "2", "P29_007": "0", "P29_008": "00", "P29_009": null }, "geometry": { "type": "Point", "coordinates": [ 131.648491643618911, 33.20393334559332 ] } },
{ "type": "Feature", "properties": { "P29_001": "44212", "P29_002": "D144210000282", "P29_003": "16004", "P29_004": "大分県立三重総合高等学校", "P29_005": "大分県豊後大野市三重町秋葉1010", "P29_006": "2", "P29_007": "0", "P29_008": "00", "P29_009": null }, "geometry": { "type": "Point", "coordinates": [ 131.581306813936379, 32.973677718585975 ] } },
{ "type": "Feature", "properties": { "P29_001": "44211", "P29_002": "D144210000291", "P29_003": "16004", "P29_004": "大分県立宇佐高等学校", "P29_005": "大分県宇佐市南宇佐1543", "P29_006": "2", "P29_007": "0", "P29_008": "00", "P29_009": null }, "geometry": { "type": "Point", "coordinates": [ 131.378294912459154, 33.530820513687665 ] } },
{ "type": "Feature", "properties": { "P29_001": "44203", "P29_002": "D144210000308", "P29_003": "16004", "P29_004": "大分県立中津南高等学校耶馬渓校", "P29_005": "大分県中津市耶馬溪町戸原1650-3", "P29_006": "2", "P29_007": "0", "P29_008": "00", "P29_009": null }, "geometry": { "type": "Point", "coordinates": [ 131.135629297386828, 33.467438571723285 ] } },
{ "type": "Feature", "properties": { "P29_001": "44214", "P29_002": "D144210000317", "P29_003": "16004", "P29_004": "大分県立国東高等学校", "P29_005": "大分県国東市国東町鶴川1974", "P29_006": "2", "P29_007": "0", "P29_008": "00", "P29_009": null }, "geometry": { "type": "Point", "coordinates": [ 131.732759224534249, 33.557528860204194 ] } },
{ "type": "Feature", "properties": { "P29_001": "44203", "P29_002": "D144210000335", "P29_003": "16004", "P29_004": "大分県立中津東高等学校", "P29_005": "大分県中津市上如水145-3", "P29_006": "2", "P29_007": "0", "P29_008": "00", "P29_009": null }, "geometry": { "type": "Point", "coordinates": [ 131.2217512665284, 33.58128233179653 ] } },
{ "type": "Feature", "properties": { "P29_001": "44201", "P29_002": "D144210000344", "P29_003": "16004", "P29_004": "大分県立爽風館高等学校", "P29_005": "大分県大分市上野丘1-11-14", "P29_006": "2", "P29_007": "0", "P29_008": "00", "P29_009": null }, "geometry": { "type": "Point", "coordinates": [ 131.610310996385152, 33.224885997288105 ] } },
{ "type": "Feature", "properties": { "P29_001": "44207", "P29_002": "D144210000353", "P29_003": "16004", "P29_004": "大分県立津久見高等学校", "P29_005": "大分県津久見市大字津久見3485-1", "P29_006": "2", "P29_007": "0", "P29_008": "00", "P29_009": null }, "geometry": { "type": "Point", "coordinates": [ 131.861535984117097, 33.066059638035206 ] } },
{ "type": "Feature", "properties": { "P29_001": "44341", "P29_002": "D144210000362", "P29_003": "16004", "P29_004": "大分県立日出総合高等学校", "P29_005": "大分県速見郡日出町大字大神1396-43", "P29_006": "2", "P29_007": "0", "P29_008": "00", "P29_009": null }, "geometry": { "type": "Point", "coordinates": [ 131.567861502448579, 33.387465595386686 ] } },
{ "type": "Feature", "properties": { "P29_001": "44205", "P29_002": "D144210000371", "P29_003": "16004", "P29_004": "大分県立佐伯豊南高等学校", "P29_005": "大分県佐伯市大字鶴望2851-1", "P29_006": "2", "P29_007": "0", "P29_008": "00", "P29_009": null }, "geometry": { "type": "Point", "coordinates": [ 131.881032553450183, 32.96786650735207 ] } },
{ "type": "Feature", "properties": { "P29_001": "44202", "P29_002": "D144210000380", "P29_003": "16004", "P29_004": "大分県立別府翔青高等学校", "P29_005": "大分県別府市野口原3088-91", "P29_006": "2", "P29_007": "0", "P29_008": "00", "P29_009": null }, "geometry": { "type": "Point", "coordinates": [ 131.485746704007738, 33.287798271601453 ] } },
{ "type": "Feature", "properties": { "P29_001": "44462", "P29_002": "D144210000399", "P29_003": "16004", "P29_004": "大分県立玖珠美山高等学校", "P29_005": "大分県玖珠郡玖珠町大字帆足160", "P29_006": "2", "P29_007": "0", "P29_008": "00", "P29_009": null }, "geometry": { "type": "Point", "coordinates": [ 131.152654275091209, 33.285842805085032 ] } },
{ "type": "Feature", "properties": { "P29_001": "44206", "P29_002": "D144210000406", "P29_003": "16004", "P29_004": "大分県立海洋科学高等学校", "P29_005": "大分県臼杵市大字諏訪254-1-2", "P29_006": "2", "P29_007": "0", "P29_008": "00", "P29_009": null }, "geometry": { "type": "Point", "coordinates": [ 131.804613595615137, 33.135870157325151 ] } },
{ "type": "Feature", "properties": { "P29_001": "44208", "P29_002": "D144210000415", "P29_003": "16004", "P29_004": "大分県立久住高原農業高等学校", "P29_005": "大分県竹田市久住町大字栢木5801-32", "P29_006": "2", "P29_007": "0", "P29_008": "00", "P29_009": null }, "geometry": { "type": "Point", "coordinates": [ 131.324759340556852, 33.054390282407255 ] } },
{ "type": "Feature", "properties": { "P29_001": "44201", "P29_002": "D144310000011", "P29_003": "16004", "P29_004": "岩田高等学校", "P29_005": "大分県大分市岩田町1-1-1", "P29_006": "4", "P29_007": "0", "P29_008": "00", "P29_009": null }, "geometry": { "type": "Point", "coordinates": [ 131.626283865548572, 33.237392434386322 ] } },
{ "type": "Feature", "properties": { "P29_001": "44201", "P29_002": "D144310000020", "P29_003": "16004", "P29_004": "福徳学院高等学校", "P29_005": "大分県大分市永興550", "P29_006": "4", "P29_007": "0", "P29_008": "00", "P29_009": null }, "geometry": { "type": "Point", "coordinates": [ 131.587957656960356, 33.21537644118078 ] } },
{ "type": "Feature", "properties": { "P29_001": "44201", "P29_002": "D144310000039", "P29_003": "16004", "P29_004": "大分高等学校", "P29_005": "大分県大分市明野高尾1-6-1", "P29_006": "4", "P29_007": "0", "P29_008": "00", "P29_009": null }, "geometry": { "type": "Point", "coordinates": [ 131.651600343552474, 33.21360733070992 ] } },
{ "type": "Feature", "properties": { "P29_001": "44201", "P29_002": "D144310000048", "P29_003": "16004", "P29_004": "楊志館高等学校", "P29_005": "大分県大分市桜ヶ丘7-8", "P29_006": "4", "P29_007": "0", "P29_008": "00", "P29_009": null }, "geometry": { "type": "Point", "coordinates": [ 131.604815172223311, 33.227169587688941 ] } },
{ "type": "Feature", "properties": { "P29_001": "44201", "P29_002": "D144310000057", "P29_003": "16004", "P29_004": "大分東明高等学校", "P29_005": "大分県大分市千代町2-4-4", "P29_006": "4", "P29_007": "0", "P29_008": "00", "P29_009": null }, "geometry": { "type": "Point", "coordinates": [ 131.605722971509522, 33.244552216974583 ] } },
{ "type": "Feature", "properties": { "P29_001": "44201", "P29_002": "D144310000066", "P29_003": "16004", "P29_004": "大分国際情報高等学校", "P29_005": "大分県大分市新貝11-40", "P29_006": "4", "P29_007": "0", "P29_008": "00", "P29_009": null }, "geometry": { "type": "Point", "coordinates": [ 131.647914934178033, 33.24815072998453 ] } },
{ "type": "Feature", "properties": { "P29_001": "44202", "P29_002": "D144310000075", "P29_003": "16004", "P29_004": "別府溝部学園高等学校", "P29_005": "大分県別府市大字野田78", "P29_006": "4", "P29_007": "0", "P29_008": "00", "P29_009": null }, "geometry": { "type": "Point", "coordinates": [ 131.485339446346558, 33.328364732834146 ] } },
{ "type": "Feature", "properties": { "P29_001": "44203", "P29_002": "D144310000084", "P29_003": "16004", "P29_004": "東九州龍谷高等学校", "P29_005": "大分県中津市大字中殿527", "P29_006": "4", "P29_007": "0", "P29_008": "00", "P29_009": null }, "geometry": { "type": "Point", "coordinates": [ 131.194073241561227, 33.600369158742836 ] } },
{ "type": "Feature", "properties": { "P29_001": "44204", "P29_002": "D144310000093", "P29_003": "16004", "P29_004": "昭和学園高等学校", "P29_005": "大分県日田市日ノ出町14", "P29_006": "4", "P29_007": "0", "P29_008": "00", "P29_009": null }, "geometry": { "type": "Point", "coordinates": [ 130.940235063958539, 33.33332115676258 ] } },
{ "type": "Feature", "properties": { "P29_001": "44204", "P29_002": "D144310000100", "P29_003": "16004", "P29_004": "藤蔭高等学校", "P29_005": "大分県日田市田島本町5-41", "P29_006": "4", "P29_007": "0", "P29_008": "00", "P29_009": null }, "geometry": { "type": "Point", "coordinates": [ 130.939622421166661, 33.319899292994016 ] } },
{ "type": "Feature", "properties": { "P29_001": "44205", "P29_002": "D144310000119", "P29_003": "16004", "P29_004": "日本文理大学附属高等学校", "P29_005": "大分県佐伯市鶴谷町2-1-10", "P29_006": "4", "P29_007": "0", "P29_008": "00", "P29_009": null }, "geometry": { "type": "Point", "coordinates": [ 131.909109985999009, 32.970781929762566 ] } },
{ "type": "Feature", "properties": { "P29_001": "44208", "P29_002": "D144310000128", "P29_003": "16004", "P29_004": "稲葉学園高等学校", "P29_005": "大分県竹田市大字竹田2509", "P29_006": "4", "P29_007": "0", "P29_008": "00", "P29_009": null }, "geometry": { "type": "Point", "coordinates": [ 131.397790962080961, 32.96470675675868 ] } },
{ "type": "Feature", "properties": { "P29_001": "44211", "P29_002": "D144310000137", "P29_003": "16004", "P29_004": "柳ヶ浦高等学校", "P29_005": "大分県宇佐市大字江須賀939", "P29_006": "4", "P29_007": "0", "P29_008": "00", "P29_009": null }, "geometry": { "type": "Point", "coordinates": [ 131.358349926540086, 33.5569865641788 ] } },
{ "type": "Feature", "properties": { "P29_001": "44202", "P29_002": "D144310000146", "P29_003": "16004", "P29_004": "明豊高等学校", "P29_005": "大分県別府市野口原3088", "P29_006": "4", "P29_007": "0", "P29_008": "00", "P29_009": null }, "geometry": { "type": "Point", "coordinates": [ 131.484498529594362, 33.283916999054028 ] } },
{ "type": "Feature", "properties": { "P29_001": "44201", "P29_002": "D144310000155", "P29_003": "16004", "P29_004": "府内高等学校", "P29_005": "大分県大分市金池南1-8-5", "P29_006": "4", "P29_007": "0", "P29_008": "00", "P29_009": null }, "geometry": { "type": "Point", "coordinates": [ 131.605160663581302, 33.230039007032133 ] } }
]
}
