{
"type": "FeatureCollection",
"name": "geo_44_1",
"crs": { "type": "name", "properties": { "name": "urn:ogc:def:crs:OGC:1.3:CRS84" } },
"features": [
{ "type": "Feature", "properties": { "ID": 4411000100000, "正式名称": "明野中央病院", "機関区分": 1, "都道府県コード": 44, "市区町村コード": 201, "所在地": "大分県大分市明野東２丁目７番３３号", "緯度": 33.220487, "経度": 131.656938, "url": "https://www.iryou.teikyouseido.mhlw.go.jp/znk-web/juminkanja/S2430/initialize?prefCd=44&kikanCd=1000100000&kikanKbn=1", "url2": "http://www.akenohp.jp/", "内容": "明野中央病院【1:病院】【診療科目:内科_呼吸器内科_ペインクリニック内科_整形外科_形成外科_リウマチ科_リハビリテーション科_麻酔科】【一般病床数:75療養病床数:0精神病床数:0感染症病床数:0合計病床数:75】大分県大分市明野東２丁目７番３３号" }, "geometry": { "type": "Point", "coordinates": [ 131.656938, 33.220487 ] } },
{ "type": "Feature", "properties": { "ID": 4411000200000, "正式名称": "井野辺病院", "機関区分": 1, "都道府県コード": 44, "市区町村コード": 201, "所在地": "大分県大分市大字中尾字平２５５", "緯度": 33.208388, "経度": 131.550808, "url": "https://www.iryou.teikyouseido.mhlw.go.jp/znk-web/juminkanja/S2430/initialize?prefCd=44&kikanCd=1000200000&kikanKbn=1", "url2": "https://www.inobe.or.jp", "内容": "井野辺病院【1:病院】【診療科目:内科_糖尿病・内分泌内科_脳神経内科_呼吸器内科_循環器内科_消化器内科_脳神経外科_整形外科_リハビリテーション科】【一般病床数:59療養病床数:60精神病床数:0感染症病床数:0合計病床数:119】大分県大分市大字中尾字平２５５" }, "geometry": { "type": "Point", "coordinates": [ 131.550808, 33.208388 ] } },
{ "type": "Feature", "properties": { "ID": 4411000300000, "正式名称": "今村病院", "機関区分": 1, "都道府県コード": 44, "市区町村コード": 201, "所在地": "大分県大分市大手町３－２－２９", "緯度": 33.238955, "経度": 131.613902, "url": "https://www.iryou.teikyouseido.mhlw.go.jp/znk-web/juminkanja/S2430/initialize?prefCd=44&kikanCd=1000300000&kikanKbn=1", "url2": "http://www.imamura-hospital.jp/", "内容": "今村病院【1:病院】【診療科目:内科_循環器内科_外科_整形外科_リハビリテーション科】【一般病床数:60療養病床数:0精神病床数:0感染症病床数:0合計病床数:60】大分県大分市大手町３－２－２９" }, "geometry": { "type": "Point", "coordinates": [ 131.613902, 33.238955 ] } },
{ "type": "Feature", "properties": { "ID": 4411000400000, "正式名称": "医療法人　輝心会　大分循環器病院", "機関区分": 1, "都道府県コード": 44, "市区町村コード": 201, "所在地": "大分県大分市大字三芳３２０番３", "緯度": 33.224991, "経度": 131.59721, "url": "https://www.iryou.teikyouseido.mhlw.go.jp/znk-web/juminkanja/S2430/initialize?prefCd=44&kikanCd=1000400000&kikanKbn=1", "url2": "http://www.oita-junkanki.jp/", "内容": "医療法人　輝心会　大分循環器病院【1:病院】【診療科目:内科_糖尿病内科_代謝内科_循環器内科_消化器内科_腎臓内科_人工透析内科_心臓血管外科_整形外科_リウマチ科_リハビリテーション科_麻酔科】【一般病床数:99療養病床数:0精神病床数:0感染症病床数:0合計病床数:99】大分県大分市大字三芳３２０番３" }, "geometry": { "type": "Point", "coordinates": [ 131.59721, 33.224991 ] } },
{ "type": "Feature", "properties": { "ID": 4411000500000, "正式名称": "大分岡病院", "機関区分": 1, "都道府県コード": 44, "市区町村コード": 201, "所在地": "大分県大分市西鶴崎３丁目７番１１号", "緯度": 33.240087, "経度": 131.68612, "url": "https://www.iryou.teikyouseido.mhlw.go.jp/znk-web/juminkanja/S2430/initialize?prefCd=44&kikanCd=1000500000&kikanKbn=1", "url2": "http://www.oka-hp.com/", "内容": "大分岡病院【1:病院】【診療科目:内科_血液内科_糖尿病内科_糖尿病・代謝内科_呼吸器内科_循環器内科_消化器内科_腎臓内科_神経内科_腫瘍内科_外科_脳神経外科_心臓血管外科_消化器外科_肛門外科_胸部外科_整形外科_形成外科_皮膚科_歯科_矯正歯科_歯科口腔外科_リハビリテーション科_放射線科_病理診断科_救急科_麻酔科】【一般病床数:203療養病床数:0精神病床数:0感染症病床数:0合計病床数:203】大分県大分市西鶴崎３丁目７番１１号" }, "geometry": { "type": "Point", "coordinates": [ 131.68612, 33.240087 ] } },
{ "type": "Feature", "properties": { "ID": 4411000600000, "正式名称": "大分リハビリテーション病院", "機関区分": 1, "都道府県コード": 44, "市区町村コード": 201, "所在地": "大分県大分市大字志村字谷ヶ迫７６５番地", "緯度": 33.239944, "経度": 131.705818, "url": "https://www.iryou.teikyouseido.mhlw.go.jp/znk-web/juminkanja/S2430/initialize?prefCd=44&kikanCd=1000600000&kikanKbn=1", "url2": "https://keiwakai.oita.jp/oitareha/", "内容": "大分リハビリテーション病院【1:病院】【診療科目:内科_リハビリテーション科】【一般病床数:0療養病床数:120精神病床数:0感染症病床数:0合計病床数:120】大分県大分市大字志村字谷ヶ迫７６５番地" }, "geometry": { "type": "Point", "coordinates": [ 131.705818, 33.239944 ] } },
{ "type": "Feature", "properties": { "ID": 4411000700000, "正式名称": "社会医療法人財団　天心堂　へつぎ病院", "機関区分": 1, "都道府県コード": 44, "市区町村コード": 201, "所在地": "大分県大分市大字中戸次字二本木５９５６番地", "緯度": 33.158275, "経度": 131.657013, "url": "https://www.iryou.teikyouseido.mhlw.go.jp/znk-web/juminkanja/S2430/initialize?prefCd=44&kikanCd=1000700000&kikanKbn=1", "url2": "http://www.tenshindo.org/", "内容": "社会医療法人財団　天心堂　へつぎ病院【1:病院】【診療科目:内科_血液内科_糖尿病・内分泌内科_呼吸器内科_循環器内科_消化器内科_腎臓内科_神経内科_緩和ケア内科_外科_脳神経外科_血管外科_消化器外科_大腸・肛門外科_腹部外科_整形外科_形成外科_耳鼻いんこう科_皮膚科_泌尿器科_リハビリテーション科_放射線科_麻酔科】【一般病床数:188療養病床数:0精神病床数:0感染症病床数:0合計病床数:188】大分県大分市大字中戸次字二本木５９５６番地" }, "geometry": { "type": "Point", "coordinates": [ 131.657013, 33.158275 ] } },
{ "type": "Feature", "properties": { "ID": 4411000800000, "正式名称": "医療法人　慈善会　膳所病院", "機関区分": 1, "都道府県コード": 44, "市区町村コード": 201, "所在地": "大分県大分市金池町１丁目９番３８号", "緯度": 33.231975, "経度": 131.611276, "url": "https://www.iryou.teikyouseido.mhlw.go.jp/znk-web/juminkanja/S2430/initialize?prefCd=44&kikanCd=1000800000&kikanKbn=1", "url2": "http://www.zeze-hospi.org/", "内容": "医療法人　慈善会　膳所病院【1:病院】【診療科目:内科_糖尿病内科_糖尿病・内分泌内科_胃腸内科_外科_消化器外科_肛門外科_内視鏡外科_整形外科_泌尿器科_リハビリテーション科】【一般病床数:48療養病床数:0精神病床数:0感染症病床数:0合計病床数:48】大分県大分市金池町１丁目９番３８号" }, "geometry": { "type": "Point", "coordinates": [ 131.611276, 33.231975 ] } },
{ "type": "Feature", "properties": { "ID": 4411000900000, "正式名称": "社会医療法人　恵愛会　大分中村病院", "機関区分": 1, "都道府県コード": 44, "市区町村コード": 201, "所在地": "大分県大分市舞鶴町一丁目４番１号", "緯度": 33.239448, "経度": 131.619938, "url": "https://www.iryou.teikyouseido.mhlw.go.jp/znk-web/juminkanja/S2430/initialize?prefCd=44&kikanCd=1000900000&kikanKbn=1", "url2": "http://www.nakamura-hosp.or.jp", "内容": "社会医療法人　恵愛会　大分中村病院【1:病院】【診療科目:内科_糖尿病内科_呼吸器内科_循環器内科_消化器内科_腎臓内科_緩和ケア内科_外科_脳神経外科_心臓血管外科_肛門外科_腫瘍外科_整形外科_形成外科_脊椎外科，手外科_婦人科_皮膚科_泌尿器科_リウマチ科_リハビリテーション科_放射線科_麻酔科_骨盤底リハビリテーション科】【一般病床数:260療養病床数:0精神病床数:0感染症病床数:0合計病床数:260】大分県大分市舞鶴町一丁目４番１号" }, "geometry": { "type": "Point", "coordinates": [ 131.619938, 33.239448 ] } },
{ "type": "Feature", "properties": { "ID": 4411001000000, "正式名称": "医療法人社団　三杏会　仁医会病院", "機関区分": 1, "都道府県コード": 44, "市区町村コード": 201, "所在地": "大分県大分市古国府６丁目２番４７号", "緯度": 33.216359, "経度": 131.611061, "url": "https://www.iryou.teikyouseido.mhlw.go.jp/znk-web/juminkanja/S2430/initialize?prefCd=44&kikanCd=1001000000&kikanKbn=1", "url2": "https://www.jinikai.com", "内容": "医療法人社団　三杏会　仁医会病院【1:病院】【診療科目:内科_糖尿病内科_呼吸器内科_循環器内科_消化器内科_腎臓内科_人工透析内科_リハビリテーション科_放射線科】【一般病床数:60療養病床数:0精神病床数:0感染症病床数:0合計病床数:60】大分県大分市古国府６丁目２番４７号" }, "geometry": { "type": "Point", "coordinates": [ 131.611061, 33.216359 ] } },
{ "type": "Feature", "properties": { "ID": 4411001100000, "正式名称": "医療法人社団　親和会　えとう内科病院", "機関区分": 1, "都道府県コード": 44, "市区町村コード": 201, "所在地": "大分県大分市中判田", "緯度": 33.183537, "経度": 131.613464, "url": "https://www.iryou.teikyouseido.mhlw.go.jp/znk-web/juminkanja/S2430/initialize?prefCd=44&kikanCd=1001100000&kikanKbn=1", "url2": "https://shinwakai-hosp.com", "内容": "医療法人社団　親和会　えとう内科病院【1:病院】【診療科目:内科_呼吸器内科_循環器内科_消化器内科_精神科_心療内科_リウマチ科_リハビリテーション科】【一般病床数:58療養病床数:0精神病床数:0感染症病床数:0合計病床数:58】大分県大分市中判田" }, "geometry": { "type": "Point", "coordinates": [ 131.613464, 33.183537 ] } },
{ "type": "Feature", "properties": { "ID": 4411001200000, "正式名称": "医療法人社団　親和会　衛藤病院", "機関区分": 1, "都道府県コード": 44, "市区町村コード": 201, "所在地": "大分県大分市上判田", "緯度": 33.167193, "経度": 131.630459, "url": "https://www.iryou.teikyouseido.mhlw.go.jp/znk-web/juminkanja/S2430/initialize?prefCd=44&kikanCd=1001200000&kikanKbn=1", "url2": "http://shinwakai-hosp.com", "内容": "医療法人社団　親和会　衛藤病院【1:病院】【診療科目:内科_精神科_老年精神科】【一般病床数:0療養病床数:0精神病床数:232感染症病床数:0合計病床数:232】大分県大分市上判田" }, "geometry": { "type": "Point", "coordinates": [ 131.630459, 33.167193 ] } },
{ "type": "Feature", "properties": { "ID": 4411001300000, "正式名称": "医療法人社団　淵野会　渕野病院", "機関区分": 1, "都道府県コード": 44, "市区町村コード": 201, "所在地": "大分県大分市坂ノ市中央５丁目１番２１号", "緯度": 33.234818, "経度": 131.754954, "url": "https://www.iryou.teikyouseido.mhlw.go.jp/znk-web/juminkanja/S2430/initialize?prefCd=44&kikanCd=1001300000&kikanKbn=1", "url2": "http://www.fuchinokai.or.jp", "内容": "医療法人社団　淵野会　渕野病院【1:病院】【診療科目:精神科_心療内科】【一般病床数:0療養病床数:0精神病床数:187感染症病床数:0合計病床数:187】大分県大分市坂ノ市中央５丁目１番２１号" }, "geometry": { "type": "Point", "coordinates": [ 131.754954, 33.234818 ] } },
{ "type": "Feature", "properties": { "ID": 4411001500000, "正式名称": "医療法人　善慈会　大分丘の上病院", "機関区分": 1, "都道府県コード": 44, "市区町村コード": 201, "所在地": "大分県大分市大字竹中１４０３番地", "緯度": 33.147846, "経度": 131.647226, "url": "https://www.iryou.teikyouseido.mhlw.go.jp/znk-web/juminkanja/S2430/initialize?prefCd=44&kikanCd=1001500000&kikanKbn=1", "url2": "http://www.h4.dion.ne.jp/~okanoue1", "内容": "医療法人　善慈会　大分丘の上病院【1:病院】【診療科目:神経内科_児童精神科_精神科_心療内科】【一般病床数:0療養病床数:0精神病床数:140感染症病床数:0合計病床数:140】大分県大分市大字竹中１４０３番地" }, "geometry": { "type": "Point", "coordinates": [ 131.647226, 33.147846 ] } },
{ "type": "Feature", "properties": { "ID": 4411001600000, "正式名称": "有田胃腸病院", "機関区分": 1, "都道府県コード": 44, "市区町村コード": 201, "所在地": "大分県大分市牧１丁目２番６号", "緯度": 33.240644, "経度": 131.636424, "url": "https://www.iryou.teikyouseido.mhlw.go.jp/znk-web/juminkanja/S2430/initialize?prefCd=44&kikanCd=1001600000&kikanKbn=1", "url2": "http://arita-hp.or.jp/", "内容": "有田胃腸病院【1:病院】【診療科目:内科_消化器内科_外科_消化器外科_肛門外科_皮膚科_リハビリテーション科_放射線科】【一般病床数:94療養病床数:0精神病床数:0感染症病床数:0合計病床数:94】大分県大分市牧１丁目２番６号" }, "geometry": { "type": "Point", "coordinates": [ 131.636424, 33.240644 ] } },
{ "type": "Feature", "properties": { "ID": 4411001700000, "正式名称": "医療法人　ライフサポート　明和記念病院", "機関区分": 1, "都道府県コード": 44, "市区町村コード": 201, "所在地": "大分県大分市明野北", "緯度": 33.226088, "経度": 131.655586, "url": "https://www.iryou.teikyouseido.mhlw.go.jp/znk-web/juminkanja/S2430/initialize?prefCd=44&kikanCd=1001700000&kikanKbn=1", "url2": "http://www.meiwa-hp.jp/", "内容": "医療法人　ライフサポート　明和記念病院【1:病院】【診療科目:内科_リハビリテーション科】【一般病床数:0療養病床数:120精神病床数:0感染症病床数:0合計病床数:120】大分県大分市明野北" }, "geometry": { "type": "Point", "coordinates": [ 131.655586, 33.226088 ] } },
{ "type": "Feature", "properties": { "ID": 4411001800000, "正式名称": "医療法人　善昭会　オアシス第一病院", "機関区分": 1, "都道府県コード": 44, "市区町村コード": 201, "所在地": "大分県大分市東鶴崎３丁目３番１９号", "緯度": 33.237914, "経度": 131.695851, "url": "https://www.iryou.teikyouseido.mhlw.go.jp/znk-web/juminkanja/S2430/initialize?prefCd=44&kikanCd=1001800000&kikanKbn=1", "url2": "http://www.oasis-hp.jp", "内容": "医療法人　善昭会　オアシス第一病院【1:病院】【診療科目:内科_脳神経内科_呼吸器内科_循環器内科_消化器内科_脳神経外科_リハビリテーション科】【一般病床数:95療養病床数:0精神病床数:0感染症病床数:0合計病床数:95】大分県大分市東鶴崎３丁目３番１９号" }, "geometry": { "type": "Point", "coordinates": [ 131.695851, 33.237914 ] } },
{ "type": "Feature", "properties": { "ID": 4411001900000, "正式名称": "医療法人　善昭会　オアシス第二病院", "機関区分": 1, "都道府県コード": 44, "市区町村コード": 201, "所在地": "大分県大分市東鶴崎２丁目３番３０号", "緯度": 33.238567, "経度": 131.695979, "url": "https://www.iryou.teikyouseido.mhlw.go.jp/znk-web/juminkanja/S2430/initialize?prefCd=44&kikanCd=1001900000&kikanKbn=1", "url2": "http://www.oasis-hp.jp", "内容": "医療法人　善昭会　オアシス第二病院【1:病院】【診療科目:内科_脳神経内科_精神科_リハビリテーション科】【一般病床数:108療養病床数:0精神病床数:0感染症病床数:0合計病床数:108】大分県大分市東鶴崎２丁目３番３０号" }, "geometry": { "type": "Point", "coordinates": [ 131.695979, 33.238567 ] } },
{ "type": "Feature", "properties": { "ID": 4411002000000, "正式名称": "独立行政法人国立病院機構　大分医療センター", "機関区分": 1, "都道府県コード": 44, "市区町村コード": 201, "所在地": "大分県大分市横田２丁目１１番４５号", "緯度": 33.252632, "経度": 131.721012, "url": "https://www.iryou.teikyouseido.mhlw.go.jp/znk-web/juminkanja/S2430/initialize?prefCd=44&kikanCd=1002000000&kikanKbn=1", "url2": "https://oita.hosp.go.jp/", "内容": "独立行政法人国立病院機構　大分医療センター【1:病院】【診療科目:血液内科_糖尿病内科_代謝・内分泌内科_呼吸器内科_循環器内科_消化器内科_腎臓内科_神経内科_膠原病内科_外科_呼吸器外科_心臓血管外科_消化器外科_乳腺外科_整形外科_婦人科_皮膚科_泌尿器科_精神科_リハビリテーション科_放射線科_病理診断科_麻酔科】【一般病床数:273療養病床数:0精神病床数:0感染症病床数:0合計病床数:273】大分県大分市横田２丁目１１番４５号" }, "geometry": { "type": "Point", "coordinates": [ 131.721012, 33.252632 ] } },
{ "type": "Feature", "properties": { "ID": 4411002100000, "正式名称": "大分記念病院", "機関区分": 1, "都道府県コード": 44, "市区町村コード": 201, "所在地": "大分県大分市羽屋二丁目５番１０号", "緯度": 33.214569, "経度": 131.600933, "url": "https://www.iryou.teikyouseido.mhlw.go.jp/znk-web/juminkanja/S2430/initialize?prefCd=44&kikanCd=1002100000&kikanKbn=1", "url2": "https://oitamh.jp/", "内容": "大分記念病院【1:病院】【診療科目:内科_血液内科_糖尿病内科_代謝内科_呼吸器内科_循環器内科_消化器内科_人工透析内科_血管外科_整形外科_リウマチ科_リハビリテーション科】【一般病床数:84療養病床数:34精神病床数:0感染症病床数:0合計病床数:118】大分県大分市羽屋二丁目５番１０号" }, "geometry": { "type": "Point", "coordinates": [ 131.600933, 33.214569 ] } },
{ "type": "Feature", "properties": { "ID": 4411002200000, "正式名称": "大分共立病院", "機関区分": 1, "都道府県コード": 44, "市区町村コード": 201, "所在地": "大分県大分市明磧町１丁目２番９号", "緯度": 33.207472, "経度": 131.587973, "url": "https://www.iryou.teikyouseido.mhlw.go.jp/znk-web/juminkanja/S2430/initialize?prefCd=44&kikanCd=1002200000&kikanKbn=1", "url2": "http://www.kyoritsu-hospital.com/hos-index", "内容": "大分共立病院【1:病院】【診療科目:内科_循環器内科_消化器内科_外科_泌尿器科】【一般病床数:73療養病床数:0精神病床数:0感染症病床数:0合計病床数:73】大分県大分市明磧町１丁目２番９号" }, "geometry": { "type": "Point", "coordinates": [ 131.587973, 33.207472 ] } },
{ "type": "Feature", "properties": { "ID": 4411002300000, "正式名称": "大分県勤労者医療生活協同組合　大分協和病院", "機関区分": 1, "都道府県コード": 44, "市区町村コード": 201, "所在地": "大分県大分市宮崎９５３番地の１", "緯度": 33.197456, "経度": 131.604679, "url": "https://www.iryou.teikyouseido.mhlw.go.jp/znk-web/juminkanja/S2430/initialize?prefCd=44&kikanCd=1002300000&kikanKbn=1", "url2": "http://www.oitakyowa-hp.org/", "内容": "大分県勤労者医療生活協同組合　大分協和病院【1:病院】【診療科目:内科_脳神経内科_呼吸器内科_循環器内科_腎臓内科_心療内科_リハビリテーション科_放射線科】【一般病床数:40療養病床数:0精神病床数:0感染症病床数:0合計病床数:40】大分県大分市宮崎９５３番地の１" }, "geometry": { "type": "Point", "coordinates": [ 131.604679, 33.197456 ] } },
{ "type": "Feature", "properties": { "ID": 4411002400000, "正式名称": "大分健生病院", "機関区分": 1, "都道府県コード": 44, "市区町村コード": 201, "所在地": "大分県大分市古ケ鶴１丁目１番１５号", "緯度": 33.238688, "経度": 131.630416, "url": "https://www.iryou.teikyouseido.mhlw.go.jp/znk-web/juminkanja/S2430/initialize?prefCd=44&kikanCd=1002400000&kikanKbn=1", "url2": "http://www.oita-min.or.jp/", "内容": "大分健生病院【1:病院】【診療科目:内科_糖尿病内科_呼吸器内科_循環器内科_消化器内科_内視鏡内科_外科_整形外科_小児科_皮膚科_リハビリテーション科_放射線科】【一般病床数:130療養病床数:0精神病床数:0感染症病床数:0合計病床数:130】大分県大分市古ケ鶴１丁目１番１５号" }, "geometry": { "type": "Point", "coordinates": [ 131.630416, 33.238688 ] } },
{ "type": "Feature", "properties": { "ID": 4411002500000, "正式名称": "大分県立病院", "機関区分": 1, "都道府県コード": 44, "市区町村コード": 201, "所在地": "大分県大分市豊饒二丁目８番１号", "緯度": 33.206516, "経度": 131.599079, "url": "https://www.iryou.teikyouseido.mhlw.go.jp/znk-web/juminkanja/S2430/initialize?prefCd=44&kikanCd=1002500000&kikanKbn=1", "url2": "http://hospital.pref.oita.jp/index.html", "内容": "大分県立病院【1:病院】【診療科目:血液内科_代謝内科_内分泌内科_脳神経内科_呼吸器内科_循環器内科_消化器内科_腎臓内科_腫瘍内科_脳神経外科_呼吸器外科_心臓血管外科_消化器外科_乳腺外科_整形外科_形成外科_小児科_小児外科_新生児内科_産科_婦人科_眼科_耳鼻いんこう科_皮膚科_泌尿器科_精神科_歯科口腔外科_リウマチ科_リハビリテーション科_放射線科_病理診断科_臨床検査科_救急科_麻酔科】【一般病床数:509療養病床数:0精神病床数:36感染症病床数:12合計病床数:557】大分県大分市豊饒二丁目８番１号" }, "geometry": { "type": "Point", "coordinates": [ 131.599079, 33.206516 ] } },
{ "type": "Feature", "properties": { "ID": 4411002600000, "正式名称": "大分こども病院", "機関区分": 1, "都道府県コード": 44, "市区町村コード": 201, "所在地": "大分県大分市片島８３番地の７", "緯度": 33.216233, "経度": 131.620166, "url": "https://www.iryou.teikyouseido.mhlw.go.jp/znk-web/juminkanja/S2430/initialize?prefCd=44&kikanCd=1002600000&kikanKbn=1", "url2": "https://www.oita-kodomo.jp/", "内容": "大分こども病院【1:病院】【診療科目:小児科_小児外科_皮膚科_アレルギー科】【一般病床数:35療養病床数:0精神病床数:0感染症病床数:0合計病床数:35】大分県大分市片島８３番地の７" }, "geometry": { "type": "Point", "coordinates": [ 131.620166, 33.216233 ] } },
{ "type": "Feature", "properties": { "ID": 4411002700000, "正式名称": "社会医療法人三愛会　大分三愛メディカルセンター", "機関区分": 1, "都道府県コード": 44, "市区町村コード": 201, "所在地": "大分県大分市市１２１３番地", "緯度": 33.186319, "経度": 131.575576, "url": "https://www.iryou.teikyouseido.mhlw.go.jp/znk-web/juminkanja/S2430/initialize?prefCd=44&kikanCd=1002700000&kikanKbn=1", "url2": "http://san-ai-group.org/", "内容": "社会医療法人三愛会　大分三愛メディカルセンター【1:病院】【診療科目:内科_糖尿病内科_糖尿病・内分泌内科_呼吸器内科_循環器内科_消化器内科_神経内科_外科_脳神経外科_呼吸器外科_心臓血管外科_消化器外科_大腸外科_大腸・肛門外科_整形外科_形成外科_泌尿器科_腎臓・泌尿器科_神経科_リウマチ科_リハビリテーション科_放射線科_病理診断科_救急科_麻酔科】【一般病床数:190療養病床数:0精神病床数:0感染症病床数:0合計病床数:190】大分県大分市市１２１３番地" }, "geometry": { "type": "Point", "coordinates": [ 131.575576, 33.186319 ] } },
{ "type": "Feature", "properties": { "ID": 4411002800000, "正式名称": "大分市医師会立アルメイダ病院", "機関区分": 1, "都道府県コード": 44, "市区町村コード": 201, "所在地": "大分県大分市大字宮崎１５０９－２", "緯度": 33.192671, "経度": 131.609487, "url": "https://www.iryou.teikyouseido.mhlw.go.jp/znk-web/juminkanja/S2430/initialize?prefCd=44&kikanCd=1002800000&kikanKbn=1", "url2": "https://www.almeida-hospital.com/", "内容": "大分市医師会立アルメイダ病院【1:病院】【診療科目:内科_血液内科_内分泌内科_呼吸器内科_循環器内科_消化器内科_腎臓内科_腫瘍内科_緩和ケア内科_外科_脳神経外科_呼吸器外科_血管外科_心臓血管外科_消化器外科_腹部外科_整形外科_形成外科_小児科_新生児内科_産科_婦人科_皮膚科_泌尿器科_リハビリテーション科_放射線科_放射線治療科_病理診断科_臨床検査科_救急科_麻酔科】【一般病床数:406療養病床数:0精神病床数:0感染症病床数:0合計病床数:406】大分県大分市大字宮崎１５０９－２" }, "geometry": { "type": "Point", "coordinates": [ 131.609487, 33.192671 ] } },
{ "type": "Feature", "properties": { "ID": 4411002900000, "正式名称": "医療法人同仁会　大分下郡病院", "機関区分": 1, "都道府県コード": 44, "市区町村コード": 201, "所在地": "大分県大分市加納下郡１４１０番地", "緯度": 33.231221, "経度": 131.640072, "url": "https://www.iryou.teikyouseido.mhlw.go.jp/znk-web/juminkanja/S2430/initialize?prefCd=44&kikanCd=1002900000&kikanKbn=1", "url2": "http://www.oita-shimogori.or.jp", "内容": "医療法人同仁会　大分下郡病院【1:病院】【診療科目:内科_精神科_神経科_心療内科】【一般病床数:0療養病床数:0精神病床数:384感染症病床数:0合計病床数:384】大分県大分市加納下郡１４１０番地" }, "geometry": { "type": "Point", "coordinates": [ 131.640072, 33.231221 ] } },
{ "type": "Feature", "properties": { "ID": 4411003000000, "正式名称": "大分整形外科病院", "機関区分": 1, "都道府県コード": 44, "市区町村コード": 201, "所在地": "大分県大分市岩田町１丁目１番４１号", "緯度": 33.236175, "経度": 131.625974, "url": "https://www.iryou.teikyouseido.mhlw.go.jp/znk-web/juminkanja/S2430/initialize?prefCd=44&kikanCd=1003000000&kikanKbn=1", "url2": "https://oitaseikei.jp/", "内容": "大分整形外科病院【1:病院】【診療科目:整形外科_形成外科_リウマチ科_リハビリテーション科_麻酔科】【一般病床数:76療養病床数:0精神病床数:0感染症病床数:0合計病床数:76】大分県大分市岩田町１丁目１番４１号" }, "geometry": { "type": "Point", "coordinates": [ 131.625974, 33.236175 ] } },
{ "type": "Feature", "properties": { "ID": 4411003100000, "正式名称": "大分赤十字病院", "機関区分": 1, "都道府県コード": 44, "市区町村コード": 201, "所在地": "大分県大分市千代町３丁目２番３７号", "緯度": 33.243856, "経度": 131.604345, "url": "https://www.iryou.teikyouseido.mhlw.go.jp/znk-web/juminkanja/S2430/initialize?prefCd=44&kikanCd=1003100000&kikanKbn=1", "url2": "https://www.oitasekijyuji.jp/access/", "内容": "大分赤十字病院【1:病院】【診療科目:糖尿病・内分泌内科_脳神経内科_呼吸器内科_循環器内科_消化器内科_腎臓内科_肝胆膵内科_外科_脳神経外科_呼吸器外科_心臓血管外科_乳腺外科_整形外科_形成外科_産婦人科_眼科_耳鼻いんこう科_皮膚科_腎臓・泌尿器科_歯科_歯科口腔外科_口腔腫瘍外科_リウマチ科_リハビリテーション科_放射線科_病理診断科_救急科_麻酔科】【一般病床数:340療養病床数:0精神病床数:0感染症病床数:0合計病床数:340】大分県大分市千代町３丁目２番３７号" }, "geometry": { "type": "Point", "coordinates": [ 131.604345, 33.243856 ] } },
{ "type": "Feature", "properties": { "ID": 4411003200000, "正式名称": "大分泌尿器科病院", "機関区分": 1, "都道府県コード": 44, "市区町村コード": 201, "所在地": "大分県大分市長浜町２の１の３２", "緯度": 33.235333, "経度": 131.617038, "url": "https://www.iryou.teikyouseido.mhlw.go.jp/znk-web/juminkanja/S2430/initialize?prefCd=44&kikanCd=1003200000&kikanKbn=1", "url2": "http://www.oita-hinyoukika.com", "内容": "大分泌尿器科病院【1:病院】【診療科目:消化器内科_消化器外科_肛門外科_泌尿器科_麻酔科】【一般病床数:60療養病床数:0精神病床数:0感染症病床数:0合計病床数:60】大分県大分市長浜町２の１の３２" }, "geometry": { "type": "Point", "coordinates": [ 131.617038, 33.235333 ] } },
{ "type": "Feature", "properties": { "ID": 4411003300000, "正式名称": "大分ゆふみ病院", "機関区分": 1, "都道府県コード": 44, "市区町村コード": 201, "所在地": "大分県大分市金谷迫３１３番地の１", "緯度": 33.227379, "経度": 131.555789, "url": "https://www.iryou.teikyouseido.mhlw.go.jp/znk-web/juminkanja/S2430/initialize?prefCd=44&kikanCd=1003300000&kikanKbn=1", "url2": "http://oitayufumi.com/", "内容": "大分ゆふみ病院【1:病院】【診療科目:内科_疼痛緩和内科_緩和ケア内科】【一般病床数:24療養病床数:0精神病床数:0感染症病床数:0合計病床数:24】大分県大分市金谷迫３１３番地の１" }, "geometry": { "type": "Point", "coordinates": [ 131.555789, 33.227379 ] } },
{ "type": "Feature", "properties": { "ID": 4411003400000, "正式名称": "大川産婦人科病院", "機関区分": 1, "都道府県コード": 44, "市区町村コード": 201, "所在地": "大分県大分市末広町２丁目４番１６号", "緯度": 33.235605, "経度": 131.603245, "url": "https://www.iryou.teikyouseido.mhlw.go.jp/znk-web/juminkanja/S2430/initialize?prefCd=44&kikanCd=1003400000&kikanKbn=1", "url2": "https://okawa-obgyn.com", "内容": "大川産婦人科病院【1:病院】【診療科目:小児科_産婦人科_麻酔科】【一般病床数:40療養病床数:0精神病床数:0感染症病床数:0合計病床数:40】大分県大分市末広町２丁目４番１６号" }, "geometry": { "type": "Point", "coordinates": [ 131.603245, 33.235605 ] } },
{ "type": "Feature", "properties": { "ID": 4411003500000, "正式名称": "織部病院", "機関区分": 1, "都道府県コード": 44, "市区町村コード": 201, "所在地": "大分県大分市田中町一丁目８番６２号", "緯度": 33.213543, "経度": 131.591727, "url": "https://www.iryou.teikyouseido.mhlw.go.jp/znk-web/juminkanja/S2430/initialize?prefCd=44&kikanCd=1003500000&kikanKbn=1", "url2": "http://www18.ocn.ne.jp/~gaifuu", "内容": "織部病院【1:病院】【診療科目:内科_循環器内科_消化器内科_放射線科】【一般病床数:36療養病床数:0精神病床数:0感染症病床数:0合計病床数:36】大分県大分市田中町一丁目８番６２号" }, "geometry": { "type": "Point", "coordinates": [ 131.591727, 33.213543 ] } },
{ "type": "Feature", "properties": { "ID": 4411003600000, "正式名称": "河野脳神経外科病院", "機関区分": 1, "都道府県コード": 44, "市区町村コード": 201, "所在地": "大分県大分市森町字花ノ木通５１１－１", "緯度": 33.22797, "経度": 131.679783, "url": "https://www.iryou.teikyouseido.mhlw.go.jp/znk-web/juminkanja/S2430/initialize?prefCd=44&kikanCd=1003600000&kikanKbn=1", "url2": "http://www.kawano-nshp.or.jp", "内容": "河野脳神経外科病院【1:病院】【診療科目:脳神経外科_リハビリテーション科】【一般病床数:40療養病床数:0精神病床数:0感染症病床数:0合計病床数:40】大分県大分市森町字花ノ木通５１１－１" }, "geometry": { "type": "Point", "coordinates": [ 131.679783, 33.22797 ] } },
{ "type": "Feature", "properties": { "ID": 4411003700000, "正式名称": "小深田消化器病院", "機関区分": 1, "都道府県コード": 44, "市区町村コード": 201, "所在地": "大分県大分市賀来南１－１５－３１", "緯度": 33.211799, "経度": 131.565528, "url": "https://www.iryou.teikyouseido.mhlw.go.jp/znk-web/juminkanja/S2430/initialize?prefCd=44&kikanCd=1003700000&kikanKbn=1", "url2": "http://www.kobukata.com/", "内容": "小深田消化器病院【1:病院】【診療科目:内科_循環器内科_胃腸内科_外科_消化器外科_胃腸外科_大腸・肛門外科_リハビリテーション科】【一般病床数:40療養病床数:0精神病床数:0感染症病床数:0合計病床数:40】大分県大分市賀来南１－１５－３１" }, "geometry": { "type": "Point", "coordinates": [ 131.565528, 33.211799 ] } },
{ "type": "Feature", "properties": { "ID": 4411003800000, "正式名称": "社会医療法人関愛会　佐賀関病院", "機関区分": 1, "都道府県コード": 44, "市区町村コード": 201, "所在地": "大分県大分市佐賀関７５０－８８", "緯度": 33.249595, "経度": 131.867614, "url": "https://www.iryou.teikyouseido.mhlw.go.jp/znk-web/juminkanja/S2430/initialize?prefCd=44&kikanCd=1003800000&kikanKbn=1", "url2": "http://sekiaikai.jp/", "内容": "社会医療法人関愛会　佐賀関病院【1:病院】【診療科目:内科_循環器内科_外科_肛門外科_整形外科_小児科_眼科_耳鼻いんこう科_歯科_リハビリテーション科】【一般病床数:66療養病床数:0精神病床数:0感染症病床数:0合計病床数:66】大分県大分市佐賀関７５０－８８" }, "geometry": { "type": "Point", "coordinates": [ 131.867614, 33.249595 ] } },
{ "type": "Feature", "properties": { "ID": 4411003900000, "正式名称": "佐藤病院", "機関区分": 1, "都道府県コード": 44, "市区町村コード": 201, "所在地": "大分県大分市桜ケ丘", "緯度": 33.22651, "経度": 131.604753, "url": "https://www.iryou.teikyouseido.mhlw.go.jp/znk-web/juminkanja/S2430/initialize?prefCd=44&kikanCd=1003900000&kikanKbn=1", "url2": "http://www.sato-hsp.com", "内容": "佐藤病院【1:病院】【診療科目:精神科_心療内科】【一般病床数:0療養病床数:0精神病床数:366感染症病床数:0合計病床数:366】大分県大分市桜ケ丘" }, "geometry": { "type": "Point", "coordinates": [ 131.604753, 33.22651 ] } },
{ "type": "Feature", "properties": { "ID": 4411004000000, "正式名称": "城東病院", "機関区分": 1, "都道府県コード": 44, "市区町村コード": 201, "所在地": "大分県大分市牧２丁目１６番１６号", "緯度": 33.240688, "経度": 131.641523, "url": "https://www.iryou.teikyouseido.mhlw.go.jp/znk-web/juminkanja/S2430/initialize?prefCd=44&kikanCd=1004000000&kikanKbn=1", "url2": "http://www.joto-hp.jp/", "内容": "城東病院【1:病院】【診療科目:精神科】【一般病床数:0療養病床数:0精神病床数:104感染症病床数:0合計病床数:104】大分県大分市牧２丁目１６番１６号" }, "geometry": { "type": "Point", "coordinates": [ 131.641523, 33.240688 ] } },
{ "type": "Feature", "properties": { "ID": 4411004100000, "正式名称": "諏訪の杜病院", "機関区分": 1, "都道府県コード": 44, "市区町村コード": 201, "所在地": "大分県大分市鴛野１１８番地の１", "緯度": 33.18429, "経度": 131.617398, "url": "https://www.iryou.teikyouseido.mhlw.go.jp/znk-web/juminkanja/S2430/initialize?prefCd=44&kikanCd=1004100000&kikanKbn=1", "url2": "http://www.k-suwanomori.com", "内容": "諏訪の杜病院【1:病院】【診療科目:内科_血液内科_脳神経内科_呼吸器内科_循環器内科_消化器内科_胃腸内科_腎臓内科_人工透析内科_肝臓内科_神経内科_外科_脳神経外科_心臓血管外科_整形外科_形成外科_皮膚科_精神科_心療内科_アレルギー科_リハビリテーション科_放射線科】【一般病床数:100療養病床数:0精神病床数:0感染症病床数:0合計病床数:100】大分県大分市鴛野１１８番地の１" }, "geometry": { "type": "Point", "coordinates": [ 131.617398, 33.18429 ] } },
{ "type": "Feature", "properties": { "ID": 4411004300000, "正式名称": "医療法人愛恵会タキオ保養院", "機関区分": 1, "都道府県コード": 44, "市区町村コード": 201, "所在地": "大分県大分市片島１３５５", "緯度": 33.208747, "経度": 131.636939, "url": "https://www.iryou.teikyouseido.mhlw.go.jp/znk-web/juminkanja/S2430/initialize?prefCd=44&kikanCd=1004300000&kikanKbn=1", "url2": "http://takio.jp/", "内容": "医療法人愛恵会タキオ保養院【1:病院】【診療科目:精神科_心療内科】【一般病床数:0療養病床数:0精神病床数:170感染症病床数:0合計病床数:170】大分県大分市片島１３５５" }, "geometry": { "type": "Point", "coordinates": [ 131.636939, 33.208747 ] } },
{ "type": "Feature", "properties": { "ID": 4411004400000, "正式名称": "医療法人秀明会　だいかく病院", "機関区分": 1, "都道府県コード": 44, "市区町村コード": 201, "所在地": "大分県大分市下郡山の手２番１８号", "緯度": 33.22099, "経度": 131.639214, "url": "https://www.iryou.teikyouseido.mhlw.go.jp/znk-web/juminkanja/S2430/initialize?prefCd=44&kikanCd=1004400000&kikanKbn=1", "url2": "http://www.daikaku-hp.jp/", "内容": "医療法人秀明会　だいかく病院【1:病院】【診療科目:内科_呼吸器内科_循環器内科_消化器内科_外科_脳神経外科_整形外科_皮膚科_泌尿器科_精神科_リハビリテーション科_麻酔科】【一般病床数:45療養病床数:0精神病床数:0感染症病床数:0合計病床数:45】大分県大分市下郡山の手２番１８号" }, "geometry": { "type": "Point", "coordinates": [ 131.639214, 33.22099 ] } },
{ "type": "Feature", "properties": { "ID": 4411004600000, "正式名称": "塚川第一病院", "機関区分": 1, "都道府県コード": 44, "市区町村コード": 201, "所在地": "大分県大分市東春日町５番２５号", "緯度": 33.240363, "経度": 131.599595, "url": "https://www.iryou.teikyouseido.mhlw.go.jp/znk-web/juminkanja/S2430/initialize?prefCd=44&kikanCd=1004600000&kikanKbn=1", "url2": "http://www.hakkokai.com/", "内容": "塚川第一病院【1:病院】【診療科目:内科_糖尿病内科_呼吸器内科_循環器内科_消化器内科_腎臓内科_人工透析内科_整形外科_精神科_心療内科_リハビリテーション科】【一般病床数:25療養病床数:35精神病床数:0感染症病床数:0合計病床数:60】大分県大分市東春日町５番２５号" }, "geometry": { "type": "Point", "coordinates": [ 131.599595, 33.240363 ] } },
{ "type": "Feature", "properties": { "ID": 4411004700000, "正式名称": "仲宗根病院", "機関区分": 1, "都道府県コード": 44, "市区町村コード": 201, "所在地": "大分県大分市小野鶴１３５３", "緯度": 33.192974, "経度": 131.567193, "url": "https://www.iryou.teikyouseido.mhlw.go.jp/znk-web/juminkanja/S2430/initialize?prefCd=44&kikanCd=1004700000&kikanKbn=1", "url2": null, "内容": "仲宗根病院【1:病院】【診療科目:精神科_心療内科_老年精神科】【一般病床数:0療養病床数:0精神病床数:142感染症病床数:0合計病床数:142】大分県大分市小野鶴１３５３" }, "geometry": { "type": "Point", "coordinates": [ 131.567193, 33.192974 ] } },
{ "type": "Feature", "properties": { "ID": 4411004800000, "正式名称": "永冨記念病院", "機関区分": 1, "都道府県コード": 44, "市区町村コード": 201, "所在地": "大分県大分市玉沢", "緯度": 33.189134, "経度": 131.586594, "url": "https://www.iryou.teikyouseido.mhlw.go.jp/znk-web/juminkanja/S2430/initialize?prefCd=44&kikanCd=1004800000&kikanKbn=1", "url2": null, "内容": "永冨記念病院【1:病院】【診療科目:整形外科_リハビリテーション科】【一般病床数:48療養病床数:0精神病床数:0感染症病床数:0合計病床数:48】大分県大分市玉沢" }, "geometry": { "type": "Point", "coordinates": [ 131.586594, 33.189134 ] } },
{ "type": "Feature", "properties": { "ID": 4411004900000, "正式名称": "永冨脳神経外科病院", "機関区分": 1, "都道府県コード": 44, "市区町村コード": 201, "所在地": "大分県大分市西大道２－１－２０", "緯度": 33.230602, "経度": 131.596604, "url": "https://www.iryou.teikyouseido.mhlw.go.jp/znk-web/juminkanja/S2430/initialize?prefCd=44&kikanCd=1004900000&kikanKbn=1", "url2": "http://www.nagatomi-hp.com/access.html", "内容": "永冨脳神経外科病院【1:病院】【診療科目:脳神経内科_呼吸器内科_消化器内科_脳血管内科_脳神経外科_眼科_リハビリテーション科_放射線科】【一般病床数:122療養病床数:31精神病床数:0感染症病床数:0合計病床数:153】大分県大分市西大道２－１－２０" }, "geometry": { "type": "Point", "coordinates": [ 131.596604, 33.230602 ] } },
{ "type": "Feature", "properties": { "ID": 4411005000000, "正式名称": "博愛病院", "機関区分": 1, "都道府県コード": 44, "市区町村コード": 201, "所在地": "大分県大分市野田１１１１番地", "緯度": 33.197653, "経度": 131.538748, "url": "https://www.iryou.teikyouseido.mhlw.go.jp/znk-web/juminkanja/S2430/initialize?prefCd=44&kikanCd=1005000000&kikanKbn=1", "url2": "http://www.hakuai.org/", "内容": "博愛病院【1:病院】【診療科目:神経内科_児童精神科_精神科_老年精神科】【一般病床数:0療養病床数:0精神病床数:20感染症病床数:0合計病床数:20】大分県大分市野田１１１１番地" }, "geometry": { "type": "Point", "coordinates": [ 131.538748, 33.197653 ] } },
{ "type": "Feature", "properties": { "ID": 4411005100000, "正式名称": "藤島病院", "機関区分": 1, "都道府県コード": 44, "市区町村コード": 201, "所在地": "大分県大分市敷戸台１－１－３３", "緯度": 33.188655, "経度": 131.616147, "url": "https://www.iryou.teikyouseido.mhlw.go.jp/znk-web/juminkanja/S2430/initialize?prefCd=44&kikanCd=1005100000&kikanKbn=1", "url2": null, "内容": "藤島病院【1:病院】【診療科目:内科_消化器内科_胃腸内科_外科_食道外科_消化器外科_肛門外科_腹部外科_皮膚科】【一般病床数:43療養病床数:0精神病床数:0感染症病床数:0合計病床数:43】大分県大分市敷戸台１－１－３３" }, "geometry": { "type": "Point", "coordinates": [ 131.616147, 33.188655 ] } },
{ "type": "Feature", "properties": { "ID": 4411005200000, "正式名称": "帆秋病院", "機関区分": 1, "都道府県コード": 44, "市区町村コード": 201, "所在地": "大分県大分市大字大分４７７２番地２", "緯度": 33.225104, "経度": 131.619623, "url": "https://www.iryou.teikyouseido.mhlw.go.jp/znk-web/juminkanja/S2430/initialize?prefCd=44&kikanCd=1005200000&kikanKbn=1", "url2": "http://www.hoaki.jp", "内容": "帆秋病院【1:病院】【診療科目:内科_精神科_心療内科_歯科】【一般病床数:0療養病床数:0精神病床数:446感染症病床数:0合計病床数:446】大分県大分市大字大分４７７２番地２" }, "geometry": { "type": "Point", "coordinates": [ 131.619623, 33.225104 ] } },
{ "type": "Feature", "properties": { "ID": 4411005300000, "正式名称": "医療法人社団　淵野会　緑ヶ丘保養園", "機関区分": 1, "都道府県コード": 44, "市区町村コード": 201, "所在地": "大分県大分市丹生１７４７", "緯度": 33.218285, "経度": 131.703295, "url": "https://www.iryou.teikyouseido.mhlw.go.jp/znk-web/juminkanja/S2430/initialize?prefCd=44&kikanCd=1005300000&kikanKbn=1", "url2": "http://www.fuchinokai.or.jp", "内容": "医療法人社団　淵野会　緑ヶ丘保養園【1:病院】【診療科目:内科_精神科_心療内科_老年精神科】【一般病床数:0療養病床数:0精神病床数:270感染症病床数:0合計病床数:270】大分県大分市丹生１７４７" }, "geometry": { "type": "Point", "coordinates": [ 131.703295, 33.218285 ] } },
{ "type": "Feature", "properties": { "ID": 4411005500000, "正式名称": "リバーサイド病院", "機関区分": 1, "都道府県コード": 44, "市区町村コード": 201, "所在地": "大分県大分市宮崎６番地の３", "緯度": 33.200109, "経度": 131.609023, "url": "https://www.iryou.teikyouseido.mhlw.go.jp/znk-web/juminkanja/S2430/initialize?prefCd=44&kikanCd=1005500000&kikanKbn=1", "url2": "http://www.riverside-hp.jp/", "内容": "リバーサイド病院【1:病院】【診療科目:内科_精神科_心療内科】【一般病床数:0療養病床数:0精神病床数:234感染症病床数:0合計病床数:234】大分県大分市宮崎６番地の３" }, "geometry": { "type": "Point", "coordinates": [ 131.609023, 33.200109 ] } },
{ "type": "Feature", "properties": { "ID": 4411005600000, "正式名称": "朝見病院", "機関区分": 1, "都道府県コード": 44, "市区町村コード": 202, "所在地": "大分県別府市朝見１丁目２３番２８号", "緯度": 33.271661, "経度": 131.496441, "url": "https://www.iryou.teikyouseido.mhlw.go.jp/znk-web/juminkanja/S2430/initialize?prefCd=44&kikanCd=1005600000&kikanKbn=1", "url2": null, "内容": "朝見病院【1:病院】【診療科目:内科_精神科_心療内科】【一般病床数:0療養病床数:0精神病床数:89感染症病床数:0合計病床数:89】大分県別府市朝見１丁目２３番２８号" }, "geometry": { "type": "Point", "coordinates": [ 131.496441, 33.271661 ] } },
{ "type": "Feature", "properties": { "ID": 4411005700000, "正式名称": "石垣病院", "機関区分": 1, "都道府県コード": 44, "市区町村コード": 202, "所在地": "大分県別府市実相寺町２６番１１号", "緯度": 33.310446, "経度": 131.485791, "url": "https://www.iryou.teikyouseido.mhlw.go.jp/znk-web/juminkanja/S2430/initialize?prefCd=44&kikanCd=1005700000&kikanKbn=1", "url2": "http://www.ctb.ne.jp/^ishigaki/", "内容": "石垣病院【1:病院】【診療科目:呼吸器内科_循環器内科_消化器内科_外科_呼吸器外科_心臓血管外科_消化器外科_内視鏡外科_アレルギー科_リハビリテーション科_麻酔科】【一般病床数:59療養病床数:0精神病床数:0感染症病床数:0合計病床数:59】大分県別府市実相寺町２６番１１号" }, "geometry": { "type": "Point", "coordinates": [ 131.485791, 33.310446 ] } },
{ "type": "Feature", "properties": { "ID": 4411005900000, "正式名称": "医療法人財団親幸会　浜脇記念病院", "機関区分": 1, "都道府県コード": 44, "市区町村コード": 202, "所在地": "大分県別府市浜脇１丁目６ー２１", "緯度": 33.269421, "経度": 131.510451, "url": "https://www.iryou.teikyouseido.mhlw.go.jp/znk-web/juminkanja/S2430/initialize?prefCd=44&kikanCd=1005900000&kikanKbn=1", "url2": "http://hamawakimhp.com", "内容": "医療法人財団親幸会　浜脇記念病院【1:病院】【診療科目:内科_循環器内科_皮膚科_リハビリテーション科】【一般病床数:0療養病床数:63精神病床数:0感染症病床数:0合計病床数:63】大分県別府市浜脇１丁目６ー２１" }, "geometry": { "type": "Point", "coordinates": [ 131.510451, 33.269421 ] } },
{ "type": "Feature", "properties": { "ID": 4411006000000, "正式名称": "医療法人　百善会　村橋病院", "機関区分": 1, "都道府県コード": 44, "市区町村コード": 202, "所在地": "大分県別府市千代町", "緯度": 33.27463, "経度": 131.504715, "url": "https://www.iryou.teikyouseido.mhlw.go.jp/znk-web/juminkanja/S2430/initialize?prefCd=44&kikanCd=1006000000&kikanKbn=1", "url2": "http://murahashi-hp.jp/", "内容": "医療法人　百善会　村橋病院【1:病院】【診療科目:内科_呼吸器内科_消化器内科_神経内科_アレルギー疾患内科_膠原病内科_リウマチ科_リハビリテーション科】【一般病床数:50療養病床数:30精神病床数:0感染症病床数:0合計病床数:80】大分県別府市千代町" }, "geometry": { "type": "Point", "coordinates": [ 131.504715, 33.27463 ] } },
{ "type": "Feature", "properties": { "ID": 4411006100000, "正式名称": "内田病院", "機関区分": 1, "都道府県コード": 44, "市区町村コード": 202, "所在地": "大分県別府市末広町", "緯度": 33.27366, "経度": 131.502868, "url": "https://www.iryou.teikyouseido.mhlw.go.jp/znk-web/juminkanja/S2430/initialize?prefCd=44&kikanCd=1006100000&kikanKbn=1", "url2": "http://uchida-hp.jp", "内容": "内田病院【1:病院】【診療科目:内科_血液内科_糖尿病内科_呼吸器内科_循環器内科_消化器内科_内視鏡内科_外科_整形外科_皮膚科_アレルギー科_リハビリテーション科_放射線診断科_麻酔科】【一般病床数:40療養病床数:41精神病床数:0感染症病床数:0合計病床数:81】大分県別府市末広町" }, "geometry": { "type": "Point", "coordinates": [ 131.502868, 33.27366 ] } },
{ "type": "Feature", "properties": { "ID": 4411006200000, "正式名称": "大分県厚生連鶴見病院", "機関区分": 1, "都道府県コード": 44, "市区町村コード": 202, "所在地": "大分県別府市緑丘町１２番１号", "緯度": 33.297821, "経度": 131.49004, "url": "https://www.iryou.teikyouseido.mhlw.go.jp/znk-web/juminkanja/S2430/initialize?prefCd=44&kikanCd=1006200000&kikanKbn=1", "url2": "http://www.ok-tsurumi.com/", "内容": "大分県厚生連鶴見病院【1:病院】【診療科目:内科_血液内科_糖尿病・代謝内科_呼吸器内科_循環器内科_消化器内科_腎臓内科_人工透析内科_肝臓内科_神経内科_内視鏡内科_外科_脳神経外科_呼吸器外科_血管外科_消化器外科_膵臓外科_胆のう外科_乳腺外科_内視鏡外科_整形外科_形成外科_緩和ケア外科_小児科_眼科_泌尿器科_腎臓・泌尿器科_リハビリテーション科_放射線診断科_放射線治療科_病理診断科_臨床検査科_救急科_麻酔科】【一般病床数:226療養病床数:0精神病床数:0感染症病床数:4合計病床数:230】大分県別府市緑丘町１２番１号" }, "geometry": { "type": "Point", "coordinates": [ 131.49004, 33.297821 ] } },
{ "type": "Feature", "properties": { "ID": 4411006300000, "正式名称": "九州大学病院別府病院", "機関区分": 1, "都道府県コード": 44, "市区町村コード": 202, "所在地": "大分県別府市荘園町３０番１０号", "緯度": 33.293535, "経度": 131.480223, "url": "https://www.iryou.teikyouseido.mhlw.go.jp/znk-web/juminkanja/S2430/initialize?prefCd=44&kikanCd=1006300000&kikanKbn=1", "url2": "https://www.beppu.kyushu-u.ac.jp/", "内容": "九州大学病院別府病院【1:病院】【診療科目:内科_外科_整形外科_婦人科_リハビリテーション科_放射線科_麻酔科】【一般病床数:120療養病床数:0精神病床数:0感染症病床数:0合計病床数:120】大分県別府市荘園町３０番１０号" }, "geometry": { "type": "Point", "coordinates": [ 131.480223, 33.293535 ] } },
{ "type": "Feature", "properties": { "ID": 4411006400000, "正式名称": "清瀬病院", "機関区分": 1, "都道府県コード": 44, "市区町村コード": 202, "所在地": "大分県別府市野口中町４番８号", "緯度": 33.280836, "経度": 131.49857, "url": "https://www.iryou.teikyouseido.mhlw.go.jp/znk-web/juminkanja/S2430/initialize?prefCd=44&kikanCd=1006400000&kikanKbn=1", "url2": "http://kiyosehp.jp/", "内容": "清瀬病院【1:病院】【診療科目:内科_糖尿病内科_循環器内科_消化器内科_腎臓内科_人工透析内科_外科】【一般病床数:40療養病床数:0精神病床数:0感染症病床数:0合計病床数:40】大分県別府市野口中町４番８号" }, "geometry": { "type": "Point", "coordinates": [ 131.49857, 33.280836 ] } },
{ "type": "Feature", "properties": { "ID": 4411006500000, "正式名称": "黒木記念病院", "機関区分": 1, "都道府県コード": 44, "市区町村コード": 202, "所在地": "大分県別府市照波園町１４番地２８号", "緯度": 33.319466, "経度": 131.497325, "url": "https://www.iryou.teikyouseido.mhlw.go.jp/znk-web/juminkanja/S2430/initialize?prefCd=44&kikanCd=1006500000&kikanKbn=1", "url2": "http://www.kuroki-hp.or.jp/", "内容": "黒木記念病院【1:病院】【診療科目:内科_呼吸器内科_循環器内科_消化器内科_神経内科_外科_脳神経外科_整形外科_皮膚科_精神科_リウマチ科_リハビリテーション科_放射線科_麻酔科】【一般病床数:60療養病床数:114精神病床数:0感染症病床数:0合計病床数:174】大分県別府市照波園町１４番地２８号" }, "geometry": { "type": "Point", "coordinates": [ 131.497325, 33.319466 ] } },
{ "type": "Feature", "properties": { "ID": 4411006600000, "正式名称": "医療法人聡明児玉病院", "機関区分": 1, "都道府県コード": 44, "市区町村コード": 202, "所在地": "大分県別府市亀川四の湯町５番１９号", "緯度": 33.321036, "経度": 131.493778, "url": "https://www.iryou.teikyouseido.mhlw.go.jp/znk-web/juminkanja/S2430/initialize?prefCd=44&kikanCd=1006600000&kikanKbn=1", "url2": "https://soumeikai.or.jp/kodama/", "内容": "医療法人聡明児玉病院【1:病院】【診療科目:内科_呼吸器内科_循環器内科_消化器内科_腎臓内科_整形外科_心療内科_リウマチ科_リハビリテーション科】【一般病床数:41療養病床数:74精神病床数:0感染症病床数:0合計病床数:115】大分県別府市亀川四の湯町５番１９号" }, "geometry": { "type": "Point", "coordinates": [ 131.493778, 33.321036 ] } },
{ "type": "Feature", "properties": { "ID": 4411006700000, "正式名称": "国家公務員共済組合連合会　新別府病院", "機関区分": 1, "都道府県コード": 44, "市区町村コード": 202, "所在地": "大分県別府市鶴見二丁目８番３０号", "緯度": 33.299321, "経度": 131.477096, "url": "https://www.iryou.teikyouseido.mhlw.go.jp/znk-web/juminkanja/S2430/initialize?prefCd=44&kikanCd=1006700000&kikanKbn=1", "url2": "http://www.shinbeppu-hosp.jp", "内容": "国家公務員共済組合連合会　新別府病院【1:病院】【診療科目:内科_代謝・内分泌内科_呼吸器内科_循環器内科_消化器内科_腎臓内科_肝臓内科_神経内科_外科_脳神経外科_呼吸器外科_心臓血管外科_消化器外科_肛門外科_整形外科_眼科_泌尿器科_リウマチ科_リハビリテーション科_放射線科_救急科_麻酔科】【一般病床数:263療養病床数:0精神病床数:0感染症病床数:0合計病床数:263】大分県別府市鶴見二丁目８番３０号" }, "geometry": { "type": "Point", "coordinates": [ 131.477096, 33.299321 ] } },
{ "type": "Feature", "properties": { "ID": 4411006900000, "正式名称": "別府湾腎泌尿器病院", "機関区分": 1, "都道府県コード": 44, "市区町村コード": 202, "所在地": "大分県別府市北石垣深町８５１番地", "緯度": 33.310993, "経度": 131.500618, "url": "https://www.iryou.teikyouseido.mhlw.go.jp/znk-web/juminkanja/S2430/initialize?prefCd=44&kikanCd=1006900000&kikanKbn=1", "url2": "https://bbuh.jp", "内容": "別府湾腎泌尿器病院【1:病院】【診療科目:内科_糖尿病内科_循環器内科_婦人科_泌尿器科_リハビリテーション科_放射線科_麻酔科】【一般病床数:60療養病床数:0精神病床数:0感染症病床数:0合計病床数:60】大分県別府市北石垣深町８５１番地" }, "geometry": { "type": "Point", "coordinates": [ 131.500618, 33.310993 ] } },
{ "type": "Feature", "properties": { "ID": 4411007000000, "正式名称": "鶴見台病院", "機関区分": 1, "都道府県コード": 44, "市区町村コード": 202, "所在地": "大分県別府市荘園町６６番２７号", "緯度": 33.294974, "経度": 131.476993, "url": "https://www.iryou.teikyouseido.mhlw.go.jp/znk-web/juminkanja/S2430/initialize?prefCd=44&kikanCd=1007000000&kikanKbn=1", "url2": "http://www.tsurumidai.or.jp/", "内容": "鶴見台病院【1:病院】【診療科目:内科_精神科_心療内科】【一般病床数:0療養病床数:0精神病床数:157感染症病床数:0合計病床数:157】大分県別府市荘園町６６番２７号" }, "geometry": { "type": "Point", "coordinates": [ 131.476993, 33.294974 ] } },
{ "type": "Feature", "properties": { "ID": 4411007100000, "正式名称": "中村病院", "機関区分": 1, "都道府県コード": 44, "市区町村コード": 202, "所在地": "大分県別府市秋葉町８番２４号", "緯度": 33.275938, "経度": 131.50108, "url": "https://www.iryou.teikyouseido.mhlw.go.jp/znk-web/juminkanja/S2430/initialize?prefCd=44&kikanCd=1007100000&kikanKbn=1", "url2": "http://www.nakamura-med.or.jp/", "内容": "中村病院【1:病院】【診療科目:内科_血液内科_糖尿病内科_呼吸器内科_循環器内科_消化器内科_外科_消化器外科_肛門外科_整形外科_形成外科_皮膚科_泌尿器科_リハビリテーション科_麻酔科】【一般病床数:108療養病床数:45精神病床数:0感染症病床数:0合計病床数:153】大分県別府市秋葉町８番２４号" }, "geometry": { "type": "Point", "coordinates": [ 131.50108, 33.275938 ] } },
{ "type": "Feature", "properties": { "ID": 4411007200000, "正式名称": "独立行政法人国立病院機構　西別府病院", "機関区分": 1, "都道府県コード": 44, "市区町村コード": 202, "所在地": "大分県別府市荘園町７３番８号", "緯度": 33.293588, "経度": 131.474848, "url": "https://www.iryou.teikyouseido.mhlw.go.jp/znk-web/juminkanja/S2430/initialize?prefCd=44&kikanCd=1007200000&kikanKbn=1", "url2": "https://nishibeppu.hosp.go.jp/", "内容": "独立行政法人国立病院機構　西別府病院【1:病院】【診療科目:内科_呼吸器内科_循環器内科_消化器内科_神経内科_脳神経外科_小児科_婦人科_皮膚科_精神科_歯科_リハビリテーション科_放射線科】【一般病床数:294療養病床数:0精神病床数:0感染症病床数:0合計病床数:304】大分県別府市荘園町７３番８号" }, "geometry": { "type": "Point", "coordinates": [ 131.474848, 33.293588 ] } },
{ "type": "Feature", "properties": { "ID": 4411007300000, "正式名称": "農協共済別府リハビリテーションセンター", "機関区分": 1, "都道府県コード": 44, "市区町村コード": 202, "所在地": "大分県別府市鶴見１０２６－１０", "緯度": 33.313504, "経度": 131.463561, "url": "https://www.iryou.teikyouseido.mhlw.go.jp/znk-web/juminkanja/S2430/initialize?prefCd=44&kikanCd=1007300000&kikanKbn=1", "url2": "https://brc.or.jp", "内容": "農協共済別府リハビリテーションセンター【1:病院】【診療科目:リハビリテーション科】【一般病床数:0療養病床数:116精神病床数:0感染症病床数:0合計病床数:116】大分県別府市鶴見１０２６－１０" }, "geometry": { "type": "Point", "coordinates": [ 131.463561, 33.313504 ] } },
{ "type": "Feature", "properties": { "ID": 4411007400000, "正式名称": "医療法人野口記念会（財団）　野口病院", "機関区分": 1, "都道府県コード": 44, "市区町村コード": 202, "所在地": "大分県別府市青山町７番５２号", "緯度": 33.279786, "経度": 131.492261, "url": "https://www.iryou.teikyouseido.mhlw.go.jp/znk-web/juminkanja/S2430/initialize?prefCd=44&kikanCd=1007400000&kikanKbn=1", "url2": "https://www.noguchi-med.or.jp/", "内容": "医療法人野口記念会（財団）　野口病院【1:病院】【診療科目:内科_外科_耳鼻いんこう科_放射線科_病理診断科_麻酔科】【一般病床数:116療養病床数:0精神病床数:0感染症病床数:0合計病床数:116】大分県別府市青山町７番５２号" }, "geometry": { "type": "Point", "coordinates": [ 131.492261, 33.279786 ] } },
{ "type": "Feature", "properties": { "ID": 4411007500000, "正式名称": "畑病院", "機関区分": 1, "都道府県コード": 44, "市区町村コード": 202, "所在地": "大分県別府市中島町１４番２２号", "緯度": 33.275105, "経度": 131.492933, "url": "https://www.iryou.teikyouseido.mhlw.go.jp/znk-web/juminkanja/S2430/initialize?prefCd=44&kikanCd=1007500000&kikanKbn=1", "url2": "https://hata.or.jp", "内容": "畑病院【1:病院】【診療科目:内科_呼吸器内科_循環器内科_消化器内科_整形外科_心療内科_リウマチ科_リハビリテーション科】【一般病床数:58療養病床数:0精神病床数:0感染症病床数:0合計病床数:58】大分県別府市中島町１４番２２号" }, "geometry": { "type": "Point", "coordinates": [ 131.492933, 33.275105 ] } },
{ "type": "Feature", "properties": { "ID": 4411007600000, "正式名称": "独立行政法人国立病院機構　別府医療センター", "機関区分": 1, "都道府県コード": 44, "市区町村コード": 202, "所在地": "大分県別府市大字内竈１４７３", "緯度": 33.331873, "経度": 131.485312, "url": "https://www.iryou.teikyouseido.mhlw.go.jp/znk-web/juminkanja/S2430/initialize?prefCd=44&kikanCd=1007600000&kikanKbn=1", "url2": "https://beppu.hosp.go.jp/", "内容": "独立行政法人国立病院機構　別府医療センター【1:病院】【診療科目:内科_血液内科_糖尿病・内分泌内科_脳神経内科_呼吸器内科_循環器内科_消化器内科_腎臓内科_膠原病内科_脳神経外科_呼吸器外科_食道外科_血管外科_心臓外科_消化器外科_乳腺外科_整形外科_形成外科_小児科_産婦人科_眼科_耳鼻いんこう科_皮膚科_泌尿器科_精神科_歯科_歯科口腔外科_リウマチ科_リハビリテーション科_放射線科_病理診断科_臨床検査科_救急科_麻酔科】【一般病床数:423療養病床数:0精神病床数:40感染症病床数:0合計病床数:463】大分県別府市大字内竈１４７３" }, "geometry": { "type": "Point", "coordinates": [ 131.485312, 33.331873 ] } },
{ "type": "Feature", "properties": { "ID": 4411007700000, "正式名称": "別府温泉病院", "機関区分": 1, "都道府県コード": 44, "市区町村コード": 202, "所在地": "大分県別府市大字野田２２番地の１", "緯度": 33.33017, "経度": 131.485019, "url": "https://www.iryou.teikyouseido.mhlw.go.jp/znk-web/juminkanja/S2430/initialize?prefCd=44&kikanCd=1007700000&kikanKbn=1", "url2": "http://www.beppu-med.or.jp/onsen-byoin/", "内容": "別府温泉病院【1:病院】【診療科目:内科_循環器内科_整形外科_リハビリテーション科】【一般病床数:36療養病床数:0精神病床数:0感染症病床数:0合計病床数:36】大分県別府市大字野田２２番地の１" }, "geometry": { "type": "Point", "coordinates": [ 131.485019, 33.33017 ] } },
{ "type": "Feature", "properties": { "ID": 4411007800000, "正式名称": "別府中央病院", "機関区分": 1, "都道府県コード": 44, "市区町村コード": 202, "所在地": "大分県別府市北的ケ浜町５番１９号", "緯度": 33.285028, "経度": 131.504146, "url": "https://www.iryou.teikyouseido.mhlw.go.jp/znk-web/juminkanja/S2430/initialize?prefCd=44&kikanCd=1007800000&kikanKbn=1", "url2": "http://fujimi.or.jp", "内容": "別府中央病院【1:病院】【診療科目:内科_糖尿病内科_内分泌内科_糖尿病・内分泌内科_糖尿病・代謝内科_呼吸器内科_循環器内科_消化器内科_腎臓内科_外科_脳神経外科_肛門外科_整形外科_形成外科_眼科_リハビリテーション科】【一般病床数:95療養病床数:51精神病床数:0感染症病床数:0合計病床数:146】大分県別府市北的ケ浜町５番１９号" }, "geometry": { "type": "Point", "coordinates": [ 131.504146, 33.285028 ] } },
{ "type": "Feature", "properties": { "ID": 4411007900000, "正式名称": "別府発達医療センター", "機関区分": 1, "都道府県コード": 44, "市区町村コード": 202, "所在地": "大分県別府市荘園町６６番４４号", "緯度": 33.295759, "経度": 131.47768, "url": "https://www.iryou.teikyouseido.mhlw.go.jp/znk-web/juminkanja/S2430/initialize?prefCd=44&kikanCd=1007900000&kikanKbn=1", "url2": "http://www.beppu-hattatsu.jp/", "内容": "別府発達医療センター【1:病院】【診療科目:内科_整形外科_小児科_児童精神科_耳鼻いんこう科_精神科_歯科_リハビリテーション科_麻酔科】【一般病床数:120療養病床数:0精神病床数:0感染症病床数:0合計病床数:120】大分県別府市荘園町６６番４４号" }, "geometry": { "type": "Point", "coordinates": [ 131.47768, 33.295759 ] } },
{ "type": "Feature", "properties": { "ID": 4411008000000, "正式名称": "向井病院", "機関区分": 1, "都道府県コード": 44, "市区町村コード": 202, "所在地": "大分県別府市堀田町２０番１３号", "緯度": 33.290611, "経度": 131.458926, "url": "https://www.iryou.teikyouseido.mhlw.go.jp/znk-web/juminkanja/S2430/initialize?prefCd=44&kikanCd=1008000000&kikanKbn=1", "url2": "http://www.mukai-hp.com", "内容": "向井病院【1:病院】【診療科目:内科_精神科_心療内科】【一般病床数:0療養病床数:0精神病床数:188感染症病床数:0合計病床数:188】大分県別府市堀田町２０番１３号" }, "geometry": { "type": "Point", "coordinates": [ 131.458926, 33.290611 ] } },
{ "type": "Feature", "properties": { "ID": 4411008200000, "正式名称": "山本病院", "機関区分": 1, "都道府県コード": 44, "市区町村コード": 202, "所在地": "大分県別府市光町１４番３号", "緯度": 33.275364, "経度": 131.497164, "url": "https://www.iryou.teikyouseido.mhlw.go.jp/znk-web/juminkanja/S2430/initialize?prefCd=44&kikanCd=1008200000&kikanKbn=1", "url2": "http://www.yamamoto-hp.info/", "内容": "山本病院【1:病院】【診療科目:内科_精神科_心療内科】【一般病床数:0療養病床数:0精神病床数:234感染症病床数:0合計病床数:234】大分県別府市光町１４番３号" }, "geometry": { "type": "Point", "coordinates": [ 131.497164, 33.275364 ] } },
{ "type": "Feature", "properties": { "ID": 4411008300000, "正式名称": "医療法人　杏林会　村上記念病院", "機関区分": 1, "都道府県コード": 44, "市区町村コード": 203, "所在地": "大分県中津市諸町", "緯度": 33.602758, "経度": 131.183325, "url": "https://www.iryou.teikyouseido.mhlw.go.jp/znk-web/juminkanja/S2430/initialize?prefCd=44&kikanCd=1008300000&kikanKbn=1", "url2": "https://kyorinkai.net", "内容": "医療法人　杏林会　村上記念病院【1:病院】【診療科目:内科_呼吸器内科_循環器内科_消化器内科_腎臓内科_人工透析内科_神経内科_老年内科_リハビリテーション科_病理診断科】【一般病床数:41療養病床数:124精神病床数:0感染症病床数:0合計病床数:165】大分県中津市諸町" }, "geometry": { "type": "Point", "coordinates": [ 131.183325, 33.602758 ] } },
{ "type": "Feature", "properties": { "ID": 4411008400000, "正式名称": "医療法人　向心会　大貞病院", "機関区分": 1, "都道府県コード": 44, "市区町村コード": 203, "所在地": "大分県中津市中原８番地", "緯度": 33.577496, "経度": 131.21639, "url": "https://www.iryou.teikyouseido.mhlw.go.jp/znk-web/juminkanja/S2430/initialize?prefCd=44&kikanCd=1008400000&kikanKbn=1", "url2": "http://www.oosada-hp.dr-clinic.jp", "内容": "医療法人　向心会　大貞病院【1:病院】【診療科目:精神科】【一般病床数:0療養病床数:0精神病床数:136感染症病床数:0合計病床数:136】大分県中津市中原８番地" }, "geometry": { "type": "Point", "coordinates": [ 131.21639, 33.577496 ] } },
{ "type": "Feature", "properties": { "ID": 4411008500000, "正式名称": "梶原病院", "機関区分": 1, "都道府県コード": 44, "市区町村コード": 203, "所在地": "大分県中津市中殿町３丁目２９番地８", "緯度": 33.594916, "経度": 131.194938, "url": "https://www.iryou.teikyouseido.mhlw.go.jp/znk-web/juminkanja/S2430/initialize?prefCd=44&kikanCd=1008500000&kikanKbn=1", "url2": "http://www.kajiwarabyouin.com/", "内容": "梶原病院【1:病院】【診療科目:内科_胃腸内科_人工透析内科_外科_整形外科】【一般病床数:50療養病床数:49精神病床数:0感染症病床数:0合計病床数:99】大分県中津市中殿町３丁目２９番地８" }, "geometry": { "type": "Point", "coordinates": [ 131.194938, 33.594916 ] } },
{ "type": "Feature", "properties": { "ID": 4411008600000, "正式名称": "川嶌整形外科病院", "機関区分": 1, "都道府県コード": 44, "市区町村コード": 203, "所在地": "大分県中津市宮夫１７", "緯度": 33.592165, "経度": 131.212534, "url": "https://www.iryou.teikyouseido.mhlw.go.jp/znk-web/juminkanja/S2430/initialize?prefCd=44&kikanCd=1008600000&kikanKbn=1", "url2": "http://kawashimahp.jp", "内容": "川嶌整形外科病院【1:病院】【診療科目:内科_循環器内科_脳神経外科_整形外科_リウマチ科_リハビリテーション科_放射線科_麻酔科】【一般病床数:143療養病床数:0精神病床数:0感染症病床数:0合計病床数:143】大分県中津市宮夫１７" }, "geometry": { "type": "Point", "coordinates": [ 131.212534, 33.592165 ] } },
{ "type": "Feature", "properties": { "ID": 4411008700000, "正式名称": "酒井病院", "機関区分": 1, "都道府県コード": 44, "市区町村コード": 203, "所在地": "大分県中津市中央町１－１－４３", "緯度": 33.593555, "経度": 131.189664, "url": "https://www.iryou.teikyouseido.mhlw.go.jp/znk-web/juminkanja/S2430/initialize?prefCd=44&kikanCd=1008700000&kikanKbn=1", "url2": "http://sakai24.org", "内容": "酒井病院【1:病院】【診療科目:内科_外科_胃腸外科_整形外科_形成外科_泌尿器科_麻酔科】【一般病床数:76療養病床数:0精神病床数:0感染症病床数:0合計病床数:76】大分県中津市中央町１－１－４３" }, "geometry": { "type": "Point", "coordinates": [ 131.189664, 33.593555 ] } },
{ "type": "Feature", "properties": { "ID": 4411008800000, "正式名称": "つくし園", "機関区分": 1, "都道府県コード": 44, "市区町村コード": 203, "所在地": "大分県中津市三光森山８２３番地２", "緯度": 33.547404, "経度": 131.218987, "url": "https://www.iryou.teikyouseido.mhlw.go.jp/znk-web/juminkanja/S2430/initialize?prefCd=44&kikanCd=1008800000&kikanKbn=1", "url2": "http://www.chokusin.jp/facility/tsukushien/", "内容": "つくし園【1:病院】【診療科目:内科_整形外科_小児科_児童精神科_精神科_心療内科_リハビリテーション科】【一般病床数:40療養病床数:0精神病床数:0感染症病床数:0合計病床数:40】大分県中津市三光森山８２３番地２" }, "geometry": { "type": "Point", "coordinates": [ 131.218987, 33.547404 ] } },
{ "type": "Feature", "properties": { "ID": 4411008900000, "正式名称": "医療法人社団　中津胃腸病院", "機関区分": 1, "都道府県コード": 44, "市区町村コード": 203, "所在地": "大分県中津市永添５１０番地", "緯度": 33.579707, "経度": 131.205385, "url": "https://www.iryou.teikyouseido.mhlw.go.jp/znk-web/juminkanja/S2430/initialize?prefCd=44&kikanCd=1008900000&kikanKbn=1", "url2": "http://n-icho.or.jp/", "内容": "医療法人社団　中津胃腸病院【1:病院】【診療科目:内科_消化器内科_疼痛緩和内科_外科_消化器外科_肛門外科_形成外科_リハビリテーション科_麻酔科】【一般病床数:112療養病床数:0精神病床数:0感染症病床数:0合計病床数:112】大分県中津市永添５１０番地" }, "geometry": { "type": "Point", "coordinates": [ 131.205385, 33.579707 ] } },
{ "type": "Feature", "properties": { "ID": 4411009000000, "正式名称": "中津市立中津市民病院", "機関区分": 1, "都道府県コード": 44, "市区町村コード": 203, "所在地": "大分県中津市下池永１７３番地", "緯度": 33.589823, "経度": 131.215125, "url": "https://www.iryou.teikyouseido.mhlw.go.jp/znk-web/juminkanja/S2430/initialize?prefCd=44&kikanCd=1009000000&kikanKbn=1", "url2": "http://www.city-nakatsu.jp/hospital/index.html", "内容": "中津市立中津市民病院【1:病院】【診療科目:内科_血液内科_糖尿病・内分泌内科_呼吸器内科_循環器内科_消化器内科_腎臓内科_肝臓内科_神経内科_外科_脳神経外科_呼吸器外科_心臓血管外科_消化器外科_乳腺外科_肛門外科_内視鏡外科_整形外科_小児科_小児外科_産婦人科_耳鼻いんこう科_泌尿器科_歯科口腔外科_リハビリテーション科_放射線科_病理診断科_救急科_麻酔科】【一般病床数:250療養病床数:0精神病床数:0感染症病床数:0合計病床数:250】大分県中津市下池永１７３番地" }, "geometry": { "type": "Point", "coordinates": [ 131.215125, 33.589823 ] } },
{ "type": "Feature", "properties": { "ID": 4411009200000, "正式名称": "中津脳神経外科病院", "機関区分": 1, "都道府県コード": 44, "市区町村コード": 203, "所在地": "大分県中津市大字福島１０５５番地", "緯度": 33.563533, "経度": 131.225467, "url": "https://www.iryou.teikyouseido.mhlw.go.jp/znk-web/juminkanja/S2430/initialize?prefCd=44&kikanCd=1009200000&kikanKbn=1", "url2": "http://nakatsunoushinkeigeka.jp/", "内容": "中津脳神経外科病院【1:病院】【診療科目:脳神経外科_リハビリテーション科】【一般病床数:74療養病床数:0精神病床数:0感染症病床数:0合計病床数:74】大分県中津市大字福島１０５５番地" }, "geometry": { "type": "Point", "coordinates": [ 131.225467, 33.563533 ] } },
{ "type": "Feature", "properties": { "ID": 4411009300000, "正式名称": "松永循環器病院", "機関区分": 1, "都道府県コード": 44, "市区町村コード": 203, "所在地": "大分県中津市中央町１丁目３番５４号", "緯度": 33.592217, "経度": 131.192497, "url": "https://www.iryou.teikyouseido.mhlw.go.jp/znk-web/juminkanja/S2430/initialize?prefCd=44&kikanCd=1009300000&kikanKbn=1", "url2": "https://www.matsunaga-hp.com", "内容": "松永循環器病院【1:病院】【診療科目:内科_呼吸器内科_循環器内科_リハビリテーション科】【一般病床数:40療養病床数:0精神病床数:0感染症病床数:0合計病床数:40】大分県中津市中央町１丁目３番５４号" }, "geometry": { "type": "Point", "coordinates": [ 131.192497, 33.592217 ] } },
{ "type": "Feature", "properties": { "ID": 4411009500000, "正式名称": "医療法人　愛幸会　原病院", "機関区分": 1, "都道府県コード": 44, "市区町村コード": 204, "所在地": "大分県日田市三本松２ー６－１６", "緯度": 33.320359, "経度": 130.93133, "url": "https://www.iryou.teikyouseido.mhlw.go.jp/znk-web/juminkanja/S2430/initialize?prefCd=44&kikanCd=1009500000&kikanKbn=1", "url2": "https://hita-harahospital.com", "内容": "医療法人　愛幸会　原病院【1:病院】【診療科目:循環器内科_胃腸内科_外科】【一般病床数:21療養病床数:30精神病床数:0感染症病床数:0合計病床数:51】大分県日田市三本松２ー６－１６" }, "geometry": { "type": "Point", "coordinates": [ 130.93133, 33.320359 ] } },
{ "type": "Feature", "properties": { "ID": 4411009600000, "正式名称": "医療法人　鶴陽会　岩尾病院", "機関区分": 1, "都道府県コード": 44, "市区町村コード": 204, "所在地": "大分県日田市淡窓２丁目４番２９号", "緯度": 33.322955, "経度": 130.934385, "url": "https://www.iryou.teikyouseido.mhlw.go.jp/znk-web/juminkanja/S2430/initialize?prefCd=44&kikanCd=1009600000&kikanKbn=1", "url2": "http://www.iwao-hospital.jp", "内容": "医療法人　鶴陽会　岩尾病院【1:病院】【診療科目:内科_糖尿病内科_脳神経内科_呼吸器内科_循環器内科_消化器内科_肝臓内科_内視鏡内科】【一般病床数:45療養病床数:0精神病床数:0感染症病床数:0合計病床数:45】大分県日田市淡窓２丁目４番２９号" }, "geometry": { "type": "Point", "coordinates": [ 130.934385, 33.322955 ] } },
{ "type": "Feature", "properties": { "ID": 4411009700000, "正式名称": "医療法人　咸宜会　日田中央病院", "機関区分": 1, "都道府県コード": 44, "市区町村コード": 204, "所在地": "大分県日田市淡窓２－５－１７", "緯度": 33.322187, "経度": 130.933862, "url": "https://www.iryou.teikyouseido.mhlw.go.jp/znk-web/juminkanja/S2430/initialize?prefCd=44&kikanCd=1009700000&kikanKbn=1", "url2": "http://kangikai.or.jp/", "内容": "医療法人　咸宜会　日田中央病院【1:病院】【診療科目:内科_糖尿病内科_呼吸器内科_循環器内科_消化器内科_胃腸内科_腎臓内科_外科_呼吸器外科_血管外科_消化器外科_肝臓外科_膵臓外科_胆のう外科_乳腺外科_肛門外科_整形外科_小児外科_リハビリテーション科】【一般病床数:82療養病床数:0精神病床数:0感染症病床数:0合計病床数:82】大分県日田市淡窓２－５－１７" }, "geometry": { "type": "Point", "coordinates": [ 130.933862, 33.322187 ] } },
{ "type": "Feature", "properties": { "ID": 4411009800000, "正式名称": "医療法人　至誠会　城谷病院", "機関区分": 1, "都道府県コード": 44, "市区町村コード": 204, "所在地": "大分県日田市元町１６－２２", "緯度": 33.316941, "経度": 130.936564, "url": "https://www.iryou.teikyouseido.mhlw.go.jp/znk-web/juminkanja/S2430/initialize?prefCd=44&kikanCd=1009800000&kikanKbn=1", "url2": null, "内容": "医療法人　至誠会　城谷病院【1:病院】【診療科目:糖尿病・内分泌内科_循環器内科_消化器内科_外科_肛門外科】【一般病床数:0療養病床数:31精神病床数:0感染症病床数:0合計病床数:31】大分県日田市元町１６－２２" }, "geometry": { "type": "Point", "coordinates": [ 130.936564, 33.316941 ] } },
{ "type": "Feature", "properties": { "ID": 4411009900000, "正式名称": "医療法人社団　淡窓会　大分友愛病院", "機関区分": 1, "都道府県コード": 44, "市区町村コード": 204, "所在地": "大分県日田市上野町１番地の１", "緯度": 33.311225, "経度": 130.92867, "url": "https://www.iryou.teikyouseido.mhlw.go.jp/znk-web/juminkanja/S2430/initialize?prefCd=44&kikanCd=1009900000&kikanKbn=1", "url2": null, "内容": "医療法人社団　淡窓会　大分友愛病院【1:病院】【診療科目:内科_精神科】【一般病床数:0療養病床数:0精神病床数:189感染症病床数:0合計病床数:189】大分県日田市上野町１番地の１" }, "geometry": { "type": "Point", "coordinates": [ 130.92867, 33.311225 ] } },
{ "type": "Feature", "properties": { "ID": 4411010000000, "正式名称": "医療法人社団　知心会　一ノ宮脳神経外科病院", "機関区分": 1, "都道府県コード": 44, "市区町村コード": 204, "所在地": "大分県日田市竹田新町", "緯度": 33.311317, "経度": 130.937347, "url": "https://www.iryou.teikyouseido.mhlw.go.jp/znk-web/juminkanja/S2430/initialize?prefCd=44&kikanCd=1010000000&kikanKbn=1", "url2": "http://www.ichinomiya-nh.com", "内容": "医療法人社団　知心会　一ノ宮脳神経外科病院【1:病院】【診療科目:外科_脳神経外科_脊椎脊髄外科_リハビリテーション科_放射線診断科】【一般病床数:80療養病床数:0精神病床数:0感染症病床数:0合計病床数:80】大分県日田市竹田新町" }, "geometry": { "type": "Point", "coordinates": [ 130.937347, 33.311317 ] } },
{ "type": "Feature", "properties": { "ID": 4411010100000, "正式名称": "医療法人　秋水堂　若宮病院", "機関区分": 1, "都道府県コード": 44, "市区町村コード": 204, "所在地": "大分県日田市南元町６番４１号", "緯度": 33.311612, "経度": 130.94097, "url": "https://www.iryou.teikyouseido.mhlw.go.jp/znk-web/juminkanja/S2430/initialize?prefCd=44&kikanCd=1010100000&kikanKbn=1", "url2": "http://www.shusuido.or.jp", "内容": "医療法人　秋水堂　若宮病院【1:病院】【診療科目:内科_呼吸器内科_循環器内科_神経内科_外科_整形外科_形成外科_リウマチ科_リハビリテーション科_麻酔科】【一般病床数:0療養病床数:40精神病床数:0感染症病床数:0合計病床数:40】大分県日田市南元町６番４１号" }, "geometry": { "type": "Point", "coordinates": [ 130.94097, 33.311612 ] } },
{ "type": "Feature", "properties": { "ID": 4411010200000, "正式名称": "医療法人　秋芳会　秋吉病院", "機関区分": 1, "都道府県コード": 44, "市区町村コード": 204, "所在地": "大分県日田市豆田町５番２０号", "緯度": 33.328613, "経度": 130.937813, "url": "https://www.iryou.teikyouseido.mhlw.go.jp/znk-web/juminkanja/S2430/initialize?prefCd=44&kikanCd=1010200000&kikanKbn=1", "url2": "http://akiyoshihp.jp/", "内容": "医療法人　秋芳会　秋吉病院【1:病院】【診療科目:内科_糖尿病内科_循環器内科_胃腸内科_外科_整形外科_リハビリテーション科】【一般病床数:0療養病床数:36精神病床数:0感染症病床数:0合計病床数:36】大分県日田市豆田町５番２０号" }, "geometry": { "type": "Point", "coordinates": [ 130.937813, 33.328613 ] } },
{ "type": "Feature", "properties": { "ID": 4411010300000, "正式名称": "医療法人　百花会　上野公園病院", "機関区分": 1, "都道府県コード": 44, "市区町村コード": 204, "所在地": "大分県日田市大字高瀬字篠原２２２６－１", "緯度": 33.299256, "経度": 130.923901, "url": "https://www.iryou.teikyouseido.mhlw.go.jp/znk-web/juminkanja/S2430/initialize?prefCd=44&kikanCd=1010300000&kikanKbn=1", "url2": "http://www.uenokoen-hospital.jp/", "内容": "医療法人　百花会　上野公園病院【1:病院】【診療科目:精神科_神経科_心療内科】【一般病床数:0療養病床数:0精神病床数:198感染症病床数:0合計病床数:198】大分県日田市大字高瀬字篠原２２２６－１" }, "geometry": { "type": "Point", "coordinates": [ 130.923901, 33.299256 ] } },
{ "type": "Feature", "properties": { "ID": 4411010400000, "正式名称": "医療法人豊堂　岩尾整形外科病院", "機関区分": 1, "都道府県コード": 44, "市区町村コード": 204, "所在地": "大分県日田市大字十二町字岸高５９５番地の１", "緯度": 33.321479, "経度": 130.926544, "url": "https://www.iryou.teikyouseido.mhlw.go.jp/znk-web/juminkanja/S2430/initialize?prefCd=44&kikanCd=1010400000&kikanKbn=1", "url2": "https://www.iwaoseikei.com", "内容": "医療法人豊堂　岩尾整形外科病院【1:病院】【診療科目:内科_整形外科_リウマチ科_リハビリテーション科_麻酔科】【一般病床数:60療養病床数:0精神病床数:0感染症病床数:0合計病床数:60】大分県日田市大字十二町字岸高５９５番地の１" }, "geometry": { "type": "Point", "coordinates": [ 130.926544, 33.321479 ] } },
{ "type": "Feature", "properties": { "ID": 4411010500000, "正式名称": "医療法人　悠然会　大河原病院", "機関区分": 1, "都道府県コード": 44, "市区町村コード": 204, "所在地": "大分県日田市隈２丁目３－１１", "緯度": 33.313878, "経度": 130.930292, "url": "https://www.iryou.teikyouseido.mhlw.go.jp/znk-web/juminkanja/S2430/initialize?prefCd=44&kikanCd=1010500000&kikanKbn=1", "url2": "okawara-hp.com", "内容": "医療法人　悠然会　大河原病院【1:病院】【診療科目:内科_循環器内科_胃腸内科_外科】【一般病床数:0療養病床数:34精神病床数:0感染症病床数:0合計病床数:34】大分県日田市隈２丁目３－１１" }, "geometry": { "type": "Point", "coordinates": [ 130.930292, 33.313878 ] } },
{ "type": "Feature", "properties": { "ID": 4411010600000, "正式名称": "大分県済生会日田病院", "機関区分": 1, "都道府県コード": 44, "市区町村コード": 204, "所在地": "大分県日田市大字三和６４３－７", "緯度": 33.345441, "経度": 130.94096, "url": "https://www.iryou.teikyouseido.mhlw.go.jp/znk-web/juminkanja/S2430/initialize?prefCd=44&kikanCd=1010600000&kikanKbn=1", "url2": "http://saiseikai.hita.oita.jp", "内容": "大分県済生会日田病院【1:病院】【診療科目:内科_血液内科_糖尿病・代謝内科_脳神経内科_呼吸器内科_心臓血管内科_消化器内科_腎臓内科_外科_脳神経外科_呼吸器外科_血管外科_消化器外科_乳腺外科_整形外科_形成外科_頸部外科_小児科_婦人科_皮膚科_歯科口腔外科_リハビリテーション科_放射線科_救急科_麻酔科】【一般病床数:195療養病床数:0精神病床数:0感染症病床数:4合計病床数:199】大分県日田市大字三和６４３－７" }, "geometry": { "type": "Point", "coordinates": [ 130.94096, 33.345441 ] } },
{ "type": "Feature", "properties": { "ID": 4411010700000, "正式名称": "奥村日田病院", "機関区分": 1, "都道府県コード": 44, "市区町村コード": 204, "所在地": "大分県日田市田島", "緯度": 33.317742, "経度": 130.945718, "url": "https://www.iryou.teikyouseido.mhlw.go.jp/znk-web/juminkanja/S2430/initialize?prefCd=44&kikanCd=1010700000&kikanKbn=1", "url2": "https://www.hita-soujin.jp/", "内容": "奥村日田病院【1:病院】【診療科目:精神科_心療内科】【一般病床数:0療養病床数:0精神病床数:132感染症病床数:0合計病床数:132】大分県日田市田島" }, "geometry": { "type": "Point", "coordinates": [ 130.945718, 33.317742 ] } },
{ "type": "Feature", "properties": { "ID": 4411010800000, "正式名称": "桂林病院", "機関区分": 1, "都道府県コード": 44, "市区町村コード": 204, "所在地": "大分県日田市城町１丁目２ー６１", "緯度": 33.326799, "経度": 130.941067, "url": "https://www.iryou.teikyouseido.mhlw.go.jp/znk-web/juminkanja/S2430/initialize?prefCd=44&kikanCd=1010800000&kikanKbn=1", "url2": "https://www.keirin-hospital.jp/", "内容": "桂林病院【1:病院】【診療科目:内科_循環器内科_胃腸内科_リハビリテーション科】【一般病床数:0療養病床数:40精神病床数:0感染症病床数:0合計病床数:40】大分県日田市城町１丁目２ー６１" }, "geometry": { "type": "Point", "coordinates": [ 130.941067, 33.326799 ] } },
{ "type": "Feature", "properties": { "ID": 4411010900000, "正式名称": "五反田病院", "機関区分": 1, "都道府県コード": 44, "市区町村コード": 204, "所在地": "大分県日田市若宮町３９５－１", "緯度": 33.308798, "経度": 130.942866, "url": "https://www.iryou.teikyouseido.mhlw.go.jp/znk-web/juminkanja/S2430/initialize?prefCd=44&kikanCd=1010900000&kikanKbn=1", "url2": "http://gotanda-hospital.jp/", "内容": "五反田病院【1:病院】【診療科目:内科_消化器内科_胃腸内科_外科_胃腸外科_大腸外科_肛門外科_大腸・肛門外科_整形外科_小児外科_リハビリテーション科_麻酔科】【一般病床数:60療養病床数:6精神病床数:0感染症病床数:0合計病床数:66】大分県日田市若宮町３９５－１" }, "geometry": { "type": "Point", "coordinates": [ 130.942866, 33.308798 ] } },
{ "type": "Feature", "properties": { "ID": 4411011100000, "正式名称": "聖陵岩里病院", "機関区分": 1, "都道府県コード": 44, "市区町村コード": 204, "所在地": "大分県日田市日ノ隈町２４２", "緯度": 33.316561, "経度": 130.92315, "url": "https://www.iryou.teikyouseido.mhlw.go.jp/znk-web/juminkanja/S2430/initialize?prefCd=44&kikanCd=1011100000&kikanKbn=1", "url2": "https://seiryou.or.jp/iwasato/", "内容": "聖陵岩里病院【1:病院】【診療科目:内科_糖尿病・代謝内科_呼吸器内科_循環器内科_消化器内科_神経内科_外科_消化器外科_リウマチ科_救急科】【一般病床数:55療養病床数:0精神病床数:0感染症病床数:0合計病床数:55】大分県日田市日ノ隈町２４２" }, "geometry": { "type": "Point", "coordinates": [ 130.92315, 33.316561 ] } },
{ "type": "Feature", "properties": { "ID": 4411011200000, "正式名称": "社会医療法人　長門莫記念会　長門記念病院", "機関区分": 1, "都道府県コード": 44, "市区町村コード": 205, "所在地": "大分県佐伯市鶴岡町", "緯度": 32.959382, "経度": 131.881739, "url": "https://www.iryou.teikyouseido.mhlw.go.jp/znk-web/juminkanja/S2430/initialize?prefCd=44&kikanCd=1011200000&kikanKbn=1", "url2": "http://www.nagato.or.jp/", "内容": "社会医療法人　長門莫記念会　長門記念病院【1:病院】【診療科目:内科_感染症内科_呼吸器内科_循環器内科_消化器内科_神経内科_外科_脳神経外科_脳外科_消化器外科_肛門外科_整形外科_形成外科_美容外科_眼科_耳鼻いんこう科_皮膚科_皮膚泌尿器科_泌尿器科_精神科_アレルギー科_リウマチ科_リハビリテーション科_放射線科_救急科_麻酔科】【一般病床数:164療養病床数:100精神病床数:0感染症病床数:0合計病床数:264】大分県佐伯市鶴岡町" }, "geometry": { "type": "Point", "coordinates": [ 131.881739, 32.959382 ] } },
{ "type": "Feature", "properties": { "ID": 4411011300000, "正式名称": "独立行政法人地域医療機能推進機構　南海医療センター", "機関区分": 1, "都道府県コード": 44, "市区町村コード": 205, "所在地": "大分県佐伯市常盤西町７番８号", "緯度": 32.965395, "経度": 131.899796, "url": "https://www.iryou.teikyouseido.mhlw.go.jp/znk-web/juminkanja/S2430/initialize?prefCd=44&kikanCd=1011300000&kikanKbn=1", "url2": "http://nankai.jcho.go.jp/", "内容": "独立行政法人地域医療機能推進機構　南海医療センター【1:病院】【診療科目:内科_血液内科_代謝・内分泌内科_呼吸器内科_循環器内科_消化器内科_腎臓内科_外科_脳神経外科_心臓血管外科_消化器外科_乳腺外科_整形外科_形成外科_耳鼻いんこう科_皮膚科_泌尿器科_リハビリテーション科_放射線科_救急科_麻酔科】【一般病床数:191療養病床数:0精神病床数:0感染症病床数:4合計病床数:195】大分県佐伯市常盤西町７番８号" }, "geometry": { "type": "Point", "coordinates": [ 131.899796, 32.965395 ] } },
{ "type": "Feature", "properties": { "ID": 4411011400000, "正式名称": "社会医療法人　敬和会　おおいた県南ホスピタル", "機関区分": 1, "都道府県コード": 44, "市区町村コード": 205, "所在地": "大分県佐伯市東町２７番１２号", "緯度": 32.963698, "経度": 131.909473, "url": "https://www.iryou.teikyouseido.mhlw.go.jp/znk-web/juminkanja/S2430/initialize?prefCd=44&kikanCd=1011400000&kikanKbn=1", "url2": "https://keiwakai.oita.jp/oitakennan/", "内容": "社会医療法人　敬和会　おおいた県南ホスピタル【1:病院】【診療科目:精神科_心療内科_老年精神科】【一般病床数:0療養病床数:0精神病床数:180感染症病床数:0合計病床数:180】大分県佐伯市東町２７番１２号" }, "geometry": { "type": "Point", "coordinates": [ 131.909473, 32.963698 ] } },
{ "type": "Feature", "properties": { "ID": 4411011500000, "正式名称": "佐伯中央病院", "機関区分": 1, "都道府県コード": 44, "市区町村コード": 205, "所在地": "大分県佐伯市常盤東町６－３０", "緯度": 32.965125, "経度": 131.902416, "url": "https://www.iryou.teikyouseido.mhlw.go.jp/znk-web/juminkanja/S2430/initialize?prefCd=44&kikanCd=1011500000&kikanKbn=1", "url2": "http://www.saikichuo.net", "内容": "佐伯中央病院【1:病院】【診療科目:内科_糖尿病内科_呼吸器内科_循環器内科_消化器内科_神経内科_緩和ケア内科_脳神経外科_整形外科_眼科_皮膚科_精神科_心療内科_リハビリテーション科_麻酔科】【一般病床数:42療養病床数:107精神病床数:0感染症病床数:0合計病床数:149】大分県佐伯市常盤東町６－３０" }, "geometry": { "type": "Point", "coordinates": [ 131.902416, 32.965125 ] } },
{ "type": "Feature", "properties": { "ID": 4411011600000, "正式名称": "曽根病院", "機関区分": 1, "都道府県コード": 44, "市区町村コード": 205, "所在地": "大分県佐伯市長島町２丁目１８番２４号", "緯度": 32.959404, "経度": 131.908993, "url": "https://www.iryou.teikyouseido.mhlw.go.jp/znk-web/juminkanja/S2430/initialize?prefCd=44&kikanCd=1011600000&kikanKbn=1", "url2": "http://sone-hp.jp", "内容": "曽根病院【1:病院】【診療科目:内科_循環器内科_胃腸内科_外科_脳神経外科_肛門外科_整形外科_リハビリテーション科】【一般病床数:72療養病床数:0精神病床数:0感染症病床数:0合計病床数:72】大分県佐伯市長島町２丁目１８番２４号" }, "geometry": { "type": "Point", "coordinates": [ 131.908993, 32.959404 ] } },
{ "type": "Feature", "properties": { "ID": 4411011900000, "正式名称": "西田病院", "機関区分": 1, "都道府県コード": 44, "市区町村コード": 205, "所在地": "大分県佐伯市鶴岡西町２丁目２６６番地", "緯度": 32.958644, "経度": 131.864035, "url": "https://www.iryou.teikyouseido.mhlw.go.jp/znk-web/juminkanja/S2430/initialize?prefCd=44&kikanCd=1011900000&kikanKbn=1", "url2": "http://www.nisida-med.jp/", "内容": "西田病院【1:病院】【診療科目:内科_糖尿病内科_内分泌内科_脳神経内科_呼吸器内科_循環器内科_消化器内科_腎臓内科_人工透析内科_外科_脳神経外科_消化器外科_肛門外科_整形外科_小児科_婦人科_眼科_皮膚科_泌尿器科_リウマチ科_リハビリテーション科_放射線科_麻酔科】【一般病床数:144療養病床数:73精神病床数:0感染症病床数:0合計病床数:217】大分県佐伯市鶴岡西町２丁目２６６番地" }, "geometry": { "type": "Point", "coordinates": [ 131.864035, 32.958644 ] } },
{ "type": "Feature", "properties": { "ID": 4411012000000, "正式名称": "御手洗病院", "機関区分": 1, "都道府県コード": 44, "市区町村コード": 205, "所在地": "大分県佐伯市蒲江蒲江浦２２１５－９", "緯度": 32.797376, "経度": 131.927304, "url": "https://www.iryou.teikyouseido.mhlw.go.jp/znk-web/juminkanja/S2430/initialize?prefCd=44&kikanCd=1012000000&kikanKbn=1", "url2": null, "内容": "御手洗病院【1:病院】【診療科目:内科_呼吸器内科_消化器内科_外科_整形外科_小児外科_リハビリテーション科】【一般病床数:40療養病床数:0精神病床数:0感染症病床数:0合計病床数:40】大分県佐伯市蒲江蒲江浦２２１５－９" }, "geometry": { "type": "Point", "coordinates": [ 131.927304, 32.797376 ] } },
{ "type": "Feature", "properties": { "ID": 4411012100000, "正式名称": "臼杵市医師会立コスモス病院", "機関区分": 1, "都道府県コード": 44, "市区町村コード": 206, "所在地": "大分県臼杵市大字戸室字長谷１１３１番１", "緯度": 33.123439, "経度": 131.778819, "url": "https://www.iryou.teikyouseido.mhlw.go.jp/znk-web/juminkanja/S2430/initialize?prefCd=44&kikanCd=1012100000&kikanKbn=1", "url2": "http://www.usukicosmos-med.or.jp/", "内容": "臼杵市医師会立コスモス病院【1:病院】【診療科目:内科_血液内科_糖尿病・内分泌内科_呼吸器内科_循環器内科_消化器内科_神経内科_外科_脳神経外科_消化器外科_整形外科_皮膚科_リウマチ科_リハビリテーション科_放射線科_救急科_麻酔科】【一般病床数:165療養病床数:0精神病床数:0感染症病床数:4合計病床数:169】大分県臼杵市大字戸室字長谷１１３１番１" }, "geometry": { "type": "Point", "coordinates": [ 131.778819, 33.123439 ] } },
{ "type": "Feature", "properties": { "ID": 4411012500000, "正式名称": "白川病院", "機関区分": 1, "都道府県コード": 44, "市区町村コード": 206, "所在地": "大分県臼杵市末広９３８番地", "緯度": 33.136414, "経度": 131.76955, "url": "https://www.iryou.teikyouseido.mhlw.go.jp/znk-web/juminkanja/S2430/initialize?prefCd=44&kikanCd=1012500000&kikanKbn=1", "url2": null, "内容": "白川病院【1:病院】【診療科目:内科_呼吸器内科_消化器内科_精神科_心療内科_老年精神科_リハビリテーション科】【一般病床数:0療養病床数:53精神病床数:120感染症病床数:0合計病床数:173】大分県臼杵市末広９３８番地" }, "geometry": { "type": "Point", "coordinates": [ 131.76955, 33.136414 ] } },
{ "type": "Feature", "properties": { "ID": 4411012600000, "正式名称": "津久見市医師会立津久見中央病院", "機関区分": 1, "都道府県コード": 44, "市区町村コード": 207, "所在地": "大分県津久見市大字千怒６０１１番地", "緯度": 33.072137, "経度": 131.887705, "url": "https://www.iryou.teikyouseido.mhlw.go.jp/znk-web/juminkanja/S2430/initialize?prefCd=44&kikanCd=1012600000&kikanKbn=1", "url2": "http://tsukumi.oita.med.or.jp/", "内容": "津久見市医師会立津久見中央病院【1:病院】【診療科目:内科_呼吸器内科_循環器内科_消化器内科_胃腸内科_外科_肛門外科_整形外科_小児科_耳鼻いんこう科_気管食道・耳鼻いんこう科_皮膚科_泌尿器科_心療内科_リハビリテーション科_放射線科】【一般病床数:120療養病床数:0精神病床数:0感染症病床数:0合計病床数:120】大分県津久見市大字千怒６０１１番地" }, "geometry": { "type": "Point", "coordinates": [ 131.887705, 33.072137 ] } },
{ "type": "Feature", "properties": { "ID": 4411012700000, "正式名称": "大久保病院", "機関区分": 1, "都道府県コード": 44, "市区町村コード": 208, "所在地": "大分県竹田市久住町栢木６０２６－２", "緯度": 33.05783, "経度": 131.33206, "url": "https://www.iryou.teikyouseido.mhlw.go.jp/znk-web/juminkanja/S2430/initialize?prefCd=44&kikanCd=1012700000&kikanKbn=1", "url2": "https://www.okubo-hp.com", "内容": "大久保病院【1:病院】【診療科目:内科_呼吸器内科_循環器内科_消化器内科_神経内科_膠原病内科_外科_脳神経外科_呼吸器外科_心臓血管外科_消化器外科_乳腺外科_整形外科_婦人科_泌尿器科_リハビリテーション科】【一般病床数:85療養病床数:0精神病床数:0感染症病床数:0合計病床数:85】大分県竹田市久住町栢木６０２６－２" }, "geometry": { "type": "Point", "coordinates": [ 131.33206, 33.05783 ] } },
{ "type": "Feature", "properties": { "ID": 4411012800000, "正式名称": "加藤病院", "機関区分": 1, "都道府県コード": 44, "市区町村コード": 208, "所在地": "大分県竹田市竹田１８５５番地", "緯度": 32.970484, "経度": 131.392569, "url": "https://www.iryou.teikyouseido.mhlw.go.jp/znk-web/juminkanja/S2430/initialize?prefCd=44&kikanCd=1012800000&kikanKbn=1", "url2": "http://yuujinkai.com/", "内容": "加藤病院【1:病院】【診療科目:内科_循環器内科_精神科_心療内科】【一般病床数:0療養病床数:0精神病床数:212感染症病床数:0合計病床数:212】大分県竹田市竹田１８５５番地" }, "geometry": { "type": "Point", "coordinates": [ 131.392569, 32.970484 ] } },
{ "type": "Feature", "properties": { "ID": 4411012900000, "正式名称": "竹田医師会病院", "機関区分": 1, "都道府県コード": 44, "市区町村コード": 208, "所在地": "大分県竹田市拝田原", "緯度": 32.958491, "経度": 131.379496, "url": "https://www.iryou.teikyouseido.mhlw.go.jp/znk-web/juminkanja/S2430/initialize?prefCd=44&kikanCd=1012900000&kikanKbn=1", "url2": "http://taketaisikaibyouin.com/", "内容": "竹田医師会病院【1:病院】【診療科目:内科_呼吸器内科_循環器内科_胃腸内科_外科_大腸・肛門外科_整形外科_小児科_泌尿器科_リハビリテーション科_放射線科_麻酔科】【一般病床数:84療養病床数:72精神病床数:0感染症病床数:0合計病床数:156】大分県竹田市拝田原" }, "geometry": { "type": "Point", "coordinates": [ 131.379496, 32.958491 ] } },
{ "type": "Feature", "properties": { "ID": 4411013000000, "正式名称": "玄々堂高田病院", "機関区分": 1, "都道府県コード": 44, "市区町村コード": 209, "所在地": "大分県豊後高田市界３７８番地２", "緯度": 33.548191, "経度": 131.427727, "url": "https://www.iryou.teikyouseido.mhlw.go.jp/znk-web/juminkanja/S2430/initialize?prefCd=44&kikanCd=1013000000&kikanKbn=1", "url2": "http://www.ag-holdings.jp/gengendo/takada/", "内容": "玄々堂高田病院【1:病院】【診療科目:内科_循環器内科_腎臓内科_人工透析内科_整形外科_リハビリテーション科】【一般病床数:46療養病床数:0精神病床数:0感染症病床数:0合計病床数:46】大分県豊後高田市界３７８番地２" }, "geometry": { "type": "Point", "coordinates": [ 131.427727, 33.548191 ] } },
{ "type": "Feature", "properties": { "ID": 4411013100000, "正式名称": "高田中央病院", "機関区分": 1, "都道府県コード": 44, "市区町村コード": 209, "所在地": "大分県豊後高田市新地１１７６番地１", "緯度": 33.555183, "経度": 131.44043, "url": "https://www.iryou.teikyouseido.mhlw.go.jp/znk-web/juminkanja/S2430/initialize?prefCd=44&kikanCd=1013100000&kikanKbn=1", "url2": "https://takachuo.com", "内容": "高田中央病院【1:病院】【診療科目:内科_血液内科_糖尿病内科_代謝・内分泌内科_呼吸器内科_循環器内科_消化器内科_胃腸内科_腎臓内科_肝臓内科_神経内科_リウマチ膠原病内科_外科_消化器外科_胃腸外科_乳腺外科_肛門外科_大腸・肛門外科_整形外科_形成外科_小児科_婦人科_眼科_皮膚科_泌尿器科_心療内科_リウマチ科_リハビリテーション科_放射線科】【一般病床数:138療養病床数:0精神病床数:0感染症病床数:0合計病床数:138】大分県豊後高田市新地１１７６番地１" }, "geometry": { "type": "Point", "coordinates": [ 131.44043, 33.555183 ] } },
{ "type": "Feature", "properties": { "ID": 4411013200000, "正式名称": "千嶋病院", "機関区分": 1, "都道府県コード": 44, "市区町村コード": 209, "所在地": "大分県豊後高田市呉崎７３８番地１", "緯度": 33.575751, "経度": 131.434034, "url": "https://www.iryou.teikyouseido.mhlw.go.jp/znk-web/juminkanja/S2430/initialize?prefCd=44&kikanCd=1013200000&kikanKbn=1", "url2": "https://www.chishimahp.com/", "内容": "千嶋病院【1:病院】【診療科目:精神科_心療内科_老年精神科】【一般病床数:0療養病床数:0精神病床数:196感染症病床数:0合計病床数:196】大分県豊後高田市呉崎７３８番地１" }, "geometry": { "type": "Point", "coordinates": [ 131.434034, 33.575751 ] } },
{ "type": "Feature", "properties": { "ID": 4411013300000, "正式名称": "医療法人オレンジ会　清和病院", "機関区分": 1, "都道府県コード": 44, "市区町村コード": 210, "所在地": "大分県杵築市船部２１６７－２０", "緯度": 33.445956, "経度": 131.597398, "url": "https://www.iryou.teikyouseido.mhlw.go.jp/znk-web/juminkanja/S2430/initialize?prefCd=44&kikanCd=1013300000&kikanKbn=1", "url2": "http://orange-h.jp", "内容": "医療法人オレンジ会　清和病院【1:病院】【診療科目:内科_精神科_心療内科】【一般病床数:0療養病床数:0精神病床数:126感染症病床数:0合計病床数:126】大分県杵築市船部２１６７－２０" }, "geometry": { "type": "Point", "coordinates": [ 131.597398, 33.445956 ] } },
{ "type": "Feature", "properties": { "ID": 4411013400000, "正式名称": "杵築市立山香病院", "機関区分": 1, "都道府県コード": 44, "市区町村コード": 210, "所在地": "大分県杵築市山香町大字野原１６１２番地１", "緯度": 33.445267, "経度": 131.508568, "url": "https://www.iryou.teikyouseido.mhlw.go.jp/znk-web/juminkanja/S2430/initialize?prefCd=44&kikanCd=1013400000&kikanKbn=1", "url2": "http://www.yamaga-hp.jp/", "内容": "杵築市立山香病院【1:病院】【診療科目:内科_循環器内科_胃腸内科_外科_胃腸外科_整形外科_小児科_眼科_耳鼻いんこう科_皮膚科_泌尿器科_リハビリテーション科_放射線科】【一般病床数:138療養病床数:0精神病床数:0感染症病床数:0合計病床数:138】大分県杵築市山香町大字野原１６１２番地１" }, "geometry": { "type": "Point", "coordinates": [ 131.508568, 33.445267 ] } },
{ "type": "Feature", "properties": { "ID": 4411013500000, "正式名称": "杵築中央病院", "機関区分": 1, "都道府県コード": 44, "市区町村コード": 210, "所在地": "大分県杵築市大字杵築１２０番地", "緯度": 33.415876, "経度": 131.623316, "url": "https://www.iryou.teikyouseido.mhlw.go.jp/znk-web/juminkanja/S2430/initialize?prefCd=44&kikanCd=1013500000&kikanKbn=1", "url2": "https://kc-hospital.or.jp/", "内容": "杵築中央病院【1:病院】【診療科目:内科_糖尿病内科_呼吸器内科_循環器内科_消化器内科_人工透析内科_肝臓内科_神経内科_外科_乳腺外科_整形外科_泌尿器科_アレルギー科_リハビリテーション科_放射線科_救急科】【一般病床数:60療養病床数:0精神病床数:0感染症病床数:0合計病床数:60】大分県杵築市大字杵築１２０番地" }, "geometry": { "type": "Point", "coordinates": [ 131.623316, 33.415876 ] } },
{ "type": "Feature", "properties": { "ID": 4411013700000, "正式名称": "医療法人　起愛会　宇佐病院", "機関区分": 1, "都道府県コード": 44, "市区町村コード": 211, "所在地": "大分県宇佐市南宇佐１６５５", "緯度": 33.531522, "経度": 131.374168, "url": "https://www.iryou.teikyouseido.mhlw.go.jp/znk-web/juminkanja/S2430/initialize?prefCd=44&kikanCd=1013700000&kikanKbn=1", "url2": "http://usa-psy.com/", "内容": "医療法人　起愛会　宇佐病院【1:病院】【診療科目:内科_精神科_心療内科】【一般病床数:0療養病床数:0精神病床数:248感染症病床数:0合計病床数:248】大分県宇佐市南宇佐１６５５" }, "geometry": { "type": "Point", "coordinates": [ 131.374168, 33.531522 ] } },
{ "type": "Feature", "properties": { "ID": 4411013800000, "正式名称": "医療法人　興仁会　桑尾病院", "機関区分": 1, "都道府県コード": 44, "市区町村コード": 211, "所在地": "大分県宇佐市四日市１１８", "緯度": 33.534604, "経度": 131.326788, "url": "https://www.iryou.teikyouseido.mhlw.go.jp/znk-web/juminkanja/S2430/initialize?prefCd=44&kikanCd=1013800000&kikanKbn=1", "url2": "http://www.kuwao.jp/", "内容": "医療法人　興仁会　桑尾病院【1:病院】【診療科目:内科_外科_耳鼻いんこう科】【一般病床数:0療養病床数:32精神病床数:0感染症病床数:0合計病床数:32】大分県宇佐市四日市１１８" }, "geometry": { "type": "Point", "coordinates": [ 131.326788, 33.534604 ] } },
{ "type": "Feature", "properties": { "ID": 4411013900000, "正式名称": "医療法人　信和会　和田病院", "機関区分": 1, "都道府県コード": 44, "市区町村コード": 211, "所在地": "大分県宇佐市出光１６５番地の１", "緯度": 33.529447, "経度": 131.412106, "url": "https://www.iryou.teikyouseido.mhlw.go.jp/znk-web/juminkanja/S2430/initialize?prefCd=44&kikanCd=1013900000&kikanKbn=1", "url2": "https://wadahp.com/", "内容": "医療法人　信和会　和田病院【1:病院】【診療科目:内科_呼吸器内科_循環器内科_消化器内科_外科_脳神経外科_消化器外科_肛門外科_整形外科_皮膚科_泌尿器科_リウマチ科_リハビリテーション科】【一般病床数:33療養病床数:71精神病床数:0感染症病床数:0合計病床数:104】大分県宇佐市出光１６５番地の１" }, "geometry": { "type": "Point", "coordinates": [ 131.412106, 33.529447 ] } },
{ "type": "Feature", "properties": { "ID": 4411014100000, "正式名称": "佐藤第一病院", "機関区分": 1, "都道府県コード": 44, "市区町村コード": 211, "所在地": "大分県宇佐市大字法鏡寺７７の１", "緯度": 33.5264, "経度": 131.343326, "url": "https://www.iryou.teikyouseido.mhlw.go.jp/znk-web/juminkanja/S2430/initialize?prefCd=44&kikanCd=1014100000&kikanKbn=1", "url2": "https://sato-d1.com", "内容": "佐藤第一病院【1:病院】【診療科目:内科_内分泌内科_糖尿病・代謝内科_呼吸器内科_循環器内科_消化器内科_神経内科_外科_脳神経外科_消化器外科_乳腺外科_肛門外科_整形外科_リウマチ科_リハビリテーション科_放射線診断科_麻酔科】【一般病床数:90療養病床数:90精神病床数:0感染症病床数:0合計病床数:180】大分県宇佐市大字法鏡寺７７の１" }, "geometry": { "type": "Point", "coordinates": [ 131.343326, 33.5264 ] } },
{ "type": "Feature", "properties": { "ID": 4411014200000, "正式名称": "宇佐高田医師会病院", "機関区分": 1, "都道府県コード": 44, "市区町村コード": 211, "所在地": "大分県宇佐市南宇佐６３５", "緯度": 33.526907, "経度": 131.38597, "url": "https://www.iryou.teikyouseido.mhlw.go.jp/znk-web/juminkanja/S2430/initialize?prefCd=44&kikanCd=1014200000&kikanKbn=1", "url2": "https://www.utihp.jp/", "内容": "宇佐高田医師会病院【1:病院】【診療科目:内科_血液内科_呼吸器内科_循環器内科_消化器内科_腎臓内科_外科_消化器外科_乳腺外科_リハビリテーション科_放射線科_麻酔科】【一般病床数:106療養病床数:0精神病床数:0感染症病床数:4合計病床数:110】大分県宇佐市南宇佐６３５" }, "geometry": { "type": "Point", "coordinates": [ 131.38597, 33.526907 ] } },
{ "type": "Feature", "properties": { "ID": 4411014300000, "正式名称": "宇佐中央内科病院", "機関区分": 1, "都道府県コード": 44, "市区町村コード": 211, "所在地": "大分県宇佐市江須賀", "緯度": 33.555453, "経度": 131.356963, "url": "https://www.iryou.teikyouseido.mhlw.go.jp/znk-web/juminkanja/S2430/initialize?prefCd=44&kikanCd=1014300000&kikanKbn=1", "url2": "https://usa-chuo.jp/", "内容": "宇佐中央内科病院【1:病院】【診療科目:内科_糖尿病内科_呼吸器内科_循環器内科_消化器内科_胃腸内科_肝臓内科_神経内科_腫瘍内科_漢方内科_内視鏡内科_緩和ケア内科】【一般病床数:48療養病床数:0精神病床数:0感染症病床数:0合計病床数:48】大分県宇佐市江須賀" }, "geometry": { "type": "Point", "coordinates": [ 131.356963, 33.555453 ] } },
{ "type": "Feature", "properties": { "ID": 4411014400000, "正式名称": "小野内科病院", "機関区分": 1, "都道府県コード": 44, "市区町村コード": 211, "所在地": "大分県宇佐市南敷田７０５－１", "緯度": 33.549357, "経度": 131.27877, "url": "https://www.iryou.teikyouseido.mhlw.go.jp/znk-web/juminkanja/S2430/initialize?prefCd=44&kikanCd=1014400000&kikanKbn=1", "url2": "https://ono-naika.jp/", "内容": "小野内科病院【1:病院】【診療科目:内科_呼吸器内科_循環器内科_消化器内科_神経内科_アレルギー科_リハビリテーション科】【一般病床数:30療養病床数:20精神病床数:0感染症病床数:0合計病床数:50】大分県宇佐市南敷田７０５－１" }, "geometry": { "type": "Point", "coordinates": [ 131.27877, 33.549357 ] } },
{ "type": "Feature", "properties": { "ID": 4411014800000, "正式名称": "帰巖会　みえ病院", "機関区分": 1, "都道府県コード": 44, "市区町村コード": 212, "所在地": "大分県豊後大野市三重町赤嶺１２５０番地１", "緯度": 32.988199, "経度": 131.600723, "url": "https://www.iryou.teikyouseido.mhlw.go.jp/znk-web/juminkanja/S2430/initialize?prefCd=44&kikanCd=1014800000&kikanKbn=1", "url2": "http://kigankai.or.jp/", "内容": "帰巖会　みえ病院【1:病院】【診療科目:内科_糖尿病内科_呼吸器内科_循環器内科_消化器内科_腎臓内科_人工透析内科_肝臓内科_神経内科_内視鏡内科_外科_脳神経外科_心臓血管外科_消化器外科_大腸・肛門外科_整形外科_皮膚科_泌尿器科_精神科_歯科_歯科口腔外科_リウマチ科_リハビリテーション科_放射線科_麻酔科】【一般病床数:110療養病床数:0精神病床数:0感染症病床数:0合計病床数:110】大分県豊後大野市三重町赤嶺１２５０番地１" }, "geometry": { "type": "Point", "coordinates": [ 131.600723, 32.988199 ] } },
{ "type": "Feature", "properties": { "ID": 4411014900000, "正式名称": "豊後大野市民病院", "機関区分": 1, "都道府県コード": 44, "市区町村コード": 212, "所在地": "大分県豊後大野市緒方町馬場２７６番地", "緯度": 32.969883, "経度": 131.476212, "url": "https://www.iryou.teikyouseido.mhlw.go.jp/znk-web/juminkanja/S2430/initialize?prefCd=44&kikanCd=1014900000&kikanKbn=1", "url2": "http://www.bungo-ohno-hp.jp/", "内容": "豊後大野市民病院【1:病院】【診療科目:内科_血液内科_糖尿病・内分泌内科_呼吸器内科_循環器内科_消化器内科_腎臓内科_神経内科_外科_脳神経外科_消化器外科_乳腺外科_整形外科_小児科_婦人科_眼科_耳鼻いんこう科_皮膚科_泌尿器科_リハビリテーション科_放射線科】【一般病床数:156療養病床数:39精神病床数:0感染症病床数:4合計病床数:199】大分県豊後大野市緒方町馬場２７６番地" }, "geometry": { "type": "Point", "coordinates": [ 131.476212, 32.969883 ] } },
{ "type": "Feature", "properties": { "ID": 4411015000000, "正式名称": "福島病院", "機関区分": 1, "都道府県コード": 44, "市区町村コード": 212, "所在地": "大分県豊後大野市三重町市場２３１番地", "緯度": 32.981504, "経度": 131.586661, "url": "https://www.iryou.teikyouseido.mhlw.go.jp/znk-web/juminkanja/S2430/initialize?prefCd=44&kikanCd=1015000000&kikanKbn=1", "url2": "https://www.shinseikai-fukushima.com/", "内容": "福島病院【1:病院】【診療科目:内科_糖尿病内科_呼吸器内科_循環器内科_消化器内科_腎臓内科_人工透析内科_腫瘍内科_外科】【一般病床数:60療養病床数:0精神病床数:0感染症病床数:0合計病床数:60】大分県豊後大野市三重町市場２３１番地" }, "geometry": { "type": "Point", "coordinates": [ 131.586661, 32.981504 ] } },
{ "type": "Feature", "properties": { "ID": 4411015400000, "正式名称": "大分大学医学部附属病院", "機関区分": 1, "都道府県コード": 44, "市区町村コード": 213, "所在地": "大分県由布市挾間町医大ケ丘１丁目１番地", "緯度": 33.210309, "経度": 131.535144, "url": "https://www.iryou.teikyouseido.mhlw.go.jp/znk-web/juminkanja/S2430/initialize?prefCd=44&kikanCd=1015400000&kikanKbn=1", "url2": "http://www.med.oita-u.ac.jp/hospital/index.html", "内容": "大分大学医学部附属病院【1:病院】【診療科目:内科_血液内科_糖尿病・内分泌内科_脳神経内科_呼吸器内科_循環器内科_消化器内科_腎臓内科_神経内科_腫瘍内科_膠原病内科、総合内科・総合診療科_脳神経外科_呼吸器外科_心臓血管外科_消化器外科_乳腺外科_整形外科_形成外科_小児科_児童精神科_小児外科_神経小児科_産婦人科_眼科_頭頸部・耳鼻いんこう科_皮膚科_腎臓・泌尿器科_精神科_歯科口腔外科_アレルギー科_リウマチ科_リハビリテーション科_放射線科_病理診断科_救急科_麻酔科】【一般病床数:588療養病床数:0精神病床数:30感染症病床数:0合計病床数:618】大分県由布市挾間町医大ケ丘１丁目１番地" }, "geometry": { "type": "Point", "coordinates": [ 131.535144, 33.210309 ] } },
{ "type": "Feature", "properties": { "ID": 4411015500000, "正式名称": "日野病院", "機関区分": 1, "都道府県コード": 44, "市区町村コード": 213, "所在地": "大分県由布市湯布院町川南２８０番地", "緯度": 33.257079, "経度": 131.358763, "url": "https://www.iryou.teikyouseido.mhlw.go.jp/znk-web/juminkanja/S2430/initialize?prefCd=44&kikanCd=1015500000&kikanKbn=1", "url2": null, "内容": "日野病院【1:病院】【診療科目:内科_呼吸器内科_循環器内科_消化器内科_老年内科_外科_肛門外科_整形外科_小児科_産婦人科_耳鼻いんこう科_アレルギー科_リハビリテーション科】【一般病床数:60療養病床数:0精神病床数:0感染症病床数:0合計病床数:60】大分県由布市湯布院町川南２８０番地" }, "geometry": { "type": "Point", "coordinates": [ 131.358763, 33.257079 ] } },
{ "type": "Feature", "properties": { "ID": 4411015600000, "正式名称": "独立行政法人地域医療機能推進機構　湯布院病院", "機関区分": 1, "都道府県コード": 44, "市区町村コード": 213, "所在地": "大分県由布市湯布院町川南２５２", "緯度": 33.256848, "経度": 131.362903, "url": "https://www.iryou.teikyouseido.mhlw.go.jp/znk-web/juminkanja/S2430/initialize?prefCd=44&kikanCd=1015600000&kikanKbn=1", "url2": "https://yufuin.jcho.go.jp", "内容": "独立行政法人地域医療機能推進機構　湯布院病院【1:病院】【診療科目:内科_糖尿病内科_循環器内科_消化器内科_神経内科_脳神経外科_整形外科_眼科_皮膚科_泌尿器科_心療内科_リハビリテーション科_放射線科】【一般病床数:147療養病床数:52精神病床数:0感染症病床数:0合計病床数:199】大分県由布市湯布院町川南２５２" }, "geometry": { "type": "Point", "coordinates": [ 131.362903, 33.256848 ] } },
{ "type": "Feature", "properties": { "ID": 4411015700000, "正式名称": "あおぞら病院", "機関区分": 1, "都道府県コード": 44, "市区町村コード": 214, "所在地": "大分県国東市国東町小原２６５０番地", "緯度": 33.544879, "経度": 131.73853, "url": "https://www.iryou.teikyouseido.mhlw.go.jp/znk-web/juminkanja/S2430/initialize?prefCd=44&kikanCd=1015700000&kikanKbn=1", "url2": "http://www.aozora-hsp.jp/", "内容": "あおぞら病院【1:病院】【診療科目:内科_血液内科_脳神経内科_循環器内科_腎臓内科_人工透析内科_整形外科_耳鼻いんこう科_リハビリテーション科_放射線科】【一般病床数:54療養病床数:0精神病床数:0感染症病床数:0合計病床数:54】大分県国東市国東町小原２６５０番地" }, "geometry": { "type": "Point", "coordinates": [ 131.73853, 33.544879 ] } },
{ "type": "Feature", "properties": { "ID": 4411015800000, "正式名称": "医療法人二豊会　国見病院", "機関区分": 1, "都道府県コード": 44, "市区町村コード": 214, "所在地": "大分県国東市国見町伊美１９６８番地", "緯度": 33.621481, "経度": 131.605225, "url": "https://www.iryou.teikyouseido.mhlw.go.jp/znk-web/juminkanja/S2430/initialize?prefCd=44&kikanCd=1015800000&kikanKbn=1", "url2": "https://nihoukai-kunimi.com/", "内容": "医療法人二豊会　国見病院【1:病院】【診療科目:内科_呼吸器内科_循環器内科_消化器内科_外科_呼吸器外科_皮膚科_リハビリテーション科】【一般病床数:0療養病床数:30精神病床数:0感染症病床数:0合計病床数:30】大分県国東市国見町伊美１９６８番地" }, "geometry": { "type": "Point", "coordinates": [ 131.605225, 33.621481 ] } },
{ "type": "Feature", "properties": { "ID": 4411015900000, "正式名称": "国東市民病院", "機関区分": 1, "都道府県コード": 44, "市区町村コード": 214, "所在地": "大分県国東市安岐町下原１４５６番地", "緯度": 33.467285, "経度": 131.719894, "url": "https://www.iryou.teikyouseido.mhlw.go.jp/znk-web/juminkanja/S2430/initialize?prefCd=44&kikanCd=1015900000&kikanKbn=1", "url2": "http://www.kunisaki-hp.jp/", "内容": "国東市民病院【1:病院】【診療科目:内科_呼吸器内科_循環器内科_消化器内科_神経内科_外科_脳神経外科_消化器外科_肛門外科_整形外科_小児科_産婦人科_耳鼻いんこう科_皮膚科_泌尿器科_精神科_歯科口腔外科_リハビリテーション科_放射線科_麻酔科】【一般病床数:145療養病床数:50精神病床数:0感染症病床数:4合計病床数:199】大分県国東市安岐町下原１４５６番地" }, "geometry": { "type": "Point", "coordinates": [ 131.719894, 33.467285 ] } },
{ "type": "Feature", "properties": { "ID": 4411016000000, "正式名称": "サンライズ酒井病院", "機関区分": 1, "都道府県コード": 44, "市区町村コード": 341, "所在地": "大分県速見郡日出町３１５６番地１", "緯度": 33.370356, "経度": 131.529007, "url": "https://www.iryou.teikyouseido.mhlw.go.jp/znk-web/juminkanja/S2430/initialize?prefCd=44&kikanCd=1016000000&kikanKbn=1", "url2": "http://www.heiseikai.com/", "内容": "サンライズ酒井病院【1:病院】【診療科目:内科_循環器内科_消化器内科_外科_脳神経外科_整形外科_婦人科_リウマチ科_リハビリテーション科_麻酔科】【一般病床数:99療養病床数:43精神病床数:0感染症病床数:0合計病床数:142】大分県速見郡日出町３１５６番地１" }, "geometry": { "type": "Point", "coordinates": [ 131.529007, 33.370356 ] } },
{ "type": "Feature", "properties": { "ID": 4411016100000, "正式名称": "鈴木病院", "機関区分": 1, "都道府県コード": 44, "市区町村コード": 341, "所在地": "大分県速見郡日出町日出町３９０４－６", "緯度": 33.37385, "経度": 131.528513, "url": "https://www.iryou.teikyouseido.mhlw.go.jp/znk-web/juminkanja/S2430/initialize?prefCd=44&kikanCd=1016100000&kikanKbn=1", "url2": "https://suzuki-hp.or.jp", "内容": "鈴木病院【1:病院】【診療科目:内科_呼吸器内科_循環器内科_消化器内科_外科_肛門外科_整形外科_泌尿器科_リハビリテーション科_放射線科】【一般病床数:40療養病床数:0精神病床数:0感染症病床数:0合計病床数:40】大分県速見郡日出町日出町３９０４－６" }, "geometry": { "type": "Point", "coordinates": [ 131.528513, 33.37385 ] } },
{ "type": "Feature", "properties": { "ID": 4411016200000, "正式名称": "日出児玉病院", "機関区分": 1, "都道府県コード": 44, "市区町村コード": 341, "所在地": "大分県速見郡日出町川崎８３７－１", "緯度": 33.367241, "経度": 131.54473, "url": "https://www.iryou.teikyouseido.mhlw.go.jp/znk-web/juminkanja/S2430/initialize?prefCd=44&kikanCd=1016200000&kikanKbn=1", "url2": "http://www.hiji-kodama.jp/", "内容": "日出児玉病院【1:病院】【診療科目:内科_呼吸器内科_循環器内科_消化器内科_外科_消化器外科_整形外科_アレルギー科_リハビリテーション科】【一般病床数:56療養病床数:0精神病床数:0感染症病床数:0合計病床数:56】大分県速見郡日出町川崎８３７－１" }, "geometry": { "type": "Point", "coordinates": [ 131.54473, 33.367241 ] } },
{ "type": "Feature", "properties": { "ID": 4411016300000, "正式名称": "医療法人　啓燈会　玖珠記念病院", "機関区分": 1, "都道府県コード": 44, "市区町村コード": 462, "所在地": "大分県玖珠郡玖珠町塚脇６３３番地の２", "緯度": 33.2746, "経度": 131.157894, "url": "https://www.iryou.teikyouseido.mhlw.go.jp/znk-web/juminkanja/S2430/initialize?prefCd=44&kikanCd=1016300000&kikanKbn=1", "url2": null, "内容": "医療法人　啓燈会　玖珠記念病院【1:病院】【診療科目:内科_消化器内科_外科_消化器外科_リウマチ科_リハビリテーション科】【一般病床数:48療養病床数:0精神病床数:0感染症病床数:0合計病床数:48】大分県玖珠郡玖珠町塚脇６３３番地の２" }, "geometry": { "type": "Point", "coordinates": [ 131.157894, 33.2746 ] } },
{ "type": "Feature", "properties": { "ID": 4411016400000, "正式名称": "小中病院", "機関区分": 1, "都道府県コード": 44, "市区町村コード": 462, "所在地": "大分県玖珠郡玖珠町塚脇１２３", "緯度": 33.278705, "経度": 131.150333, "url": "https://www.iryou.teikyouseido.mhlw.go.jp/znk-web/juminkanja/S2430/initialize?prefCd=44&kikanCd=1016400000&kikanKbn=1", "url2": "http://website2.infomity.net/8310120/", "内容": "小中病院【1:病院】【診療科目:内科_胃腸内科_外科_整形外科_小児科_リハビリテーション科】【一般病床数:39療養病床数:0精神病床数:0感染症病床数:0合計病床数:39】大分県玖珠郡玖珠町塚脇１２３" }, "geometry": { "type": "Point", "coordinates": [ 131.150333, 33.278705 ] } },
{ "type": "Feature", "properties": { "ID": 4411016500000, "正式名称": "協心橋病院", "機関区分": 1, "都道府県コード": 44, "市区町村コード": 462, "所在地": "大分県玖珠郡玖珠町大字帆足３５７番１", "緯度": 33.280806, "経度": 131.153716, "url": "https://www.iryou.teikyouseido.mhlw.go.jp/znk-web/juminkanja/S2430/initialize?prefCd=44&kikanCd=1016500000&kikanKbn=1", "url2": "https://www.kyoushinbashi-hospital.com", "内容": "協心橋病院【1:病院】【診療科目:内科_整形外科_リハビリテーション科】【一般病床数:40療養病床数:18精神病床数:0感染症病床数:0合計病床数:58】大分県玖珠郡玖珠町大字帆足３５７番１" }, "geometry": { "type": "Point", "coordinates": [ 131.153716, 33.280806 ] } },
{ "type": "Feature", "properties": { "ID": 4412016100000, "正式名称": "医療法人　中津第一病院", "機関区分": 1, "都道府県コード": 44, "市区町村コード": 203, "所在地": "大分県中津市宮夫", "緯度": 33.588445, "経度": 131.208115, "url": "https://www.iryou.teikyouseido.mhlw.go.jp/znk-web/juminkanja/S2430/initialize?prefCd=44&kikanCd=2016100000&kikanKbn=1", "url2": "http://www.nakatsu-daiichi.jp/", "内容": "医療法人　中津第一病院【1:病院】【診療科目:内科_糖尿病内科_消化器内科_腎臓内科_人工透析内科_消化器外科_形成外科_泌尿器科_リハビリテーション科_麻酔科】【一般病床数:126療養病床数:54精神病床数:0感染症病床数:0合計病床数:180】大分県中津市宮夫" }, "geometry": { "type": "Point", "coordinates": [ 131.208115, 33.588445 ] } },
{ "type": "Feature", "properties": { "ID": 4412028200000, "正式名称": "社会医療法人関愛会　坂ノ市病院", "機関区分": 1, "都道府県コード": 44, "市区町村コード": 201, "所在地": "大分県大分市坂ノ市中央１丁目２６９番", "緯度": 33.234566, "経度": 131.752982, "url": "https://www.iryou.teikyouseido.mhlw.go.jp/znk-web/juminkanja/S2430/initialize?prefCd=44&kikanCd=2028200000&kikanKbn=1", "url2": "https://sakanoichi-hosp.jp/", "内容": "社会医療法人関愛会　坂ノ市病院【1:病院】【診療科目:内科_消化器内科_小児科_リハビリテーション科】【一般病床数:36療養病床数:0精神病床数:0感染症病床数:0合計病床数:36】大分県大分市坂ノ市中央１丁目２６９番" }, "geometry": { "type": "Point", "coordinates": [ 131.752982, 33.234566 ] } },
{ "type": "Feature", "properties": { "ID": 4412029600000, "正式名称": "臼杵病院", "機関区分": 1, "都道府県コード": 44, "市区町村コード": 206, "所在地": "大分県臼杵市江無田１１５４番地１", "緯度": 33.125166, "経度": 131.780135, "url": "https://www.iryou.teikyouseido.mhlw.go.jp/znk-web/juminkanja/S2430/initialize?prefCd=44&kikanCd=2029600000&kikanKbn=1", "url2": "http://usuki-hospital.or.jp/", "内容": "臼杵病院【1:病院】【診療科目:内科_循環器内科_消化器内科_腎臓内科_人工透析内科_内視鏡内科_外科_脳神経外科_心臓血管外科_消化器外科_大腸外科_肛門外科_大腸・肛門外科_整形外科_精神科_歯科_リハビリテーション科】【一般病床数:33療養病床数:30精神病床数:0感染症病床数:0合計病床数:63】大分県臼杵市江無田１１５４番地１" }, "geometry": { "type": "Point", "coordinates": [ 131.780135, 33.125166 ] } },
{ "type": "Feature", "properties": { "ID": 4412045200000, "正式名称": "社会医療法人関愛会　大東よつば病院", "機関区分": 1, "都道府県コード": 44, "市区町村コード": 201, "所在地": "大分県大分市松岡１９４６番地", "緯度": 33.175464, "経度": 131.671631, "url": "https://www.iryou.teikyouseido.mhlw.go.jp/znk-web/juminkanja/S2430/initialize?prefCd=44&kikanCd=2045200000&kikanKbn=1", "url2": null, "内容": "社会医療法人関愛会　大東よつば病院【1:病院】【診療科目:内科_呼吸器内科_循環器内科_リハビリテーション科】【一般病床数:45療養病床数:0精神病床数:0感染症病床数:0合計病床数:45】大分県大分市松岡１９４６番地" }, "geometry": { "type": "Point", "coordinates": [ 131.671631, 33.175464 ] } },
{ "type": "Feature", "properties": { "ID": 4414410412177, "正式名称": "医療法人石田記念会　日田リハビリテーション病院", "機関区分": 1, "都道府県コード": 44, "市区町村コード": 204, "所在地": "大分県日田市上手町９番地", "緯度": 33.333607, "経度": 130.942607, "url": "https://www.iryou.teikyouseido.mhlw.go.jp/znk-web/juminkanja/S2430/initialize?prefCd=44&kikanCd=4410412177&kikanKbn=1", "url2": "https://hitariha.jp/", "内容": "医療法人石田記念会　日田リハビリテーション病院【1:病院】【診療科目:整形外科_リウマチ科_リハビリテーション科】【一般病床数:0療養病床数:41精神病床数:0感染症病床数:0合計病床数:41】大分県日田市上手町９番地" }, "geometry": { "type": "Point", "coordinates": [ 130.942607, 33.333607 ] } }
]
}
