{
"type": "FeatureCollection",
"name": "geo_44_短期入所生活介護",
"crs": { "type": "name", "properties": { "name": "urn:ogc:def:crs:OGC:1.3:CRS84" } },
"features": [
{ "type": "Feature", "properties": { "内容": "ショートステイハウス狐兎如庵【短期入所生活介護】大分県大分市大字野田1085番地", "url": "https://www.kaigokensaku.mhlw.go.jp/44/index.php?action_kouhyou_detail_004_kani=true&JigyosyoCd=4470107352-00&ServiceCd=210&Type=search", "url2": "http://www.hakuai.org/sub1/sub2/kotokoto.html" }, "geometry": { "type": "Point", "coordinates": [ 131.537229135412645, 33.19819541776554 ] } },
{ "type": "Feature", "properties": { "内容": "ショートステイ中島【短期入所生活介護】大分県大分市中島中央１丁目１番８号ケアガーデンおおつか", "url": "https://www.kaigokensaku.mhlw.go.jp/44/index.php?action_kouhyou_detail_004_kani=true&JigyosyoCd=4470110364-00&ServiceCd=210&Type=search", "url2": "https://otsuka-mc.jp/" }, "geometry": { "type": "Point", "coordinates": [ 131.612230502377315, 33.242933738631528 ] } },
{ "type": "Feature", "properties": { "内容": "ショートステイおおつか【短期入所生活介護】大分県大分市住吉町１丁目２番１６号", "url": "https://www.kaigokensaku.mhlw.go.jp/44/index.php?action_kouhyou_detail_004_kani=true&JigyosyoCd=4470105042-00&ServiceCd=210&Type=search", "url2": "http:/otsuka-mc.jp/" }, "geometry": { "type": "Point", "coordinates": [ 131.605255800000037, 33.2454017 ] } },
{ "type": "Feature", "properties": { "内容": "ショートステイ山桜花【短期入所生活介護】大分県大分市大字寒田486番26", "url": "https://www.kaigokensaku.mhlw.go.jp/44/index.php?action_kouhyou_detail_004_kani=true&JigyosyoCd=4470108582-00&ServiceCd=210&Type=search", "url2": "http://www.tenjukai.com" }, "geometry": { "type": "Point", "coordinates": [ 131.606142699999964, 33.1811689 ] } },
{ "type": "Feature", "properties": { "内容": "介護老人保健施設　陽光苑【短期入所生活介護】大分県大分市大字中戸次4525番地", "url": "https://www.kaigokensaku.mhlw.go.jp/44/index.php?action_kouhyou_detail_004_kani=true&JigyosyoCd=4450180031-00&ServiceCd=210&Type=search", "url2": "http://www.tenshindo.org/" }, "geometry": { "type": "Point", "coordinates": [ 131.656100400000014, 33.1556287 ] } },
{ "type": "Feature", "properties": { "内容": "ショートステイ　BASARA【短期入所生活介護】大分県大分市大字三芳1305番地の1", "url": "https://www.kaigokensaku.mhlw.go.jp/44/index.php?action_kouhyou_detail_004_kani=true&JigyosyoCd=4470110414-00&ServiceCd=210&Type=search", "url2": "https://sanfukai.jp" }, "geometry": { "type": "Point", "coordinates": [ 131.576271889804502, 33.226457908487966 ] } },
{ "type": "Feature", "properties": { "内容": "Ｇｒｅｅｎガーデン南大分ショートステイ【短期入所生活介護】大分市上田町一丁目12番５号", "url": "https://www.kaigokensaku.mhlw.go.jp/44/index.php?action_kouhyou_detail_004_kani=true&JigyosyoCd=4470109184-00&ServiceCd=210&Type=search", "url2": "http://taisyoukai.jp/" }, "geometry": { "type": "Point", "coordinates": [ 131.599984400000039, 33.2174485 ] } },
{ "type": "Feature", "properties": { "内容": "ショートステイみなはるの里【短期入所生活介護】大分県大分市大字皆春262番地1", "url": "https://www.kaigokensaku.mhlw.go.jp/44/index.php?action_kouhyou_detail_004_kani=true&JigyosyoCd=4470108681-00&ServiceCd=210&Type=search", "url2": "https://www.minaharuno-sato.com" }, "geometry": { "type": "Point", "coordinates": [ 131.676496796958901, 33.236635939377685 ] } },
{ "type": "Feature", "properties": { "内容": "清静園指定短期入所生活介護事業所【短期入所生活介護】大分県大分市大字竹中５２６８番地", "url": "https://www.kaigokensaku.mhlw.go.jp/44/index.php?action_kouhyou_detail_004_kani=true&JigyosyoCd=4470100894-00&ServiceCd=210&Type=search", "url2": "http://www.seijyoen.or.jp/" }, "geometry": { "type": "Point", "coordinates": [ 131.6444629, 33.1283644 ] } },
{ "type": "Feature", "properties": { "内容": "庄の原苑ショートステイサービスセンター【短期入所生活介護】大分県大分市大字荏隈字庄の原1798番地", "url": "https://www.kaigokensaku.mhlw.go.jp/44/index.php?action_kouhyou_detail_004_kani=true&JigyosyoCd=4470101058-00&ServiceCd=210&Type=search", "url2": "http://shonoharuen.com/" }, "geometry": { "type": "Point", "coordinates": [ 131.572959395106523, 33.221826813445475 ] } },
{ "type": "Feature", "properties": { "内容": "誠寿園ショートステイサービス【短期入所生活介護】大分県大分市大字中戸次6022番地1", "url": "https://www.kaigokensaku.mhlw.go.jp/44/index.php?action_kouhyou_detail_004_kani=true&JigyosyoCd=4470101207-00&ServiceCd=210&Type=search", "url2": "https://seijuen.org" }, "geometry": { "type": "Point", "coordinates": [ 131.654932817958411, 33.156550591897357 ] } },
{ "type": "Feature", "properties": { "内容": "特別養護老人ホーム　そうだ藤の森【短期入所生活介護】大分県大分市大字寒田202番地", "url": "https://www.kaigokensaku.mhlw.go.jp/44/index.php?action_kouhyou_detail_004_kani=true&JigyosyoCd=4470100852-00&ServiceCd=210&Type=search", "url2": "http://san-ai-kai.or.jp//" }, "geometry": { "type": "Point", "coordinates": [ 131.599707099999932, 33.1743663 ] } },
{ "type": "Feature", "properties": { "内容": "特別養護老人ホーム天領ガーデン【短期入所生活介護】大分県大分市大字田尻字高尾784番地の1", "url": "https://www.kaigokensaku.mhlw.go.jp/44/index.php?action_kouhyou_detail_004_kani=true&JigyosyoCd=4470106669-00&ServiceCd=210&Type=search", "url2": "http://san-ai-kai.or.jp/" }, "geometry": { "type": "Point", "coordinates": [ 131.592574199999945, 33.1882258 ] } },
{ "type": "Feature", "properties": { "内容": "創生の里短期介護宿泊施設【短期入所生活介護】大分県大分市大字野田３０６番地の２", "url": "https://www.kaigokensaku.mhlw.go.jp/44/index.php?action_kouhyou_detail_004_kani=true&JigyosyoCd=4470101272-00&ServiceCd=210&Type=search", "url2": "http://www.wakakusakai.jp" }, "geometry": { "type": "Point", "coordinates": [ 131.536189700000023, 33.2031772 ] } },
{ "type": "Feature", "properties": { "内容": "緑風苑指定短期入所生活介護【短期入所生活介護】大分県大分市下郡山の手2番17号", "url": "https://www.kaigokensaku.mhlw.go.jp/44/index.php?action_kouhyou_detail_004_kani=true&JigyosyoCd=4470101041-00&ServiceCd=210&Type=search", "url2": "http://syouzankai-jp/ryokufu-en/" }, "geometry": { "type": "Point", "coordinates": [ 131.628447300000062, 33.2274422 ] } },
{ "type": "Feature", "properties": { "内容": "湯屋すくすく・いきいき館泊り処【短期入所生活介護】大分県大分市大字横瀬1050番地", "url": "https://www.kaigokensaku.mhlw.go.jp/44/index.php?action_kouhyou_detail_004_kani=true&JigyosyoCd=4470103559-00&ServiceCd=210&Type=search", "url2": "https://sukuiki.com/" }, "geometry": { "type": "Point", "coordinates": [ 131.54191179999998, 33.1868182 ] } },
{ "type": "Feature", "properties": { "内容": "柞原の里指定短期入所生活介護事業所【短期入所生活介護】大分市大字八幡320番地の1", "url": "https://www.kaigokensaku.mhlw.go.jp/44/index.php?action_kouhyou_detail_004_kani=true&JigyosyoCd=4470101009-00&ServiceCd=210&Type=search", "url2": "http://yusuhara.org/" }, "geometry": { "type": "Point", "coordinates": [ 131.55838, 33.2337649 ] } },
{ "type": "Feature", "properties": { "内容": "碩田柞原の里　指定短期入所生活介護事業所【短期入所生活介護】大分県大分市弁天1-2-3", "url": "https://www.kaigokensaku.mhlw.go.jp/44/index.php?action_kouhyou_detail_004_kani=true&JigyosyoCd=4470106651-00&ServiceCd=210&Type=search", "url2": "https:www.sekidenyusuhara.jp" }, "geometry": { "type": "Point", "coordinates": [ 131.613661682856787, 33.251699072932425 ] } },
{ "type": "Feature", "properties": { "内容": "清流苑ショートステイ事業所【短期入所生活介護】大分県大分市大字森336番地", "url": "https://www.kaigokensaku.mhlw.go.jp/44/index.php?action_kouhyou_detail_004_kani=true&JigyosyoCd=4470101306-00&ServiceCd=210&Type=search", "url2": "https://seiryu-kyousei.org" }, "geometry": { "type": "Point", "coordinates": [ 131.699326, 33.2187714 ] } },
{ "type": "Feature", "properties": { "内容": "明治清流苑ショートステイ事業所【短期入所生活介護】大分県大分市大字猪野729番地1", "url": "https://www.kaigokensaku.mhlw.go.jp/44/index.php?action_kouhyou_detail_004_kani=true&JigyosyoCd=4470104466-00&ServiceCd=210&Type=search", "url2": "https://seiryu-kyousei.org/" }, "geometry": { "type": "Point", "coordinates": [ 131.668845199999964, 33.23228 ] } },
{ "type": "Feature", "properties": { "内容": "リバーサイド桃花苑ショートステイサービス（ユニット型）【短期入所生活介護】大分県大分市大字曲字箕久保３２０番リバーサイド桃花苑", "url": "https://www.kaigokensaku.mhlw.go.jp/44/index.php?action_kouhyou_detail_004_kani=true&JigyosyoCd=4470107329-00&ServiceCd=210&Type=search", "url2": "http://www.riverside-toukaen.jp" }, "geometry": { "type": "Point", "coordinates": [ 131.618422371528936, 33.197943446218126 ] } },
{ "type": "Feature", "properties": { "内容": "リバーサイド桃花苑ショートステイサービス【短期入所生活介護】大分県大分市大字曲字箕久保320番リバーサイド桃花苑", "url": "https://www.kaigokensaku.mhlw.go.jp/44/index.php?action_kouhyou_detail_004_kani=true&JigyosyoCd=4470102148-00&ServiceCd=210&Type=search", "url2": "http://www.riverside-toukaen.jp" }, "geometry": { "type": "Point", "coordinates": [ 131.618420842460864, 33.197927185448087 ] } },
{ "type": "Feature", "properties": { "内容": "そうりんヴィレッジショートステイ【短期入所生活介護】大分県大分市大字横瀬370番地", "url": "https://www.kaigokensaku.mhlw.go.jp/44/index.php?action_kouhyou_detail_004_kani=true&JigyosyoCd=4470112121-00&ServiceCd=210&Type=search", "url2": "https://sorinvillage.com/" }, "geometry": { "type": "Point", "coordinates": [ 131.549067460313978, 33.187206459514243 ] } },
{ "type": "Feature", "properties": { "内容": "指定短期入所生活介護事業所　白水長久苑【短期入所生活介護】大分県大分市大字横尾字大原1897番地2", "url": "https://www.kaigokensaku.mhlw.go.jp/44/index.php?action_kouhyou_detail_004_kani=true&JigyosyoCd=4470100787-00&ServiceCd=210&Type=search", "url2": "https://chokyuen.jp/" }, "geometry": { "type": "Point", "coordinates": [ 131.664702293074129, 33.205072256865186 ] } },
{ "type": "Feature", "properties": { "内容": "アイリス清心園ショートステイ事業所【短期入所生活介護】大分県大分市大字横尾4451-19養護老人ホーム　アイリス清心園", "url": "https://www.kaigokensaku.mhlw.go.jp/44/index.php?action_kouhyou_detail_004_kani=true&JigyosyoCd=4470105307-00&ServiceCd=210&Type=search", "url2": "http://www.niji-iris.com/" }, "geometry": { "type": "Point", "coordinates": [ 131.64821126389495, 33.216201887484232 ] } },
{ "type": "Feature", "properties": { "内容": "特別養護老人ホームアイリスおおいた短期入所生活介護事業所【短期入所生活介護】大分県大分市大字横尾4451番地の8アイリスおおいた", "url": "https://www.kaigokensaku.mhlw.go.jp/44/index.php?action_kouhyou_detail_004_kani=true&JigyosyoCd=4470101538-00&ServiceCd=210&Type=search", "url2": "http://www.niji-iris.com" }, "geometry": { "type": "Point", "coordinates": [ 131.648646, 33.2167973 ] } },
{ "type": "Feature", "properties": { "内容": "百華苑短期入所サービス【短期入所生活介護】大分県大分市大字東上野１８００番地", "url": "https://www.kaigokensaku.mhlw.go.jp/44/index.php?action_kouhyou_detail_004_kani=true&JigyosyoCd=4470101413-00&ServiceCd=210&Type=search", "url2": "http://www.hyakkaen/or.jp/" }, "geometry": { "type": "Point", "coordinates": [ 131.770325, 33.2293997 ] } },
{ "type": "Feature", "properties": { "内容": "寿志の里ショートステイサービス【短期入所生活介護】大分県大分市大字中判田１３４２番地の３", "url": "https://www.kaigokensaku.mhlw.go.jp/44/index.php?action_kouhyou_detail_004_kani=true&JigyosyoCd=4470104219-00&ServiceCd=210&Type=search", "url2": "http://jyushinosato.com/" }, "geometry": { "type": "Point", "coordinates": [ 131.626694300000054, 33.1675018 ] } },
{ "type": "Feature", "properties": { "内容": "特別養護老人ホーム玉光苑【短期入所生活介護】大分県大分市大字市459番地", "url": "https://www.kaigokensaku.mhlw.go.jp/44/index.php?action_kouhyou_detail_004_kani=true&JigyosyoCd=4470101090-00&ServiceCd=210&Type=search", "url2": "http://www.gyokkouen.com/" }, "geometry": { "type": "Point", "coordinates": [ 131.570481943606296, 33.188588315427914 ] } },
{ "type": "Feature", "properties": { "内容": "和泉ショートステイサービス【短期入所生活介護】大分県大分市大字竹矢1024番地の1", "url": "https://www.kaigokensaku.mhlw.go.jp/44/index.php?action_kouhyou_detail_004_kani=true&JigyosyoCd=4472300310-00&ServiceCd=210&Type=search", "url2": "http://izumisou.com/" }, "geometry": { "type": "Point", "coordinates": [ 131.506968899999947, 33.1550543 ] } },
{ "type": "Feature", "properties": { "内容": "こうみょうえんしょーとすていしえんほーむ【短期入所生活介護】大分市大字志生木字西岡145-9", "url": "https://www.kaigokensaku.mhlw.go.jp/44/index.php?action_kouhyou_detail_004_kani=true&JigyosyoCd=4472400078-00&ServiceCd=210&Type=search", "url2": "http://www.koumyouen.or.jp/" }, "geometry": { "type": "Point", "coordinates": [ 131.832941873927325, 33.245074138184648 ] } },
{ "type": "Feature", "properties": { "内容": "Greenガーデン富士見ヶ丘ショートステイ【短期入所生活介護】大分県大分市富士見が丘西１丁目３番２３号", "url": "https://www.kaigokensaku.mhlw.go.jp/44/index.php?action_kouhyou_detail_004_kani=true&JigyosyoCd=4470110158-00&ServiceCd=210&Type=search", "url2": "http//taisyoukai.jp" }, "geometry": { "type": "Point", "coordinates": [ 131.542142900000044, 33.1820107 ] } },
{ "type": "Feature", "properties": { "内容": "指定短期入所生活介護事業所　亀川和幸苑【短期入所生活介護】大分県別府市亀川東町11番1号", "url": "https://www.kaigokensaku.mhlw.go.jp/44/index.php?action_kouhyou_detail_004_kani=true&JigyosyoCd=4470201874-00&ServiceCd=210&Type=search", "url2": null }, "geometry": { "type": "Point", "coordinates": [ 131.496977300000026, 33.3250382 ] } },
{ "type": "Feature", "properties": { "内容": "友和苑指定短期入所生活介護事業所【短期入所生活介護】大分県別府市亀川東町8番20号", "url": "https://www.kaigokensaku.mhlw.go.jp/44/index.php?action_kouhyou_detail_004_kani=true&JigyosyoCd=4470202310-00&ServiceCd=210&Type=search", "url2": null }, "geometry": { "type": "Point", "coordinates": [ 131.497477200000048, 33.3245716 ] } },
{ "type": "Feature", "properties": { "内容": "（くうしょうがた）しょーとすてい　べっぷいしがきえん【短期入所生活介護】大分県別府市石垣西２丁目１番３１号", "url": "https://www.kaigokensaku.mhlw.go.jp/44/index.php?action_kouhyou_detail_004_kani=true&JigyosyoCd=4470203078-00&ServiceCd=210&Type=search", "url2": "http://senjukai.or.jp/" }, "geometry": { "type": "Point", "coordinates": [ 131.495166400000016, 33.2918775 ] } },
{ "type": "Feature", "properties": { "内容": "ショートステイサービス一燈園【短期入所生活介護】大分県別府市大字南立石371番地（堀田4組）", "url": "https://www.kaigokensaku.mhlw.go.jp/44/index.php?action_kouhyou_detail_004_kani=true&JigyosyoCd=4470200249-00&ServiceCd=210&Type=search", "url2": "http://www.ittouen.or.jp" }, "geometry": { "type": "Point", "coordinates": [ 131.456138133254342, 33.294008474604546 ] } },
{ "type": "Feature", "properties": { "内容": "指定短期入所生活介護事業所亀川和幸苑【短期入所生活介護】大分県別府市亀川東町11番1号", "url": "https://www.kaigokensaku.mhlw.go.jp/44/index.php?action_kouhyou_detail_004_kani=true&JigyosyoCd=4470203474-00&ServiceCd=210&Type=search", "url2": null }, "geometry": { "type": "Point", "coordinates": [ 131.496982500000058, 33.3251125 ] } },
{ "type": "Feature", "properties": { "内容": "養護老人ホーム紅葉寮【短期入所生活介護】大分県別府市大字鶴見６０－２", "url": "https://www.kaigokensaku.mhlw.go.jp/44/index.php?action_kouhyou_detail_004_kani=true&JigyosyoCd=4470200579-00&ServiceCd=210&Type=search", "url2": "http://www.m-caritas.jp/momiji/diarypro/diary.cgi" }, "geometry": { "type": "Point", "coordinates": [ 131.481139699999972, 33.3103754 ] } },
{ "type": "Feature", "properties": { "内容": "特別養護老人ホーム　石垣一燈園【短期入所生活介護】大分県別府市石垣東3丁目726番地", "url": "https://www.kaigokensaku.mhlw.go.jp/44/index.php?action_kouhyou_detail_004_kani=true&JigyosyoCd=4470201338-00&ServiceCd=210&Type=search", "url2": "http://www.ittouen.or.jp" }, "geometry": { "type": "Point", "coordinates": [ 131.497902299999964, 33.2928051 ] } },
{ "type": "Feature", "properties": { "内容": "老人短期入所施設偕楽園【短期入所生活介護】大分県別府市南荘園町4番38号", "url": "https://www.kaigokensaku.mhlw.go.jp/44/index.php?action_kouhyou_detail_004_kani=true&JigyosyoCd=4470201825-00&ServiceCd=210&Type=search", "url2": "https://kikakukai.com" }, "geometry": { "type": "Point", "coordinates": [ 131.479820300000029, 33.287380700000021 ] } },
{ "type": "Feature", "properties": { "内容": "茶寿苑短期入所生活介護サービス事業所【短期入所生活介護】大分県別府市大字鉄輪1050番地", "url": "https://www.kaigokensaku.mhlw.go.jp/44/index.php?action_kouhyou_detail_004_kani=true&JigyosyoCd=4470200645-00&ServiceCd=210&Type=search", "url2": "http://sajuen.jp/" }, "geometry": { "type": "Point", "coordinates": [ 131.478642700000023, 33.3173914 ] } },
{ "type": "Feature", "properties": { "内容": "短期入所生活介護はるかぜ【短期入所生活介護】大分県別府市大字鶴見字五反4136番地の2", "url": "https://www.kaigokensaku.mhlw.go.jp/44/index.php?action_kouhyou_detail_004_kani=true&JigyosyoCd=4470200470-00&ServiceCd=210&Type=search", "url2": "http://www.harukaze.or.jp" }, "geometry": { "type": "Point", "coordinates": [ 131.479117999722348, 33.299338376426356 ] } },
{ "type": "Feature", "properties": { "内容": "泰生の里ショートステイ館「アリビオ別府」【短期入所生活介護】大分県別府市大字鶴見字中山田1068番地の1", "url": "https://www.kaigokensaku.mhlw.go.jp/44/index.php?action_kouhyou_detail_004_kani=true&JigyosyoCd=4470200462-00&ServiceCd=210&Type=search", "url2": "http://www.wellb.or.ｊp/" }, "geometry": { "type": "Point", "coordinates": [ 131.4808481, 33.3017985 ] } },
{ "type": "Feature", "properties": { "内容": "和幸苑指定短期入所生活介護事業所【短期入所生活介護】大分県別府市大字野田14904番地の1", "url": "https://www.kaigokensaku.mhlw.go.jp/44/index.php?action_kouhyou_detail_004_kani=true&JigyosyoCd=4470200421-00&ServiceCd=210&Type=search", "url2": "//www.housinkai.Life/" }, "geometry": { "type": "Point", "coordinates": [ 131.476065199999965, 33.3254711 ] } },
{ "type": "Feature", "properties": { "内容": "静雲荘指定短期入所生活介護事業所【短期入所生活介護】大分県別府市大字野田字サッショウ原１２９３番地の１", "url": "https://www.kaigokensaku.mhlw.go.jp/44/index.php?action_kouhyou_detail_004_kani=true&JigyosyoCd=4470200389-00&ServiceCd=210&Type=search", "url2": "http://seiunso.com/" }, "geometry": { "type": "Point", "coordinates": [ 131.453786255406158, 33.323177407750578 ] } },
{ "type": "Feature", "properties": { "内容": "特別養護老人ホーム楼蘭【短期入所生活介護】大分県別府市小倉町２９番２３号特別養護老人ホーム楼蘭", "url": "https://www.kaigokensaku.mhlw.go.jp/44/index.php?action_kouhyou_detail_004_kani=true&JigyosyoCd=4470202807-00&ServiceCd=210&Type=search", "url2": null }, "geometry": { "type": "Point", "coordinates": [ 131.4651747, 33.3072494 ] } },
{ "type": "Feature", "properties": { "内容": "中津市特別養護老人ホームやすらぎ荘【短期入所生活介護】大分県中津市耶馬溪町大字樋山路1番地1", "url": "https://www.kaigokensaku.mhlw.go.jp/44/index.php?action_kouhyou_detail_004_kani=true&JigyosyoCd=4470300791-00&ServiceCd=210&Type=search", "url2": "http://www.nakatsu-s.or.jp/" }, "geometry": { "type": "Point", "coordinates": [ 131.0975942, 33.4305321 ] } },
{ "type": "Feature", "properties": { "内容": "ショートステイサービス　特別養護老人ホーム　悠久の里【短期入所生活介護】大分県中津市永添945番地", "url": "https://www.kaigokensaku.mhlw.go.jp/44/index.php?action_kouhyou_detail_004_kani=true&JigyosyoCd=4470300379-00&ServiceCd=210&Type=search", "url2": "http://care-net.biz/44/yukyunosato/" }, "geometry": { "type": "Point", "coordinates": [ 131.2117872, 33.5738218 ] } },
{ "type": "Feature", "properties": { "内容": "ユニット型ショートスティサービス悠久の里【短期入所生活介護】大分県大字永添945番地", "url": "https://www.kaigokensaku.mhlw.go.jp/44/index.php?action_kouhyou_detail_004_kani=true&JigyosyoCd=4470301153-00&ServiceCd=210&Type=search", "url2": "http://yukyunosato.org/yukyunosato/" }, "geometry": { "type": "Point", "coordinates": [ 131.2117872, 33.5738218 ] } },
{ "type": "Feature", "properties": { "内容": "医療法人　杏林会　ユニット型ショートステイむらかみ【短期入所生活介護】１７９９番地", "url": "https://www.kaigokensaku.mhlw.go.jp/44/index.php?action_kouhyou_detail_004_kani=true&JigyosyoCd=4470300882-00&ServiceCd=210&Type=search", "url2": "http://www.kyorinkai/zaitaku3.htm" }, "geometry": { "type": "Point", "coordinates": [ 139.613456600000063, 35.1542394 ] } },
{ "type": "Feature", "properties": { "内容": "創生園短期入所センター【短期入所生活介護】大分県中津市大字上宮永298番地1", "url": "https://www.kaigokensaku.mhlw.go.jp/44/index.php?action_kouhyou_detail_004_kani=true&JigyosyoCd=4470300759-00&ServiceCd=210&Type=search", "url2": null }, "geometry": { "type": "Point", "coordinates": [ 131.1848281, 33.5859471 ] } },
{ "type": "Feature", "properties": { "内容": "ショートステイかえで【短期入所生活介護】大分県中津市本耶馬渓町跡田430番地1", "url": "https://www.kaigokensaku.mhlw.go.jp/44/index.php?action_kouhyou_detail_004_kani=true&JigyosyoCd=4470301310-00&ServiceCd=210&Type=search", "url2": "http://www.taizenkai.com/" }, "geometry": { "type": "Point", "coordinates": [ 131.176219800000013, 33.4824258 ] } },
{ "type": "Feature", "properties": { "内容": "いずみの園ショートステイサービス【短期入所生活介護】大分県中津市大字永添2744番地", "url": "https://www.kaigokensaku.mhlw.go.jp/44/index.php?action_kouhyou_detail_004_kani=true&JigyosyoCd=4470300148-00&ServiceCd=210&Type=search", "url2": "http://www.izuminosono.jp/" }, "geometry": { "type": "Point", "coordinates": [ 131.19906208280338, 33.560917699125497 ] } },
{ "type": "Feature", "properties": { "内容": "ユニット型サテライトショートステイサービス　悠久の里【短期入所生活介護】大分県中津市大字上如水字野田1824番地5", "url": "https://www.kaigokensaku.mhlw.go.jp/44/index.php?action_kouhyou_detail_004_kani=true&JigyosyoCd=4470301195-00&ServiceCd=210&Type=search", "url2": "http://yukyunosato.org/satellite/" }, "geometry": { "type": "Point", "coordinates": [ 131.240325284969117, 33.575664845475174 ] } },
{ "type": "Feature", "properties": { "内容": "社会福祉法人聖信会ショートステイさ蕨【短期入所生活介護】大分県中津市大字植野241番地1", "url": "https://www.kaigokensaku.mhlw.go.jp/44/index.php?action_kouhyou_detail_004_kani=true&JigyosyoCd=4470301286-00&ServiceCd=210&Type=search", "url2": "www.sawarabiansy.or.jp" }, "geometry": { "type": "Point", "coordinates": [ 131.264498499999945, 33.5614858 ] } },
{ "type": "Feature", "properties": { "内容": "望箭荘やまくに【短期入所生活介護】大分県中津市山国町守実77番地1", "url": "https://www.kaigokensaku.mhlw.go.jp/44/index.php?action_kouhyou_detail_004_kani=true&JigyosyoCd=4470300627-00&ServiceCd=210&Type=search", "url2": "http://www.chokusin.jp" }, "geometry": { "type": "Point", "coordinates": [ 131.04245549999996, 33.403548 ] } },
{ "type": "Feature", "properties": { "内容": "望箭荘ショートステイサービス【短期入所生活介護】大分県中津市三光森山８５１番地", "url": "https://www.kaigokensaku.mhlw.go.jp/44/index.php?action_kouhyou_detail_004_kani=true&JigyosyoCd=4473000281-00&ServiceCd=210&Type=search", "url2": "www.chokusin.jp/" }, "geometry": { "type": "Point", "coordinates": [ 131.21956990000001, 33.5474365 ] } },
{ "type": "Feature", "properties": { "内容": "介護サービス美和　ショートステイ【短期入所生活介護】大分県日田市南友田町12-2", "url": "https://www.kaigokensaku.mhlw.go.jp/44/index.php?action_kouhyou_detail_004_kani=true&JigyosyoCd=4470401318-00&ServiceCd=210&Type=search", "url2": "www.kaigo-miwa.com" }, "geometry": { "type": "Point", "coordinates": [ 130.919204790920958, 33.326106652866159 ] } },
{ "type": "Feature", "properties": { "内容": "介護保険サービスセンター　花月園【短期入所生活介護】大分県日田市日ノ出町156", "url": "https://www.kaigokensaku.mhlw.go.jp/44/index.php?action_kouhyou_detail_004_kani=true&JigyosyoCd=4470400021-00&ServiceCd=210&Type=search", "url2": "www.kagetsuen-swc.com/" }, "geometry": { "type": "Point", "coordinates": [ 130.939713, 33.3347398 ] } },
{ "type": "Feature", "properties": { "内容": "ショートステイ　敬天荘【短期入所生活介護】大分県日田市天瀬町女子畑234番地", "url": "https://www.kaigokensaku.mhlw.go.jp/44/index.php?action_kouhyou_detail_004_kani=true&JigyosyoCd=4470400898-00&ServiceCd=210&Type=search", "url2": "http://www.suimei.or.jp" }, "geometry": { "type": "Point", "coordinates": [ 130.964828799999964, 33.2898613 ] } },
{ "type": "Feature", "properties": { "内容": "ショートステイなかのしま【短期入所生活介護】日田市大字庄手字大釣685番地の16", "url": "https://www.kaigokensaku.mhlw.go.jp/44/index.php?action_kouhyou_detail_004_kani=true&JigyosyoCd=4470400351-00&ServiceCd=210&Type=search", "url2": "http://www.suimei.or.jp" }, "geometry": { "type": "Point", "coordinates": [ 130.923736700000063, 33.3128996 ] } },
{ "type": "Feature", "properties": { "内容": "日田園ユニットショートステイサービス【短期入所生活介護】大分県日田市大字石井字池ノ瀬271番地の2", "url": "https://www.kaigokensaku.mhlw.go.jp/44/index.php?action_kouhyou_detail_004_kani=true&JigyosyoCd=4470401342-00&ServiceCd=210&Type=search", "url2": "http://www.hitaen.ne.jp/" }, "geometry": { "type": "Point", "coordinates": [ 130.91195485808862, 33.312558199910917 ] } },
{ "type": "Feature", "properties": { "内容": "日田園ショートステイサービス【短期入所生活介護】大分県日田市大字石井字池ノ瀬271番地の2", "url": "https://www.kaigokensaku.mhlw.go.jp/44/index.php?action_kouhyou_detail_004_kani=true&JigyosyoCd=4470400245-00&ServiceCd=210&Type=search", "url2": "http://www.hitaen.jp/" }, "geometry": { "type": "Point", "coordinates": [ 130.91196022250665, 33.312549233961619 ] } },
{ "type": "Feature", "properties": { "内容": "ユニット型ショートステイサービス花月園【短期入所生活介護】大分県日田市日ノ出町133番1（大字渡里字熊取）", "url": "https://www.kaigokensaku.mhlw.go.jp/44/index.php?action_kouhyou_detail_004_kani=true&JigyosyoCd=4470401433-00&ServiceCd=210&Type=search", "url2": "http://www.kagetsuen-swc.com/kagetsuentop.htm" }, "geometry": { "type": "Point", "coordinates": [ 130.940965900000037, 33.3213327 ] } },
{ "type": "Feature", "properties": { "内容": "ショートステイ喜楽苑【短期入所生活介護】大分県日田市天瀬町桜竹1115-87", "url": "https://www.kaigokensaku.mhlw.go.jp/44/index.php?action_kouhyou_detail_004_kani=true&JigyosyoCd=4472900093-00&ServiceCd=210&Type=search", "url2": "https://www.kiraku-en.or.jp/" }, "geometry": { "type": "Point", "coordinates": [ 131.011878799999977, 33.2425558 ] } },
{ "type": "Feature", "properties": { "内容": "ショ－トステイ　やすらぎ【短期入所生活介護】大分県佐伯市蒲江大字蒲江浦３９５１番地", "url": "https://www.kaigokensaku.mhlw.go.jp/44/index.php?action_kouhyou_detail_004_kani=true&JigyosyoCd=4470501547-00&ServiceCd=210&Type=search", "url2": "http://www.saiki.tv/~ghy5102111/" }, "geometry": { "type": "Point", "coordinates": [ 131.925074699999982, 32.8120755 ] } },
{ "type": "Feature", "properties": { "内容": "はまゆうショートステイ【短期入所生活介護】大分県佐伯市蒲江大字蒲江浦１３４４番地１", "url": "https://www.kaigokensaku.mhlw.go.jp/44/index.php?action_kouhyou_detail_004_kani=true&JigyosyoCd=4470501521-00&ServiceCd=210&Type=search", "url2": "http://www.saiki.tv/~kamae-1886/" }, "geometry": { "type": "Point", "coordinates": [ 131.941476700000067, 32.8040462 ] } },
{ "type": "Feature", "properties": { "内容": "介護老人保健施設　鶴見の太陽【短期入所生活介護】大分県佐伯市鶴見大字沖松浦51番地", "url": "https://www.kaigokensaku.mhlw.go.jp/44/index.php?action_kouhyou_detail_004_kani=true&JigyosyoCd=4470500861-00&ServiceCd=210&Type=search", "url2": "http://www.saikichuo.net/" }, "geometry": { "type": "Point", "coordinates": [ 131.962688599999979, 32.9415545 ] } },
{ "type": "Feature", "properties": { "内容": "ショートステイ彦岳の太陽（ユニット型）【短期入所生活介護】大字狩生４１８番地２", "url": "https://www.kaigokensaku.mhlw.go.jp/44/index.php?action_kouhyou_detail_004_kani=true&JigyosyoCd=4470501463-00&ServiceCd=210&Type=search", "url2": "http://hikodake.net" }, "geometry": { "type": "Point", "coordinates": [ 131.901705600000014, 33.0163783 ] } },
{ "type": "Feature", "properties": { "内容": "さいき長寿苑そよ風【短期入所生活介護】大分県佐伯市鶴岡西町二丁目２６９番地", "url": "https://www.kaigokensaku.mhlw.go.jp/44/index.php?action_kouhyou_detail_004_kani=true&JigyosyoCd=4470501356-00&ServiceCd=210&Type=search", "url2": null }, "geometry": { "type": "Point", "coordinates": [ 131.864632499999971, 32.9584301 ] } },
{ "type": "Feature", "properties": { "内容": "はまゆうショートステイ【短期入所生活介護】大分県佐伯市蒲江大字蒲江浦1344番地1", "url": "https://www.kaigokensaku.mhlw.go.jp/44/index.php?action_kouhyou_detail_004_kani=true&JigyosyoCd=4470501497-00&ServiceCd=210&Type=search", "url2": "http://www.saiki.tv/~kamae-1886/" }, "geometry": { "type": "Point", "coordinates": [ 131.94147670000001, 32.80408903497112 ] } },
{ "type": "Feature", "properties": { "内容": "はまゆうショートステイ【短期入所生活介護】大分県佐伯市蒲江大字蒲江浦１３４４番地１", "url": "https://www.kaigokensaku.mhlw.go.jp/44/index.php?action_kouhyou_detail_004_kani=true&JigyosyoCd=4472500372-00&ServiceCd=210&Type=search", "url2": "http://www.saiki.tv/~kamae-1886/" }, "geometry": { "type": "Point", "coordinates": [ 131.941476700000067, 32.8040462 ] } },
{ "type": "Feature", "properties": { "内容": "豊寿苑ショートステイサービス【短期入所生活介護】大分県佐伯市弥生大字井崎1765番地", "url": "https://www.kaigokensaku.mhlw.go.jp/44/index.php?action_kouhyou_detail_004_kani=true&JigyosyoCd=4470500853-00&ServiceCd=210&Type=search", "url2": "http://sashakyo.or.jp" }, "geometry": { "type": "Point", "coordinates": [ 131.848402299999947, 32.9784082 ] } },
{ "type": "Feature", "properties": { "内容": "直川苑指定短期入所生活介護事業所【短期入所生活介護】大分県佐伯市直川大字仁田原1962-1", "url": "https://www.kaigokensaku.mhlw.go.jp/44/index.php?action_kouhyou_detail_004_kani=true&JigyosyoCd=4472500174-00&ServiceCd=210&Type=search", "url2": "http://www.naokawaen.com/" }, "geometry": { "type": "Point", "coordinates": [ 131.757325600000058, 32.8786413 ] } },
{ "type": "Feature", "properties": { "内容": "直川苑指定短期入所生活介護事業所（ユニット空床型）【短期入所生活介護】大分県佐伯市直川大字仁田原1962番地1", "url": "https://www.kaigokensaku.mhlw.go.jp/44/index.php?action_kouhyou_detail_004_kani=true&JigyosyoCd=4470501489-00&ServiceCd=210&Type=search", "url2": "https://www.naokawaen.com/" }, "geometry": { "type": "Point", "coordinates": [ 131.7573562, 32.8786551 ] } },
{ "type": "Feature", "properties": { "内容": "佐伯市老人短期入所施設　悠久園【短期入所生活介護】大分県佐伯市向島1丁目3番8号佐伯市保険福祉総合センター　和楽", "url": "https://www.kaigokensaku.mhlw.go.jp/44/index.php?action_kouhyou_detail_004_kani=true&JigyosyoCd=4470501240-00&ServiceCd=210&Type=search", "url2": "https://www.nagato.or.jp" }, "geometry": { "type": "Point", "coordinates": [ 131.900157600000057, 32.9586506 ] } },
{ "type": "Feature", "properties": { "内容": "特別養護老人ホーム　花みずき【短期入所生活介護】大分県佐伯市大字池田1699番の7", "url": "https://www.kaigokensaku.mhlw.go.jp/44/index.php?action_kouhyou_detail_004_kani=true&JigyosyoCd=4470500135-00&ServiceCd=210&Type=search", "url2": "http://www.nagato.or.jp/facilities/kaigo-hanamizuki.html" }, "geometry": { "type": "Point", "coordinates": [ 131.89628330000005, 32.9459492 ] } },
{ "type": "Feature", "properties": { "内容": "はたのうら指定短期入所生活介護事業所【短期入所生活介護】大分県佐伯市蒲江大字畑野浦596-32", "url": "https://www.kaigokensaku.mhlw.go.jp/44/index.php?action_kouhyou_detail_004_kani=true&JigyosyoCd=4470501778-00&ServiceCd=210&Type=search", "url2": "http://r.goope.jp/choyokai" }, "geometry": { "type": "Point", "coordinates": [ 131.950023200000032, 32.8563467 ] } },
{ "type": "Feature", "properties": { "内容": "特別養護老人ホーム長良苑「短期入所生活介護事業所」【短期入所生活介護】大分県佐伯市大字長良4956番地", "url": "https://www.kaigokensaku.mhlw.go.jp/44/index.php?action_kouhyou_detail_004_kani=true&JigyosyoCd=4470500333-00&ServiceCd=210&Type=search", "url2": "ｈｔｔｐ://ｒ.ｇｏｏｐｅ.ｊｐ/ｃｈｏｙｏｋａｉ" }, "geometry": { "type": "Point", "coordinates": [ 131.911496100000022, 32.9360786 ] } },
{ "type": "Feature", "properties": { "内容": "特別養護老人ホーム長良苑ユニット型短期入所生活介護事業所【短期入所生活介護】大分県佐伯市大字長良4956番地", "url": "https://www.kaigokensaku.mhlw.go.jp/44/index.php?action_kouhyou_detail_004_kani=true&JigyosyoCd=4470501539-00&ServiceCd=210&Type=search", "url2": "http://r.goope.jp/choyokai" }, "geometry": { "type": "Point", "coordinates": [ 131.911496100000022, 32.9360786 ] } },
{ "type": "Feature", "properties": { "内容": "ショートステイ　彦岳の太陽【短期入所生活介護】大分県佐伯市大字狩生４１８番地２", "url": "https://www.kaigokensaku.mhlw.go.jp/44/index.php?action_kouhyou_detail_004_kani=true&JigyosyoCd=4470500952-00&ServiceCd=210&Type=search", "url2": "http://www.hikodake.net" }, "geometry": { "type": "Point", "coordinates": [ 131.901705600000014, 33.0163783 ] } },
{ "type": "Feature", "properties": { "内容": "短期入所サービスセンター四季の郷【短期入所生活介護】臼杵市大字江無田1119番地の5", "url": "https://www.kaigokensaku.mhlw.go.jp/44/index.php?action_kouhyou_detail_004_kani=true&JigyosyoCd=4470600299-00&ServiceCd=210&Type=search", "url2": "http://i-mizuho.net" }, "geometry": { "type": "Point", "coordinates": [ 131.77827149999996, 33.1240606 ] } },
{ "type": "Feature", "properties": { "内容": "うすきメディカルクリニックショートステイ【短期入所生活介護】大分県臼杵市大字臼杵字洲崎72番地32うすきメディカルクリニック", "url": "https://www.kaigokensaku.mhlw.go.jp/44/index.php?action_kouhyou_detail_004_kani=true&JigyosyoCd=4470600737-00&ServiceCd=210&Type=search", "url2": "http://hiiragikai.or.jp/" }, "geometry": { "type": "Point", "coordinates": [ 131.805454899999972, 33.125547699999984 ] } },
{ "type": "Feature", "properties": { "内容": "緑の園ショートステイセンター【短期入所生活介護】大分県臼杵市大字大泊２２０番地", "url": "https://www.kaigokensaku.mhlw.go.jp/44/index.php?action_kouhyou_detail_004_kani=true&JigyosyoCd=4470600166-00&ServiceCd=210&Type=search", "url2": "http://fuku-doushinkai.or.jp/midori.html" }, "geometry": { "type": "Point", "coordinates": [ 131.834949700000038, 33.118069 ] } },
{ "type": "Feature", "properties": { "内容": "栄寿荘ショートステイサービス【短期入所生活介護】大分県臼杵市野津町大字落谷５３０番地", "url": "https://www.kaigokensaku.mhlw.go.jp/44/index.php?action_kouhyou_detail_004_kani=true&JigyosyoCd=4472600685-00&ServiceCd=210&Type=search", "url2": "http://www.eijuso.or.jp/" }, "geometry": { "type": "Point", "coordinates": [ 131.70487479999997, 33.0202797 ] } },
{ "type": "Feature", "properties": { "内容": "しおさいショートステイセンター【短期入所生活介護】大分県津久見市大字長目2715番地の5", "url": "https://www.kaigokensaku.mhlw.go.jp/44/index.php?action_kouhyou_detail_004_kani=true&JigyosyoCd=4470700198-00&ServiceCd=210&Type=search", "url2": "http://fuku-doushinkai.or.jp" }, "geometry": { "type": "Point", "coordinates": [ 131.8861293, 33.1110795 ] } },
{ "type": "Feature", "properties": { "内容": "白梅荘ショートステイサービス【短期入所生活介護】大分県津久見市徳浦宮町420番地", "url": "https://www.kaigokensaku.mhlw.go.jp/44/index.php?action_kouhyou_detail_004_kani=true&JigyosyoCd=4470700149-00&ServiceCd=210&Type=search", "url2": "https://www.shiraume-fukushikai.com/" }, "geometry": { "type": "Point", "coordinates": [ 131.850849599999947, 33.0911334 ] } },
{ "type": "Feature", "properties": { "内容": "特別養護老人ホーム美晴が丘【短期入所生活介護】大分県竹田市直入町大字長湯9067番地4", "url": "https://www.kaigokensaku.mhlw.go.jp/44/index.php?action_kouhyou_detail_004_kani=true&JigyosyoCd=4470800592-00&ServiceCd=210&Type=search", "url2": "http://www.miharugaoka.com/" }, "geometry": { "type": "Point", "coordinates": [ 131.383855899999958, 33.082601 ] } },
{ "type": "Feature", "properties": { "内容": "特別養護老人ホーム　こころの郷【短期入所生活介護】大分県竹田市大字飛田川1618番地23", "url": "https://www.kaigokensaku.mhlw.go.jp/44/index.php?action_kouhyou_detail_004_kani=true&JigyosyoCd=4470800568-00&ServiceCd=210&Type=search", "url2": "ｈｔｔ://www.yuujinkai.com./co_index.html" }, "geometry": { "type": "Point", "coordinates": [ 131.384954599999986, 32.9650423 ] } },
{ "type": "Feature", "properties": { "内容": "介護老人福祉施設　荻の苑【短期入所生活介護】大分県竹田市荻町恵良原780-2", "url": "https://www.kaigokensaku.mhlw.go.jp/44/index.php?action_kouhyou_detail_004_kani=true&JigyosyoCd=4470800543-00&ServiceCd=210&Type=search", "url2": "http://www.oginoen.jp/" }, "geometry": { "type": "Point", "coordinates": [ 131.302885300000014, 32.9227925 ] } },
{ "type": "Feature", "properties": { "内容": "特別養護老人ホーム美晴が丘【短期入所生活介護】大分県竹田市直入町大字長湯9067番地4", "url": "https://www.kaigokensaku.mhlw.go.jp/44/index.php?action_kouhyou_detail_004_kani=true&JigyosyoCd=4472700170-00&ServiceCd=210&Type=search", "url2": "http://www.miharugaoka.com/" }, "geometry": { "type": "Point", "coordinates": [ 131.38421028686605, 33.082452672703646 ] } },
{ "type": "Feature", "properties": { "内容": "ケアホーム　五つの実【短期入所生活介護】大分県竹田市大字会々2576-1", "url": "https://www.kaigokensaku.mhlw.go.jp/44/index.php?action_kouhyou_detail_004_kani=true&JigyosyoCd=4470800477-00&ServiceCd=210&Type=search", "url2": "http://www.kenshinkai-taketa.jp/" }, "geometry": { "type": "Point", "coordinates": [ 131.386786499999971, 32.9704393 ] } },
{ "type": "Feature", "properties": { "内容": "久住荘ショートステイサービス【短期入所生活介護】大分県竹田市久住町大字久住６４８５番地１", "url": "https://www.kaigokensaku.mhlw.go.jp/44/index.php?action_kouhyou_detail_004_kani=true&JigyosyoCd=4472700105-00&ServiceCd=210&Type=search", "url2": null }, "geometry": { "type": "Point", "coordinates": [ 131.297365200000058, 33.0204936 ] } },
{ "type": "Feature", "properties": { "内容": "悠々居ショートステイ【短期入所生活介護】大分県竹田市三宅1763番地1", "url": "https://www.kaigokensaku.mhlw.go.jp/44/index.php?action_kouhyou_detail_004_kani=true&JigyosyoCd=4470800162-00&ServiceCd=210&Type=search", "url2": "https://yuyukyo.com" }, "geometry": { "type": "Point", "coordinates": [ 131.4138924, 32.9909934 ] } },
{ "type": "Feature", "properties": { "内容": "特別養護老人ホーム荻の苑【短期入所生活介護】大分県竹田市荻町恵良原７８０番地２", "url": "https://www.kaigokensaku.mhlw.go.jp/44/index.php?action_kouhyou_detail_004_kani=true&JigyosyoCd=4470800550-00&ServiceCd=210&Type=search", "url2": "http://oginoen.jp/" }, "geometry": { "type": "Point", "coordinates": [ 131.323734400000035, 32.9224598 ] } },
{ "type": "Feature", "properties": { "内容": "特別養護老人ホーム　真寿苑【短期入所生活介護】大分県豊後高田市臼野４２９８番地３", "url": "https://www.kaigokensaku.mhlw.go.jp/44/index.php?action_kouhyou_detail_004_kani=true&JigyosyoCd=4470900285-00&ServiceCd=210&Type=search", "url2": "http://www.shinjuen.jp/" }, "geometry": { "type": "Point", "coordinates": [ 131.477346799999964, 33.630806 ] } },
{ "type": "Feature", "properties": { "内容": "やすらぎの里短期入所生活センター【短期入所生活介護】大分県豊後高田市呉崎755-1", "url": "https://www.kaigokensaku.mhlw.go.jp/44/index.php?action_kouhyou_detail_004_kani=true&JigyosyoCd=4470900145-00&ServiceCd=210&Type=search", "url2": "https://s-yasuragi.org" }, "geometry": { "type": "Point", "coordinates": [ 131.432146200000034, 33.5759609 ] } },
{ "type": "Feature", "properties": { "内容": "特別養護老人ホーム　太陽の家広寿苑【短期入所生活介護】大田件杵築市山香町大字野原字船木1662番1", "url": "https://www.kaigokensaku.mhlw.go.jp/44/index.php?action_kouhyou_detail_004_kani=true&JigyosyoCd=4471000580-00&ServiceCd=210&Type=search", "url2": "http://www.taiyonoie.or.jp" }, "geometry": { "type": "Point", "coordinates": [ 131.508321199999955, 33.4455387 ] } },
{ "type": "Feature", "properties": { "内容": "短期入所生活介護事業所太陽の家広寿苑【短期入所生活介護】大分県杵築市山香町大字野原字船木1662番1", "url": "https://www.kaigokensaku.mhlw.go.jp/44/index.php?action_kouhyou_detail_004_kani=true&JigyosyoCd=4471000606-00&ServiceCd=210&Type=search", "url2": "http://www.taiyonoie.or.jp" }, "geometry": { "type": "Point", "coordinates": [ 131.506856713877795, 33.446268305219292 ] } },
{ "type": "Feature", "properties": { "内容": "特別養護老人ホーム　心助園【短期入所生活介護】大分県杵築市大字熊野1427-1", "url": "https://www.kaigokensaku.mhlw.go.jp/44/index.php?action_kouhyou_detail_004_kani=true&JigyosyoCd=4471000259-00&ServiceCd=210&Type=search", "url2": "ｈｔｔｐ://ｉｓｓhｉｎｋａｉ－ｏｉｔａ－ｋｉｔｓｕｋｉ－．ｊｐ/" }, "geometry": { "type": "Point", "coordinates": [ 131.633335799999941, 33.3911843 ] } },
{ "type": "Feature", "properties": { "内容": "特別養護老人ホーム瑞雲荘ショートステイ【短期入所生活介護】大分県杵築市大田沓掛2373番地", "url": "https://www.kaigokensaku.mhlw.go.jp/44/index.php?action_kouhyou_detail_004_kani=true&JigyosyoCd=4471000457-00&ServiceCd=210&Type=search", "url2": "https://note.com/himawari10616" }, "geometry": { "type": "Point", "coordinates": [ 131.5523832, 33.498952479833981 ] } },
{ "type": "Feature", "properties": { "内容": "ユニット型特別養護老人ホーム　菩提樹【短期入所生活介護】大分県杵築市大字日野1921番地15", "url": "https://www.kaigokensaku.mhlw.go.jp/44/index.php?action_kouhyou_detail_004_kani=true&JigyosyoCd=4471000150-00&ServiceCd=210&Type=search", "url2": "http://www.minorimura.or.jp/" }, "geometry": { "type": "Point", "coordinates": [ 131.596679600000016, 33.3941416 ] } },
{ "type": "Feature", "properties": { "内容": "宇水園ショートステイサービスセンター【短期入所生活介護】大分県宇佐市辛島299-2", "url": "https://www.kaigokensaku.mhlw.go.jp/44/index.php?action_kouhyou_detail_004_kani=true&JigyosyoCd=4471100240-00&ServiceCd=210&Type=search", "url2": "http://www.usuien.org/" }, "geometry": { "type": "Point", "coordinates": [ 131.340606699999967, 33.5271167 ] } },
{ "type": "Feature", "properties": { "内容": "つまがきそうしょーすていさーびす【短期入所生活介護】大分県宇佐市安心院町妻垣401番地", "url": "https://www.kaigokensaku.mhlw.go.jp/44/index.php?action_kouhyou_detail_004_kani=true&JigyosyoCd=4473100107-00&ServiceCd=210&Type=search", "url2": "ａｎｓｉｎ４０１＠ｃｈｉｖｅ．oｃｎ．ｎｅ．ｊｐ" }, "geometry": { "type": "Point", "coordinates": [ 131.363286199999948, 33.4287233 ] } },
{ "type": "Feature", "properties": { "内容": "宇佐市立特別養護老人ホーム妙見荘【短期入所生活介護】大分県宇佐市院内町御沓488番地の１", "url": "https://www.kaigokensaku.mhlw.go.jp/44/index.php?action_kouhyou_detail_004_kani=true&JigyosyoCd=4471101453-00&ServiceCd=210&Type=search", "url2": "http://mezura.jp/" }, "geometry": { "type": "Point", "coordinates": [ 131.32515, 33.4530791 ] } },
{ "type": "Feature", "properties": { "内容": "泰生の里ショートステイ館「アリビオ宇佐」【短期入所生活介護】大分県宇佐市大字山下字下坂本２１００番地", "url": "https://www.kaigokensaku.mhlw.go.jp/44/index.php?action_kouhyou_detail_004_kani=true&JigyosyoCd=4471100174-00&ServiceCd=210&Type=search", "url2": "http://www.wellb.or.jp/usa/index.html" }, "geometry": { "type": "Point", "coordinates": [ 131.305439989640803, 33.535174380670966 ] } },
{ "type": "Feature", "properties": { "内容": "ユニット型介護老人保健施設ニコニコ銘水苑【短期入所生活介護】大分県豊後大野市三重町小坂4110-7", "url": "https://www.kaigokensaku.mhlw.go.jp/44/index.php?action_kouhyou_detail_004_kani=true&JigyosyoCd=4471200743-00&ServiceCd=210&Type=search", "url2": "http://www.nikoniko.or.jp" }, "geometry": { "type": "Point", "coordinates": [ 131.620860099999959, 32.9980077 ] } },
{ "type": "Feature", "properties": { "内容": "介護老人保健施設ニコニコ銘水苑【短期入所生活介護】大分県豊後大野市三重町小坂4110-7", "url": "https://www.kaigokensaku.mhlw.go.jp/44/index.php?action_kouhyou_detail_004_kani=true&JigyosyoCd=4452680012-00&ServiceCd=210&Type=search", "url2": "http://www.nikoniko.or.jp" }, "geometry": { "type": "Point", "coordinates": [ 131.620860099999959, 32.9980077 ] } },
{ "type": "Feature", "properties": { "内容": "短期入所生活介護泉の里【短期入所生活介護】大分県豊後大野市三重町赤嶺1254番地1", "url": "https://www.kaigokensaku.mhlw.go.jp/44/index.php?action_kouhyou_detail_004_kani=true&JigyosyoCd=4452680004-00&ServiceCd=210&Type=search", "url2": "http://www.kigankai.or.jp/" }, "geometry": { "type": "Point", "coordinates": [ 131.600166158078991, 32.987162583917083 ] } },
{ "type": "Feature", "properties": { "内容": "短期入所生活介護おおの郷【短期入所生活介護】大分県豊後大野市大野町田中２番地９", "url": "https://www.kaigokensaku.mhlw.go.jp/44/index.php?action_kouhyou_detail_004_kani=true&JigyosyoCd=4471200297-00&ServiceCd=210&Type=search", "url2": "http://tenshindo.org/web/" }, "geometry": { "type": "Point", "coordinates": [ 131.501963700000033, 33.0364029 ] } },
{ "type": "Feature", "properties": { "内容": "紫雲荘ショートステイサービス【短期入所生活介護】大分県豊後大野市三重町本城2050番地", "url": "https://www.kaigokensaku.mhlw.go.jp/44/index.php?action_kouhyou_detail_004_kani=true&JigyosyoCd=4472600321-00&ServiceCd=210&Type=search", "url2": "http://siunkai.com" }, "geometry": { "type": "Point", "coordinates": [ 131.57167359999994, 32.9721669 ] } },
{ "type": "Feature", "properties": { "内容": "特別養護老人ホーム任運荘【短期入所生活介護】大分県豊後大野市緒方町馬場796-1", "url": "https://www.kaigokensaku.mhlw.go.jp/44/index.php?action_kouhyou_detail_004_kani=true&JigyosyoCd=4472600453-00&ServiceCd=210&Type=search", "url2": "http://ninun.or.jp" }, "geometry": { "type": "Point", "coordinates": [ 131.47791170000005, 32.9742163 ] } },
{ "type": "Feature", "properties": { "内容": "偕生園ユニット型ショートステイサービス【短期入所生活介護】大分県豊後大野市大野町田中７００番地２", "url": "https://www.kaigokensaku.mhlw.go.jp/44/index.php?action_kouhyou_detail_004_kani=true&JigyosyoCd=4471200651-00&ServiceCd=210&Type=search", "url2": "http://www.kaiseien-bungo-ohno.com/" }, "geometry": { "type": "Point", "coordinates": [ 131.493298, 33.0379578 ] } },
{ "type": "Feature", "properties": { "内容": "偕生園ショートステイサービス【短期入所生活介護】大分県豊後大野市大野町田中７００番地２", "url": "https://www.kaigokensaku.mhlw.go.jp/44/index.php?action_kouhyou_detail_004_kani=true&JigyosyoCd=4472600404-00&ServiceCd=210&Type=search", "url2": "http://www.kaiseien-bungo-ohno.com/" }, "geometry": { "type": "Point", "coordinates": [ 131.493298, 33.0379578 ] } },
{ "type": "Feature", "properties": { "内容": "若葉苑ショートステイサービスユニット型【短期入所生活介護】大分県由布市挾間町向原1215番地２", "url": "https://www.kaigokensaku.mhlw.go.jp/44/index.php?action_kouhyou_detail_004_kani=true&JigyosyoCd=4471300436-00&ServiceCd=210&Type=search", "url2": "http://care-net.biz/44/wakabaen/" }, "geometry": { "type": "Point", "coordinates": [ 131.5028026, 33.1964277 ] } },
{ "type": "Feature", "properties": { "内容": "ユニット型湯布院短期入所生活介護事業白心荘【短期入所生活介護】大分県由布市湯布院町川北１３５４番地１３", "url": "https://www.kaigokensaku.mhlw.go.jp/44/index.php?action_kouhyou_detail_004_kani=true&JigyosyoCd=4471300410-00&ServiceCd=210&Type=search", "url2": "http://hakushinsou.com" }, "geometry": { "type": "Point", "coordinates": [ 131.335398400000031, 33.2595206 ] } },
{ "type": "Feature", "properties": { "内容": "情和園ショートステイサービス【短期入所生活介護】大分県由布市庄内町西長宝870番地1", "url": "https://www.kaigokensaku.mhlw.go.jp/44/index.php?action_kouhyou_detail_004_kani=true&JigyosyoCd=4472300377-00&ServiceCd=210&Type=search", "url2": "http://www.jyowaen.com/" }, "geometry": { "type": "Point", "coordinates": [ 131.442263645368911, 33.196164156070978 ] } },
{ "type": "Feature", "properties": { "内容": "若葉苑ショートステイサービス【短期入所生活介護】大分県由布市挟間町向原1215番地2", "url": "https://www.kaigokensaku.mhlw.go.jp/44/index.php?action_kouhyou_detail_004_kani=true&JigyosyoCd=4472300419-00&ServiceCd=210&Type=search", "url2": "http://care-net.biz/44/wakabaen/" }, "geometry": { "type": "Point", "coordinates": [ 131.502917600000046, 33.1964659 ] } },
{ "type": "Feature", "properties": { "内容": "ショートステイサービス慶寿苑【短期入所生活介護】大分県由布市庄内町柿原1569番地1", "url": "https://www.kaigokensaku.mhlw.go.jp/44/index.php?action_kouhyou_detail_004_kani=true&JigyosyoCd=4471300113-00&ServiceCd=210&Type=search", "url2": "http://www.jyueikai.jp/" }, "geometry": { "type": "Point", "coordinates": [ 131.420466848152813, 33.175858544023086 ] } },
{ "type": "Feature", "properties": { "内容": "湯布院短期入所生活介護事業白心荘【短期入所生活介護】大分県由布市湯布院町川北１３５４番地１３", "url": "https://www.kaigokensaku.mhlw.go.jp/44/index.php?action_kouhyou_detail_004_kani=true&JigyosyoCd=4472300203-00&ServiceCd=210&Type=search", "url2": "http://hakushinsou.com/" }, "geometry": { "type": "Point", "coordinates": [ 131.335398400000031, 33.2595206 ] } },
{ "type": "Feature", "properties": { "内容": "温水園【短期入所生活介護】大分県由布市湯布院町川北1964", "url": "https://www.kaigokensaku.mhlw.go.jp/44/index.php?action_kouhyou_detail_004_kani=true&JigyosyoCd=4472300278-00&ServiceCd=210&Type=search", "url2": "nukumien@basil.ocn.ne.jp" }, "geometry": { "type": "Point", "coordinates": [ 131.336745800000017, 33.2485103 ] } },
{ "type": "Feature", "properties": { "内容": "ショートステイはるかぜ【短期入所生活介護】大分県国東市国見町大熊毛字花開182番地", "url": "https://www.kaigokensaku.mhlw.go.jp/44/index.php?action_kouhyou_detail_004_kani=true&JigyosyoCd=4471400038-00&ServiceCd=210&Type=search", "url2": null }, "geometry": { "type": "Point", "coordinates": [ 131.666120500000034, 33.656255 ] } },
{ "type": "Feature", "properties": { "内容": "ショートステイ朝来【短期入所生活介護】大分県国東市安岐町朝来144番地", "url": "https://www.kaigokensaku.mhlw.go.jp/44/index.php?action_kouhyou_detail_004_kani=true&JigyosyoCd=4471400269-00&ServiceCd=210&Type=search", "url2": "http：//www.akinosato.com/" }, "geometry": { "type": "Point", "coordinates": [ 131.615325200000029, 33.5108842 ] } },
{ "type": "Feature", "properties": { "内容": "ショートステイむさし苑【短期入所生活介護】大分県国東市武蔵町糸原2368番地1", "url": "https://www.kaigokensaku.mhlw.go.jp/44/index.php?action_kouhyou_detail_004_kani=true&JigyosyoCd=4471400145-00&ServiceCd=210&Type=search", "url2": "http://www.oct-net.ne.jp/~akisato/" }, "geometry": { "type": "Point", "coordinates": [ 131.715871399999969, 33.4908047 ] } },
{ "type": "Feature", "properties": { "内容": "特別養護老人ホーム　姫見苑【短期入所生活介護】大分県国東市国見町伊美3855番地特別養護老人ホーム姫見苑", "url": "https://www.kaigokensaku.mhlw.go.jp/44/index.php?action_kouhyou_detail_004_kani=true&JigyosyoCd=4471400350-00&ServiceCd=210&Type=search", "url2": "http://www.horita.or.jp/himemien/" }, "geometry": { "type": "Point", "coordinates": [ 131.604261400000041, 33.6817446 ] } },
{ "type": "Feature", "properties": { "内容": "特別養護老人ホ－ム　くにさきの郷【短期入所生活介護】大分県国東市国東町浜崎2757-16", "url": "https://www.kaigokensaku.mhlw.go.jp/44/index.php?action_kouhyou_detail_004_kani=true&JigyosyoCd=4472100587-00&ServiceCd=210&Type=search", "url2": "http://care-net.biz/44/kunisakinosato/" }, "geometry": { "type": "Point", "coordinates": [ 131.717778899999985, 33.5892163 ] } },
{ "type": "Feature", "properties": { "内容": "ショートステイ　鈴鳴荘【短期入所生活介護】大分県国東市安岐町下山口５８番地", "url": "https://www.kaigokensaku.mhlw.go.jp/44/index.php?action_kouhyou_detail_004_kani=true&JigyosyoCd=4472100314-00&ServiceCd=210&Type=search", "url2": "http://www.akinosato.com/" }, "geometry": { "type": "Point", "coordinates": [ 131.691195900000025, 33.4607761 ] } },
{ "type": "Feature", "properties": { "内容": "ウェルファ豊丘【短期入所生活介護】速見郡日出町大字豊岡6323", "url": "https://www.kaigokensaku.mhlw.go.jp/44/index.php?action_kouhyou_detail_004_kani=true&JigyosyoCd=4472200403-00&ServiceCd=210&Type=search", "url2": "http://www.sei10.jp/company/kyufuku/index.html" }, "geometry": { "type": "Point", "coordinates": [ 131.518638099999947, 33.3703422 ] } },
{ "type": "Feature", "properties": { "内容": "ショートステイすずらん【短期入所生活介護】大分県速見郡日出町大字藤原1691-1", "url": "https://www.kaigokensaku.mhlw.go.jp/44/index.php?action_kouhyou_detail_004_kani=true&JigyosyoCd=4472200619-00&ServiceCd=210&Type=search", "url2": "http//www.suzuki-hp.or.jp" }, "geometry": { "type": "Point", "coordinates": [ 131.545824300000049, 33.3753931 ] } },
{ "type": "Feature", "properties": { "内容": "短期入所生活介護　サンライズ・ビュー【短期入所生活介護】大分県速見郡日出町580番地2", "url": "https://www.kaigokensaku.mhlw.go.jp/44/index.php?action_kouhyou_detail_004_kani=true&JigyosyoCd=4472200429-00&ServiceCd=210&Type=search", "url2": "http://www.heiseikai.com/" }, "geometry": { "type": "Point", "coordinates": [ 131.520051652066968, 33.375333750169403 ] } },
{ "type": "Feature", "properties": { "内容": "暘谷苑ショートステイサービス【短期入所生活介護】大分県速見郡日出町大字藤原5708番地の3", "url": "https://www.kaigokensaku.mhlw.go.jp/44/index.php?action_kouhyou_detail_004_kani=true&JigyosyoCd=4472200239-00&ServiceCd=210&Type=search", "url2": "http://www.youkoku.or.jp/" }, "geometry": { "type": "Point", "coordinates": [ 131.552683600000023, 33.3964216 ] } },
{ "type": "Feature", "properties": { "内容": "短期入所生活介護ショートステイサンライズ【短期入所生活介護】大分県速見郡日出町1827番地1サンライズケアセンター", "url": "https://www.kaigokensaku.mhlw.go.jp/44/index.php?action_kouhyou_detail_004_kani=true&JigyosyoCd=4472200510-00&ServiceCd=210&Type=search", "url2": "http://www.heiseikai.com/" }, "geometry": { "type": "Point", "coordinates": [ 131.529284905001873, 33.370985102852941 ] } },
{ "type": "Feature", "properties": { "内容": "ユニット型メルヘンショートステイサービス【短期入所生活介護】大分県玖珠郡九重町大字右田3156番地の7", "url": "https://www.kaigokensaku.mhlw.go.jp/44/index.php?action_kouhyou_detail_004_kani=true&JigyosyoCd=4472800582-00&ServiceCd=210&Type=search", "url2": "http://www.daijyukai-meruhen.com" }, "geometry": { "type": "Point", "coordinates": [ 131.174532799999952, 33.252202299999986 ] } },
{ "type": "Feature", "properties": { "内容": "メルヘンショートステイサービス【短期入所生活介護】大分県玖珠郡九重町大字右田3156番地の7", "url": "https://www.kaigokensaku.mhlw.go.jp/44/index.php?action_kouhyou_detail_004_kani=true&JigyosyoCd=4472800103-00&ServiceCd=210&Type=search", "url2": "http://www.daijyukai-meruhen.com" }, "geometry": { "type": "Point", "coordinates": [ 131.174532799999952, 33.2522023 ] } },
{ "type": "Feature", "properties": { "内容": "ショートステイサービス森栄館【短期入所生活介護】大分県玖珠郡玖珠町大字森690-3", "url": "https://www.kaigokensaku.mhlw.go.jp/44/index.php?action_kouhyou_detail_004_kani=true&JigyosyoCd=4472800533-00&ServiceCd=210&Type=search", "url2": "sineikan2012@daijyukai-meruhen.or.jp" }, "geometry": { "type": "Point", "coordinates": [ 131.159653899999967, 33.299092 ] } },
{ "type": "Feature", "properties": { "内容": "玖珠園ショートステイサービス【短期入所生活介護】大分県玖珠郡玖珠町大字大隈325番地", "url": "https://www.kaigokensaku.mhlw.go.jp/44/index.php?action_kouhyou_detail_004_kani=true&JigyosyoCd=4472800111-00&ServiceCd=210&Type=search", "url2": "http://www.kusuen.or.jp" }, "geometry": { "type": "Point", "coordinates": [ 131.166860400000019, 33.2704004 ] } }
]
}
