{
"type": "FeatureCollection",
"name": "geo_44_特定施設入居者生活介護（有料老人ホーム）",
"crs": { "type": "name", "properties": { "name": "urn:ogc:def:crs:OGC:1.3:CRS84" } },
"features": [
{ "type": "Feature", "properties": { "内容": "小池原福招苑【特定施設入居者生活介護（有料老人ホーム）】大分県大分市大字小池原１５３４番地の１", "url": "https://www.kaigokensaku.mhlw.go.jp/44/index.php?action_kouhyou_detail_004_kani=true&JigyosyoCd=4470103575-00&ServiceCd=331&Type=search", "url2": "http://care-net.biz/44/fukushoen" }, "geometry": { "type": "Point", "coordinates": [ 131.66103750000002, 33.2328573 ] } },
{ "type": "Feature", "properties": { "内容": "ウェルヴィラ府内【特定施設入居者生活介護（有料老人ホーム）】大分県大分市府内町1-3-25", "url": "https://www.kaigokensaku.mhlw.go.jp/44/index.php?action_kouhyou_detail_004_kani=true&JigyosyoCd=4470108319-00&ServiceCd=331&Type=search", "url2": "http://www.inobe.or.jp/welvilla/welvilla.htm" }, "geometry": { "type": "Point", "coordinates": [ 131.6098442, 33.2351498 ] } },
{ "type": "Feature", "properties": { "内容": "株式会社さわやか倶楽部　さわやかさかのいち館【特定施設入居者生活介護（有料老人ホーム）】大分県大分市坂ノ市中央三丁目１６番２２号", "url": "https://www.kaigokensaku.mhlw.go.jp/44/index.php?action_kouhyou_detail_004_kani=true&JigyosyoCd=4470109432-00&ServiceCd=331&Type=search", "url2": "http://www.sawayakaclub.jp" }, "geometry": { "type": "Point", "coordinates": [ 131.751487699999984, 33.2331543 ] } },
{ "type": "Feature", "properties": { "内容": "グローバルライフ生石【特定施設入居者生活介護（有料老人ホーム）】大分県大分市大字生石３７番地の７", "url": "https://www.kaigokensaku.mhlw.go.jp/44/index.php?action_kouhyou_detail_004_kani=true&JigyosyoCd=4470103120-00&ServiceCd=331&Type=search", "url2": "http://www.suncaresystem.jp" }, "geometry": { "type": "Point", "coordinates": [ 131.579835082803356, 33.247145907540485 ] } },
{ "type": "Feature", "properties": { "内容": "アーバンリブ金池【特定施設入居者生活介護（有料老人ホーム）】大分県　大分市　要町　３番　７号", "url": "https://www.kaigokensaku.mhlw.go.jp/44/index.php?action_kouhyou_detail_004_kani=true&JigyosyoCd=4470103039-00&ServiceCd=331&Type=search", "url2": "ｈttp://freain.com/" }, "geometry": { "type": "Point", "coordinates": [ 131.611108, 33.2312502 ] } },
{ "type": "Feature", "properties": { "内容": "有料老人ホーム　スカイホームあけの【特定施設入居者生活介護（有料老人ホーム）】大分県大分市明野高尾2丁目27番5号有料老人ホーム　スカイホームあけの", "url": "https://www.kaigokensaku.mhlw.go.jp/44/index.php?action_kouhyou_detail_004_kani=true&JigyosyoCd=4470103278-00&ServiceCd=331&Type=search", "url2": "http:www//hisakai.co.jp" }, "geometry": { "type": "Point", "coordinates": [ 131.649535663229358, 33.216339647939883 ] } },
{ "type": "Feature", "properties": { "内容": "グランドホーム古国府【特定施設入居者生活介護（有料老人ホーム）】大分県大分市古国府四丁目1番6号", "url": "https://www.kaigokensaku.mhlw.go.jp/44/index.php?action_kouhyou_detail_004_kani=true&JigyosyoCd=4470103005-00&ServiceCd=331&Type=search", "url2": "http://furugo.net" }, "geometry": { "type": "Point", "coordinates": [ 131.611016599999942, 33.2177101 ] } },
{ "type": "Feature", "properties": { "内容": "有料老人ホームハーモニー四季【特定施設入居者生活介護（有料老人ホーム）】大分県大分市花高松１丁目６番２６号有料老人ホームハーモニー四季", "url": "https://www.kaigokensaku.mhlw.go.jp/44/index.php?action_kouhyou_detail_004_kani=true&JigyosyoCd=4470102973-00&ServiceCd=331&Type=search", "url2": null }, "geometry": { "type": "Point", "coordinates": [ 131.6636618, 33.2495752 ] } },
{ "type": "Feature", "properties": { "内容": "介護付有料老人ホームＧｒｅｅｎガーデン富士見が丘【特定施設入居者生活介護（有料老人ホーム）】大分県大分市富士見が丘西１丁目３番２３号", "url": "https://www.kaigokensaku.mhlw.go.jp/44/index.php?action_kouhyou_detail_004_kani=true&JigyosyoCd=4470109929-00&ServiceCd=331&Type=search", "url2": "http//taisyoukai.jp/" }, "geometry": { "type": "Point", "coordinates": [ 131.5420785, 33.1819299 ] } },
{ "type": "Feature", "properties": { "内容": "愛の里サンヴィラ【特定施設入居者生活介護（有料老人ホーム）】大分県別府市山の手町１７－１", "url": "https://www.kaigokensaku.mhlw.go.jp/44/index.php?action_kouhyou_detail_004_kani=true&JigyosyoCd=4470200926-00&ServiceCd=331&Type=search", "url2": "www.ainosato.or.jp" }, "geometry": { "type": "Point", "coordinates": [ 131.483603608073423, 33.282793705666755 ] } },
{ "type": "Feature", "properties": { "内容": "ケアハウス別府石垣園【特定施設入居者生活介護（有料老人ホーム）】大分県別府市石垣西2丁目1番31号", "url": "https://www.kaigokensaku.mhlw.go.jp/44/index.php?action_kouhyou_detail_004_kani=true&JigyosyoCd=4470202393-00&ServiceCd=331&Type=search", "url2": "http://beppu-ishigakien.jp/" }, "geometry": { "type": "Point", "coordinates": [ 131.4952051, 33.2918598 ] } },
{ "type": "Feature", "properties": { "内容": "特定施設入居者生活介護センター恵幸園【特定施設入居者生活介護（有料老人ホーム）】大分県別府市大字鶴見字津留山1340番地1", "url": "https://www.kaigokensaku.mhlw.go.jp/44/index.php?action_kouhyou_detail_004_kani=true&JigyosyoCd=4470200660-00&ServiceCd=331&Type=search", "url2": "https://keikouen-beppu.com" }, "geometry": { "type": "Point", "coordinates": [ 131.446255900000011, 33.3060987 ] } },
{ "type": "Feature", "properties": { "内容": "メゾン・ド・いっとうえん【特定施設入居者生活介護（有料老人ホーム）】別府市石垣東3丁目1番40号", "url": "https://www.kaigokensaku.mhlw.go.jp/44/index.php?action_kouhyou_detail_004_kani=true&JigyosyoCd=4470202625-00&ServiceCd=331&Type=search", "url2": "http://www.ittouen.or.jp/" }, "geometry": { "type": "Point", "coordinates": [ 131.50001102548589, 33.293617465784514 ] } },
{ "type": "Feature", "properties": { "内容": "介護付有料老人ホ－ム　ゆうゆうの郷　白雲山荘【特定施設入居者生活介護（有料老人ホーム）】大分県別府市大字南立石字観海寺2488番地の1", "url": "https://www.kaigokensaku.mhlw.go.jp/44/index.php?action_kouhyou_detail_004_kani=true&JigyosyoCd=4470201395-00&ServiceCd=331&Type=search", "url2": "http://www.hakuun.co.jp" }, "geometry": { "type": "Point", "coordinates": [ 131.477721299999985, 33.2832054 ] } },
{ "type": "Feature", "properties": { "内容": "はぴね別府亀川【特定施設入居者生活介護（有料老人ホーム）】大分県別府市亀川中央町１０-３１", "url": "https://www.kaigokensaku.mhlw.go.jp/44/index.php?action_kouhyou_detail_004_kani=true&JigyosyoCd=4470202658-00&ServiceCd=331&Type=search", "url2": "http://www.greenlife-inc.co.jp/facility/happine_beppukamegawa/" }, "geometry": { "type": "Point", "coordinates": [ 131.49446910000006, 33.3260436 ] } },
{ "type": "Feature", "properties": { "内容": "はぴね別府流川【特定施設入居者生活介護（有料老人ホーム）】大分県別府市秋葉町9番18号", "url": "https://www.kaigokensaku.mhlw.go.jp/44/index.php?action_kouhyou_detail_004_kani=true&JigyosyoCd=4470202666-00&ServiceCd=331&Type=search", "url2": "http://www.greenlife-inc.co.jp/facilities/detail/happine_nagaregawa/profile/" }, "geometry": { "type": "Point", "coordinates": [ 131.499254800000017, 33.2758238 ] } },
{ "type": "Feature", "properties": { "内容": "有料老人ホーム石垣一燈園【特定施設入居者生活介護（有料老人ホーム）】大分県別府市石垣東3丁目726番地", "url": "https://www.kaigokensaku.mhlw.go.jp/44/index.php?action_kouhyou_detail_004_kani=true&JigyosyoCd=4470201346-00&ServiceCd=331&Type=search", "url2": "https://www.ittouen.or.jp" }, "geometry": { "type": "Point", "coordinates": [ 131.497902299999964, 33.2928051 ] } },
{ "type": "Feature", "properties": { "内容": "ケアホーム偕楽園【特定施設入居者生活介護（有料老人ホーム）】大分県別府市南荘園町４番３６号", "url": "https://www.kaigokensaku.mhlw.go.jp/44/index.php?action_kouhyou_detail_004_kani=true&JigyosyoCd=4470201197-00&ServiceCd=331&Type=search", "url2": "https://www.kairakuen-sunny.com" }, "geometry": { "type": "Point", "coordinates": [ 131.480043111114469, 33.287671852762074 ] } },
{ "type": "Feature", "properties": { "内容": "ケアマンションひだか【特定施設入居者生活介護（有料老人ホーム）】大分県日田市日高町１４７１－１", "url": "https://www.kaigokensaku.mhlw.go.jp/44/index.php?action_kouhyou_detail_004_kani=true&JigyosyoCd=4470400682-00&ServiceCd=331&Type=search", "url2": "http://www.care-hidaka.com" }, "geometry": { "type": "Point", "coordinates": [ 130.955658892065458, 33.303741042403686 ] } },
{ "type": "Feature", "properties": { "内容": "医療法人秋水堂　介護付有料老人ホーム蹈青日高【特定施設入居者生活介護（有料老人ホーム）】大分県日田市日高町１４７１－１", "url": "https://www.kaigokensaku.mhlw.go.jp/44/index.php?action_kouhyou_detail_004_kani=true&JigyosyoCd=4470401680-00&ServiceCd=331&Type=search", "url2": null }, "geometry": { "type": "Point", "coordinates": [ 130.955619675913624, 33.303780111743698 ] } },
{ "type": "Feature", "properties": { "内容": "介護付き有料老人ホーム　向日葵【特定施設入居者生活介護（有料老人ホーム）】大分県日田市大字東有田字町ノ坪７番５", "url": "https://www.kaigokensaku.mhlw.go.jp/44/index.php?action_kouhyou_detail_004_kani=true&JigyosyoCd=4470401052-00&ServiceCd=331&Type=search", "url2": null }, "geometry": { "type": "Point", "coordinates": [ 130.980190099999959, 33.3306241 ] } },
{ "type": "Feature", "properties": { "内容": "さいき長寿苑そよ風【特定施設入居者生活介護（有料老人ホーム）】大分県佐伯市鶴岡西町二丁目２６９番地", "url": "https://www.kaigokensaku.mhlw.go.jp/44/index.php?action_kouhyou_detail_004_kani=true&JigyosyoCd=4470501356-00&ServiceCd=331&Type=search", "url2": "http://saiki@sykz.co.jp" }, "geometry": { "type": "Point", "coordinates": [ 131.864632499999971, 32.9584301 ] } },
{ "type": "Feature", "properties": { "内容": "介護付有料老人ホーム　なかのしまの杜【特定施設入居者生活介護（有料老人ホーム）】大分県佐伯市中の島3丁目5883番地1", "url": "https://www.kaigokensaku.mhlw.go.jp/44/index.php?action_kouhyou_detail_004_kani=true&JigyosyoCd=4470500655-00&ServiceCd=331&Type=search", "url2": "http://www.yu-ryu.co.jp" }, "geometry": { "type": "Point", "coordinates": [ 131.904268545646687, 32.95267966562961 ] } },
{ "type": "Feature", "properties": { "内容": "介護付有料老人ホーム　うめの里【特定施設入居者生活介護（有料老人ホーム）】大分県佐伯市宇目大字小野市字井ノ上3754番地1", "url": "https://www.kaigokensaku.mhlw.go.jp/44/index.php?action_kouhyou_detail_004_kani=true&JigyosyoCd=4470501729-00&ServiceCd=331&Type=search", "url2": "http://r.goop.jp/choyokai" }, "geometry": { "type": "Point", "coordinates": [ 131.626955424671451, 32.853302027916712 ] } },
{ "type": "Feature", "properties": { "内容": "有料老人ホーム　樫の樹【特定施設入居者生活介護（有料老人ホーム）】大分県臼杵市野津町大字亀甲751番地", "url": "https://www.kaigokensaku.mhlw.go.jp/44/index.php?action_kouhyou_detail_004_kani=true&JigyosyoCd=4470600364-00&ServiceCd=331&Type=search", "url2": null }, "geometry": { "type": "Point", "coordinates": [ 131.716623199999958, 33.0399392 ] } },
{ "type": "Feature", "properties": { "内容": "介護付き有料老人ホーム　ケアプレイスオリーブ【特定施設入居者生活介護（有料老人ホーム）】大分県豊後高田市新地1157番地ケアプレイスオリーブ", "url": "https://www.kaigokensaku.mhlw.go.jp/44/index.php?action_kouhyou_detail_004_kani=true&JigyosyoCd=4470900301-00&ServiceCd=331&Type=search", "url2": "http://olive-care.com/" }, "geometry": { "type": "Point", "coordinates": [ 131.439779899999962, 33.5537768 ] } },
{ "type": "Feature", "properties": { "内容": "ケアマンション初音の里【特定施設入居者生活介護（有料老人ホーム）】大分県杵築市溝井1609番地", "url": "https://www.kaigokensaku.mhlw.go.jp/44/index.php?action_kouhyou_detail_004_kani=true&JigyosyoCd=4471000325-00&ServiceCd=331&Type=search", "url2": "http://www.kimura-coroco.jp" }, "geometry": { "type": "Point", "coordinates": [ 131.593412295106504, 33.430226762760178 ] } },
{ "type": "Feature", "properties": { "内容": "介護付有料老人ホーム　にじの森【特定施設入居者生活介護（有料老人ホーム）】大分県杵築市大字大内4798番地10", "url": "https://www.kaigokensaku.mhlw.go.jp/44/index.php?action_kouhyou_detail_004_kani=true&JigyosyoCd=4471000366-00&ServiceCd=331&Type=search", "url2": "http://care-net.biz/44/yscare/" }, "geometry": { "type": "Point", "coordinates": [ 131.621070755819687, 33.425493319802683 ] } },
{ "type": "Feature", "properties": { "内容": "介護付有料老人ホームおおたの郷【特定施設入居者生活介護（有料老人ホーム）】大分県杵築市大田石丸１３９２", "url": "https://www.kaigokensaku.mhlw.go.jp/44/index.php?action_kouhyou_detail_004_kani=true&JigyosyoCd=4471000713-00&ServiceCd=331&Type=search", "url2": "http://ootanosato.com" }, "geometry": { "type": "Point", "coordinates": [ 131.558982900000046, 33.4928864 ] } },
{ "type": "Feature", "properties": { "内容": "ケアホーム玄々堂【特定施設入居者生活介護（有料老人ホーム）】大分県宇佐市大字南宇佐2416番地", "url": "https://www.kaigokensaku.mhlw.go.jp/44/index.php?action_kouhyou_detail_004_kani=true&JigyosyoCd=4471100570-00&ServiceCd=331&Type=search", "url2": "http://www.ag-holdings.jp/actcare/usa" }, "geometry": { "type": "Point", "coordinates": [ 131.3684409, 33.5262369 ] } },
{ "type": "Feature", "properties": { "内容": "介護付有料老人ホーム「たんぽぽの家」【特定施設入居者生活介護（有料老人ホーム）】大分県宇佐市大字樋田45-1", "url": "https://www.kaigokensaku.mhlw.go.jp/44/index.php?action_kouhyou_detail_004_kani=true&JigyosyoCd=4471100851-00&ServiceCd=331&Type=search", "url2": "http://www.yu-ryu.co.jp/" }, "geometry": { "type": "Point", "coordinates": [ 131.341020599999979, 33.5258391 ] } },
{ "type": "Feature", "properties": { "内容": "有料老人ホーム　八つ星の丘【特定施設入居者生活介護（有料老人ホーム）】大分県宇佐市大字上時枝1223-10", "url": "https://www.kaigokensaku.mhlw.go.jp/44/index.php?action_kouhyou_detail_004_kani=true&JigyosyoCd=4471101479-00&ServiceCd=331&Type=search", "url2": "http://www.oitaswo.jp/" }, "geometry": { "type": "Point", "coordinates": [ 131.303131300000018, 33.5485742 ] } },
{ "type": "Feature", "properties": { "内容": "介護付有料老人ホームのどか園【特定施設入居者生活介護（有料老人ホーム）】大分県宇佐市大字長洲１１１８番地", "url": "https://www.kaigokensaku.mhlw.go.jp/44/index.php?action_kouhyou_detail_004_kani=true&JigyosyoCd=4471100828-00&ServiceCd=331&Type=search", "url2": "nodokaen@y4.dion.ne.jp" }, "geometry": { "type": "Point", "coordinates": [ 131.383041300000059, 33.5636663 ] } },
{ "type": "Feature", "properties": { "内容": "介護付有料老人ホーム　けやきの森ハレレア【特定施設入居者生活介護（有料老人ホーム）】大分県豊後大野市三重町菅生１番地252", "url": "https://www.kaigokensaku.mhlw.go.jp/44/index.php?action_kouhyou_detail_004_kani=true&JigyosyoCd=4471200867-00&ServiceCd=331&Type=search", "url2": "http://www.nikoniko.or.jp" }, "geometry": { "type": "Point", "coordinates": [ 131.618952, 32.9979726 ] } },
{ "type": "Feature", "properties": { "内容": "介護付き有料老人ホームくにさき翔裕館【特定施設入居者生活介護（有料老人ホーム）】大分県国東市武蔵町糸原4129-1", "url": "https://www.kaigokensaku.mhlw.go.jp/44/index.php?action_kouhyou_detail_004_kani=true&JigyosyoCd=4471400384-00&ServiceCd=331&Type=search", "url2": "https://sangajapan.jp" }, "geometry": { "type": "Point", "coordinates": [ 131.720365696295175, 33.480393277041003 ] } },
{ "type": "Feature", "properties": { "内容": "くにさき翔裕園【特定施設入居者生活介護（有料老人ホーム）】大分県国東市武蔵町糸原4129-1", "url": "https://www.kaigokensaku.mhlw.go.jp/44/index.php?action_kouhyou_detail_004_kani=true&JigyosyoCd=4471400392-00&ServiceCd=331&Type=search", "url2": "https://www.genkimuragroup.jp/facilitylist/kunisaki/" }, "geometry": { "type": "Point", "coordinates": [ 131.7203935, 33.480404 ] } },
{ "type": "Feature", "properties": { "内容": "介護付有料老人ホームホサナテラス【特定施設入居者生活介護（有料老人ホーム）】大分県国東市国東町小原2625番地1", "url": "https://www.kaigokensaku.mhlw.go.jp/44/index.php?action_kouhyou_detail_004_kani=true&JigyosyoCd=4471400426-00&ServiceCd=331&Type=search", "url2": "http://www.hosanna-terrace.jp" }, "geometry": { "type": "Point", "coordinates": [ 131.738311986654708, 33.544731380135374 ] } },
{ "type": "Feature", "properties": { "内容": "介護付有料老人ホーム　ウェルファ豊丘【特定施設入居者生活介護（有料老人ホーム）】大分県速見郡日出町豊岡6323番地ウェルファ豊丘", "url": "https://www.kaigokensaku.mhlw.go.jp/44/index.php?action_kouhyou_detail_004_kani=true&JigyosyoCd=4472200403-00&ServiceCd=331&Type=search", "url2": "http://www.bonwellfair.com/w-toyooka/" }, "geometry": { "type": "Point", "coordinates": [ 131.518638099999947, 33.3703422 ] } },
{ "type": "Feature", "properties": { "内容": "グランドヒルズアウルの丘【特定施設入居者生活介護（有料老人ホーム）】大分県玖珠郡玖珠町大字戸畑6498番地4", "url": "https://www.kaigokensaku.mhlw.go.jp/44/index.php?action_kouhyou_detail_004_kani=true&JigyosyoCd=4472800780-00&ServiceCd=331&Type=search", "url2": null }, "geometry": { "type": "Point", "coordinates": [ 131.095565892988333, 33.280696969587915 ] } }
]
}
