{
"type": "FeatureCollection",
"name": "geo_44_小学校",
"crs": { "type": "name", "properties": { "name": "urn:ogc:def:crs:EPSG::6668" } },
"features": [
{ "type": "Feature", "properties": { "P29_001": "44201", "P29_002": "B144110000019", "P29_003": "16001", "P29_004": "大分大学教育学部附属小学校", "P29_005": "大分県大分市王子新町1-1", "P29_006": "1", "P29_007": "1", "P29_008": "00", "P29_009": null }, "geometry": { "type": "Point", "coordinates": [ 131.591922387136037, 33.23628273918294 ] } },
{ "type": "Feature", "properties": { "P29_001": "44201", "P29_002": "B144210000017", "P29_003": "16001", "P29_004": "大分市立金池小学校", "P29_005": "大分県大分市金池町3-1-90", "P29_006": "3", "P29_007": "1", "P29_008": "00", "P29_009": null }, "geometry": { "type": "Point", "coordinates": [ 131.613075475447914, 33.233711457868083 ] } },
{ "type": "Feature", "properties": { "P29_001": "44201", "P29_002": "B144210000026", "P29_003": "16001", "P29_004": "大分市立長浜小学校", "P29_005": "大分県大分市長浜町2-6-25", "P29_006": "3", "P29_007": "1", "P29_008": "00", "P29_009": null }, "geometry": { "type": "Point", "coordinates": [ 131.61778594892229, 33.236656979928952 ] } },
{ "type": "Feature", "properties": { "P29_001": "44201", "P29_002": "B144210000035", "P29_003": "16001", "P29_004": "大分市立春日町小学校", "P29_005": "大分県大分市西春日町1-48", "P29_006": "3", "P29_007": "1", "P29_008": "00", "P29_009": null }, "geometry": { "type": "Point", "coordinates": [ 131.597259523644254, 33.240547777344183 ] } },
{ "type": "Feature", "properties": { "P29_001": "44201", "P29_002": "B144210000044", "P29_003": "16001", "P29_004": "大分市立大道小学校", "P29_005": "大分県大分市大道町2-9-57", "P29_006": "3", "P29_007": "1", "P29_008": "00", "P29_009": null }, "geometry": { "type": "Point", "coordinates": [ 131.599988677899091, 33.232795943692636 ] } },
{ "type": "Feature", "properties": { "P29_001": "44201", "P29_002": "B144210000053", "P29_003": "16001", "P29_004": "大分市立南大分小学校", "P29_005": "大分県大分市二又町2-4-1", "P29_006": "3", "P29_007": "1", "P29_008": "00", "P29_009": null }, "geometry": { "type": "Point", "coordinates": [ 131.593724536162597, 33.214388170315083 ] } },
{ "type": "Feature", "properties": { "P29_001": "44201", "P29_002": "B144210000062", "P29_003": "16001", "P29_004": "大分市立八幡小学校", "P29_005": "大分県大分市大字生石82-1", "P29_006": "3", "P29_007": "1", "P29_008": "00", "P29_009": null }, "geometry": { "type": "Point", "coordinates": [ 131.575459619396128, 33.24281592765378 ] } },
{ "type": "Feature", "properties": { "P29_001": "44201", "P29_002": "B144210000071", "P29_003": "16001", "P29_004": "大分市立神崎小学校", "P29_005": "大分県大分市大字神崎1798", "P29_006": "3", "P29_007": "1", "P29_008": "00", "P29_009": null }, "geometry": { "type": "Point", "coordinates": [ 131.545131365315257, 33.25443072233238 ] } },
{ "type": "Feature", "properties": { "P29_001": "44201", "P29_002": "B144210000080", "P29_003": "16001", "P29_004": "大分市立滝尾小学校", "P29_005": "大分県大分市羽田515", "P29_006": "3", "P29_007": "1", "P29_008": "00", "P29_009": null }, "geometry": { "type": "Point", "coordinates": [ 131.633542046617976, 33.213901241773335 ] } },
{ "type": "Feature", "properties": { "P29_001": "44201", "P29_002": "B144210000099", "P29_003": "16001", "P29_004": "大分市立東大分小学校", "P29_005": "大分県大分市萩原1-10-30", "P29_006": "3", "P29_007": "1", "P29_008": "00", "P29_009": null }, "geometry": { "type": "Point", "coordinates": [ 131.639342882993418, 33.243892371790061 ] } },
{ "type": "Feature", "properties": { "P29_001": "44201", "P29_002": "B144210000106", "P29_003": "16001", "P29_004": "大分市立日岡小学校", "P29_005": "大分県大分市日岡2-2-1", "P29_006": "3", "P29_007": "1", "P29_008": "00", "P29_009": null }, "geometry": { "type": "Point", "coordinates": [ 131.658445076073349, 33.249594006439551 ] } },
{ "type": "Feature", "properties": { "P29_001": "44201", "P29_002": "B144210000115", "P29_003": "16001", "P29_004": "大分市立桃園小学校", "P29_005": "大分県大分市山津町2-7-1", "P29_006": "3", "P29_007": "1", "P29_008": "00", "P29_009": null }, "geometry": { "type": "Point", "coordinates": [ 131.668629042202355, 33.241509717432116 ] } },
{ "type": "Feature", "properties": { "P29_001": "44201", "P29_002": "B144210000124", "P29_003": "16001", "P29_004": "大分市立津留小学校", "P29_005": "大分県大分市東津留1-4-1", "P29_006": "3", "P29_007": "1", "P29_008": "00", "P29_009": null }, "geometry": { "type": "Point", "coordinates": [ 131.630503359472925, 33.240278377603623 ] } },
{ "type": "Feature", "properties": { "P29_001": "44201", "P29_002": "B144210000133", "P29_003": "16001", "P29_004": "大分市立三佐小学校", "P29_005": "大分県大分市三佐5-6-8", "P29_006": "3", "P29_007": "1", "P29_008": "00", "P29_009": null }, "geometry": { "type": "Point", "coordinates": [ 131.681016135631126, 33.252962966519156 ] } },
{ "type": "Feature", "properties": { "P29_001": "44201", "P29_002": "B144210000142", "P29_003": "16001", "P29_004": "大分市立鶴崎小学校", "P29_005": "大分県大分市南鶴崎3-3-1", "P29_006": "3", "P29_007": "1", "P29_008": "00", "P29_009": null }, "geometry": { "type": "Point", "coordinates": [ 131.692404369703667, 33.239110986914987 ] } },
{ "type": "Feature", "properties": { "P29_001": "44201", "P29_002": "B144210000151", "P29_003": "16001", "P29_004": "大分市立別保小学校", "P29_005": "大分県大分市大字森町963-1", "P29_006": "3", "P29_007": "1", "P29_008": "00", "P29_009": null }, "geometry": { "type": "Point", "coordinates": [ 131.684914573612701, 33.227429237691126 ] } },
{ "type": "Feature", "properties": { "P29_001": "44201", "P29_002": "B144210000160", "P29_003": "16001", "P29_004": "大分市立明治小学校", "P29_005": "大分県大分市大字猪野74", "P29_006": "3", "P29_007": "1", "P29_008": "00", "P29_009": null }, "geometry": { "type": "Point", "coordinates": [ 131.665307425743947, 33.218823150302292 ] } },
{ "type": "Feature", "properties": { "P29_001": "44201", "P29_002": "B144210000179", "P29_003": "16001", "P29_004": "大分市立高田小学校", "P29_005": "大分県大分市大字下徳丸38-2", "P29_006": "3", "P29_007": "1", "P29_008": "00", "P29_009": null }, "geometry": { "type": "Point", "coordinates": [ 131.689751505355957, 33.211031932174166 ] } },
{ "type": "Feature", "properties": { "P29_001": "44201", "P29_002": "B144210000188", "P29_003": "16001", "P29_004": "大分市立川添小学校", "P29_005": "大分県大分市大字宮河内4566", "P29_006": "3", "P29_007": "1", "P29_008": "00", "P29_009": null }, "geometry": { "type": "Point", "coordinates": [ 131.697788461886375, 33.201858464823928 ] } },
{ "type": "Feature", "properties": { "P29_001": "44201", "P29_002": "B144210000197", "P29_003": "16001", "P29_004": "大分市立松岡小学校", "P29_005": "大分県大分市松岡5047", "P29_006": "3", "P29_007": "1", "P29_008": "00", "P29_009": null }, "geometry": { "type": "Point", "coordinates": [ 131.66739765711506, 33.181663615341144 ] } },
{ "type": "Feature", "properties": { "P29_001": "44201", "P29_002": "B144210000204", "P29_003": "16001", "P29_004": "大分市立戸次小学校", "P29_005": "大分県大分市中戸次4280", "P29_006": "3", "P29_007": "1", "P29_008": "00", "P29_009": null }, "geometry": { "type": "Point", "coordinates": [ 131.661116600948162, 33.155441831952835 ] } },
{ "type": "Feature", "properties": { "P29_001": "44201", "P29_002": "B144210000213", "P29_003": "16001", "P29_004": "大分市立上戸次小学校", "P29_005": "大分県大分市大字端登1792", "P29_006": "3", "P29_007": "1", "P29_008": "00", "P29_009": null }, "geometry": { "type": "Point", "coordinates": [ 131.653195823557354, 33.112276354160798 ] } },
{ "type": "Feature", "properties": { "P29_001": "44201", "P29_002": "B144210000222", "P29_003": "16001", "P29_004": "大分市立吉野小学校", "P29_005": "大分県大分市大字辻654", "P29_006": "3", "P29_007": "1", "P29_008": "00", "P29_009": null }, "geometry": { "type": "Point", "coordinates": [ 131.693780049380791, 33.114372058701484 ] } },
{ "type": "Feature", "properties": { "P29_001": "44201", "P29_002": "B144210000231", "P29_003": "16001", "P29_004": "大分市立竹中小学校", "P29_005": "大分県大分市竹中2821-1", "P29_006": "3", "P29_007": "1", "P29_008": "00", "P29_009": null }, "geometry": { "type": "Point", "coordinates": [ 131.653062516135151, 33.139299774983385 ] } },
{ "type": "Feature", "properties": { "P29_001": "44201", "P29_002": "B144210000240", "P29_003": "16001", "P29_004": "大分市立判田小学校", "P29_005": "大分県大分市判田台東1-2-1", "P29_006": "3", "P29_007": "1", "P29_008": "00", "P29_009": null }, "geometry": { "type": "Point", "coordinates": [ 131.63647357937478, 33.164529538148912 ] } },
{ "type": "Feature", "properties": { "P29_001": "44201", "P29_002": "B144210000259", "P29_003": "16001", "P29_004": "大分市立東稙田小学校", "P29_005": "大分県大分市大字田尻499-1", "P29_006": "3", "P29_007": "1", "P29_008": "00", "P29_009": null }, "geometry": { "type": "Point", "coordinates": [ 131.596526934839716, 33.187402858584889 ] } },
{ "type": "Feature", "properties": { "P29_001": "44201", "P29_002": "B144210000268", "P29_003": "16001", "P29_004": "大分市立稙田小学校", "P29_005": "大分県大分市大字木ノ上433-1", "P29_006": "3", "P29_007": "1", "P29_008": "00", "P29_009": null }, "geometry": { "type": "Point", "coordinates": [ 131.564288780568205, 33.183890820532014 ] } },
{ "type": "Feature", "properties": { "P29_001": "44201", "P29_002": "B144210000277", "P29_003": "16001", "P29_004": "大分市立賀来小学校", "P29_005": "大分県大分市大字賀来68-2", "P29_006": "3", "P29_007": "1", "P29_008": "00", "P29_009": null }, "geometry": { "type": "Point", "coordinates": [ 131.561508390839549, 33.206345961269584 ] } },
{ "type": "Feature", "properties": { "P29_001": "44201", "P29_002": "B144210000286", "P29_003": "16001", "P29_004": "大分市立大在小学校", "P29_005": "大分県大分市横田1-15-58", "P29_006": "3", "P29_007": "1", "P29_008": "00", "P29_009": null }, "geometry": { "type": "Point", "coordinates": [ 131.719066372795339, 33.247946558696036 ] } },
{ "type": "Feature", "properties": { "P29_001": "44201", "P29_002": "B144210000295", "P29_003": "16001", "P29_004": "大分市立丹生小学校", "P29_005": "大分県大分市佐野2662", "P29_006": "3", "P29_007": "1", "P29_008": "00", "P29_009": null }, "geometry": { "type": "Point", "coordinates": [ 131.723685581237675, 33.214939650263503 ] } },
{ "type": "Feature", "properties": { "P29_001": "44201", "P29_002": "B144210000302", "P29_003": "16001", "P29_004": "大分市立小佐井小学校", "P29_005": "大分県大分市小佐井3-1-18", "P29_006": "3", "P29_007": "1", "P29_008": "00", "P29_009": null }, "geometry": { "type": "Point", "coordinates": [ 131.747013284290972, 33.224378580628176 ] } },
{ "type": "Feature", "properties": { "P29_001": "44201", "P29_002": "B144210000311", "P29_003": "16001", "P29_004": "大分市立坂ノ市小学校", "P29_005": "大分県大分市坂ノ市中央5-8-1", "P29_006": "3", "P29_007": "1", "P29_008": "00", "P29_009": null }, "geometry": { "type": "Point", "coordinates": [ 131.756526040999859, 33.233624553554662 ] } },
{ "type": "Feature", "properties": { "P29_001": "44201", "P29_002": "B144210000320", "P29_003": "16001", "P29_004": "大分市立城南小学校", "P29_005": "大分県大分市大字永興2-5-25", "P29_006": "3", "P29_007": "1", "P29_008": "00", "P29_009": null }, "geometry": { "type": "Point", "coordinates": [ 131.586142899209108, 33.216277556878396 ] } },
{ "type": "Feature", "properties": { "P29_001": "44201", "P29_002": "B144210000339", "P29_003": "16001", "P29_004": "大分市立明野西小学校", "P29_005": "大分県大分市明野南2-6-1", "P29_006": "3", "P29_007": "1", "P29_008": "00", "P29_009": null }, "geometry": { "type": "Point", "coordinates": [ 131.646644426117376, 33.221708090916678 ] } },
{ "type": "Feature", "properties": { "P29_001": "44201", "P29_002": "B144210000348", "P29_003": "16001", "P29_004": "大分市立明野東小学校", "P29_005": "大分県大分市明野東3-2-1", "P29_006": "3", "P29_007": "1", "P29_008": "00", "P29_009": null }, "geometry": { "type": "Point", "coordinates": [ 131.657028190266402, 33.218734873694004 ] } },
{ "type": "Feature", "properties": { "P29_001": "44201", "P29_002": "B144210000357", "P29_003": "16001", "P29_004": "大分市立敷戸小学校", "P29_005": "大分県大分市敷戸北町12-1", "P29_006": "3", "P29_007": "1", "P29_008": "00", "P29_009": null }, "geometry": { "type": "Point", "coordinates": [ 131.622172118915387, 33.19058209520977 ] } },
{ "type": "Feature", "properties": { "P29_001": "44201", "P29_002": "B144210000366", "P29_003": "16001", "P29_004": "大分市立豊府小学校", "P29_005": "大分県大分市上田町3-4-1", "P29_006": "3", "P29_007": "1", "P29_008": "00", "P29_009": null }, "geometry": { "type": "Point", "coordinates": [ 131.603994043666034, 33.21638925483623 ] } },
{ "type": "Feature", "properties": { "P29_001": "44202", "P29_002": "B144210000375", "P29_003": "16001", "P29_004": "別府市立境川小学校", "P29_005": "大分県別府市石垣西1-2-24", "P29_006": "3", "P29_007": "1", "P29_008": "00", "P29_009": null }, "geometry": { "type": "Point", "coordinates": [ 131.492740064434059, 33.289688962409286 ] } },
{ "type": "Feature", "properties": { "P29_001": "44202", "P29_002": "B144210000384", "P29_003": "16001", "P29_004": "別府市立南立石小学校", "P29_005": "大分県別府市大字南立石1907-1", "P29_006": "3", "P29_007": "1", "P29_008": "00", "P29_009": null }, "geometry": { "type": "Point", "coordinates": [ 131.473456931041511, 33.289226486407266 ] } },
{ "type": "Feature", "properties": { "P29_001": "44202", "P29_002": "B144210000393", "P29_003": "16001", "P29_004": "別府市立亀川小学校", "P29_005": "大分県別府市大字内竃1179", "P29_006": "3", "P29_007": "1", "P29_008": "00", "P29_009": null }, "geometry": { "type": "Point", "coordinates": [ 131.490950646482787, 33.329972256111624 ] } },
{ "type": "Feature", "properties": { "P29_001": "44202", "P29_002": "B144210000400", "P29_003": "16001", "P29_004": "別府市立朝日小学校", "P29_005": "大分県別府市大字鶴見347", "P29_006": "3", "P29_007": "1", "P29_008": "00", "P29_009": null }, "geometry": { "type": "Point", "coordinates": [ 131.475388912298968, 33.309215070322196 ] } },
{ "type": "Feature", "properties": { "P29_001": "44202", "P29_002": "B144210000419", "P29_003": "16001", "P29_004": "別府市立石垣小学校", "P29_005": "大分県別府市石垣西7-6-27", "P29_006": "3", "P29_007": "1", "P29_008": "00", "P29_009": null }, "geometry": { "type": "Point", "coordinates": [ 131.492626698167498, 33.300129203084374 ] } },
{ "type": "Feature", "properties": { "P29_001": "44202", "P29_002": "B144210000428", "P29_003": "16001", "P29_004": "別府市立東山小学校", "P29_005": "大分県別府市大字別府4380-1", "P29_006": "3", "P29_007": "1", "P29_008": "00", "P29_009": null }, "geometry": { "type": "Point", "coordinates": [ 131.448926090425232, 33.267116069529393 ] } },
{ "type": "Feature", "properties": { "P29_001": "44202", "P29_002": "B144210000437", "P29_003": "16001", "P29_004": "別府市立上人小学校", "P29_005": "大分県別府市大字北石垣171", "P29_006": "3", "P29_007": "1", "P29_008": "00", "P29_009": null }, "geometry": { "type": "Point", "coordinates": [ 131.492965742213983, 33.315747200028881 ] } },
{ "type": "Feature", "properties": { "P29_001": "44203", "P29_002": "B144210000446", "P29_003": "16001", "P29_004": "中津市立南部小学校", "P29_005": "大分県中津市1309", "P29_006": "3", "P29_007": "1", "P29_008": "00", "P29_009": null }, "geometry": { "type": "Point", "coordinates": [ 131.186099117138383, 33.604384231274494 ] } },
{ "type": "Feature", "properties": { "P29_001": "44203", "P29_002": "B144210000455", "P29_003": "16001", "P29_004": "中津市立北部小学校", "P29_005": "大分県中津市666", "P29_006": "3", "P29_007": "1", "P29_008": "00", "P29_009": null }, "geometry": { "type": "Point", "coordinates": [ 131.194545122522157, 33.606111350281516 ] } },
{ "type": "Feature", "properties": { "P29_001": "44203", "P29_002": "B144210000464", "P29_003": "16001", "P29_004": "中津市立豊田小学校", "P29_005": "大分県中津市大字島田594-1", "P29_006": "3", "P29_007": "1", "P29_008": "00", "P29_009": null }, "geometry": { "type": "Point", "coordinates": [ 131.185116840273309, 33.598286966232884 ] } },
{ "type": "Feature", "properties": { "P29_001": "44203", "P29_002": "B144210000473", "P29_003": "16001", "P29_004": "中津市立小楠小学校", "P29_005": "大分県中津市大字一ッ松62-1", "P29_006": "3", "P29_007": "1", "P29_008": "00", "P29_009": null }, "geometry": { "type": "Point", "coordinates": [ 131.208153273481912, 33.594199075675469 ] } },
{ "type": "Feature", "properties": { "P29_001": "44203", "P29_002": "B144210000482", "P29_003": "16001", "P29_004": "中津市立鶴居小学校", "P29_005": "大分県中津市大字湯屋202-2", "P29_006": "3", "P29_007": "1", "P29_008": "00", "P29_009": null }, "geometry": { "type": "Point", "coordinates": [ 131.190994204021933, 33.574808418162256 ] } },
{ "type": "Feature", "properties": { "P29_001": "44203", "P29_002": "B144210000491", "P29_003": "16001", "P29_004": "中津市立大幡小学校", "P29_005": "大分県中津市大字大貞209-2-1", "P29_006": "3", "P29_007": "1", "P29_008": "00", "P29_009": null }, "geometry": { "type": "Point", "coordinates": [ 131.214761496056553, 33.56756749399235 ] } },
{ "type": "Feature", "properties": { "P29_001": "44203", "P29_002": "B144210000507", "P29_003": "16001", "P29_004": "中津市立如水小学校", "P29_005": "大分県中津市大字上如水112", "P29_006": "3", "P29_007": "1", "P29_008": "00", "P29_009": null }, "geometry": { "type": "Point", "coordinates": [ 131.225902462487142, 33.583484278688537 ] } },
{ "type": "Feature", "properties": { "P29_001": "44203", "P29_002": "B144210000516", "P29_003": "16001", "P29_004": "中津市立三保小学校", "P29_005": "大分県中津市伊藤田3321", "P29_006": "3", "P29_007": "1", "P29_008": "00", "P29_009": null }, "geometry": { "type": "Point", "coordinates": [ 131.237421602704075, 33.564217617173071 ] } },
{ "type": "Feature", "properties": { "P29_001": "44203", "P29_002": "B144210000525", "P29_003": "16001", "P29_004": "中津市立和田小学校", "P29_005": "大分県中津市定留1950", "P29_006": "3", "P29_007": "1", "P29_008": "00", "P29_009": null }, "geometry": { "type": "Point", "coordinates": [ 131.24631034615436, 33.58748954313711 ] } },
{ "type": "Feature", "properties": { "P29_001": "44203", "P29_002": "B144210000534", "P29_003": "16001", "P29_004": "中津市立今津小学校", "P29_005": "大分県中津市大字植野1372-2", "P29_006": "3", "P29_007": "1", "P29_008": "00", "P29_009": null }, "geometry": { "type": "Point", "coordinates": [ 131.264088935940919, 33.570208837934423 ] } },
{ "type": "Feature", "properties": { "P29_001": "44204", "P29_002": "B144210000543", "P29_003": "16001", "P29_004": "日田市立咸宜小学校", "P29_005": "大分県日田市淡窓1-5-13", "P29_006": "3", "P29_007": "1", "P29_008": "00", "P29_009": null }, "geometry": { "type": "Point", "coordinates": [ 130.936162227028518, 33.321898135041295 ] } },
{ "type": "Feature", "properties": { "P29_001": "44204", "P29_002": "B144210000552", "P29_003": "16001", "P29_004": "日田市立日隈小学校", "P29_005": "大分県日田市日ノ隈町578-1", "P29_006": "3", "P29_007": "1", "P29_008": "00", "P29_009": null }, "geometry": { "type": "Point", "coordinates": [ 130.925409000020295, 33.315112836335473 ] } },
{ "type": "Feature", "properties": { "P29_001": "44204", "P29_002": "B144210000561", "P29_003": "16001", "P29_004": "日田市立若宮小学校", "P29_005": "大分県日田市若宮町2-15", "P29_006": "3", "P29_007": "1", "P29_008": "00", "P29_009": null }, "geometry": { "type": "Point", "coordinates": [ 130.938969075239015, 33.310847152724506 ] } },
{ "type": "Feature", "properties": { "P29_001": "44204", "P29_002": "B144210000570", "P29_003": "16001", "P29_004": "日田市立三芳小学校", "P29_005": "大分県日田市下井手町940", "P29_006": "3", "P29_007": "1", "P29_008": "00", "P29_009": null }, "geometry": { "type": "Point", "coordinates": [ 130.946633830021483, 33.307989852308154 ] } },
{ "type": "Feature", "properties": { "P29_001": "44204", "P29_002": "B144210000589", "P29_003": "16001", "P29_004": "日田市立高瀬小学校", "P29_005": "大分県日田市誠和町781-2", "P29_006": "3", "P29_007": "1", "P29_008": "00", "P29_009": null }, "geometry": { "type": "Point", "coordinates": [ 130.936927697789201, 33.301698245465268 ] } },
{ "type": "Feature", "properties": { "P29_001": "44204", "P29_002": "B144210000598", "P29_003": "16001", "P29_004": "日田市立光岡小学校", "P29_005": "大分県日田市北友田1-1133-2", "P29_006": "3", "P29_007": "1", "P29_008": "00", "P29_009": null }, "geometry": { "type": "Point", "coordinates": [ 130.922875689285434, 33.328461706568206 ] } },
{ "type": "Feature", "properties": { "P29_001": "44204", "P29_002": "B144210000605", "P29_003": "16001", "P29_004": "日田市立朝日小学校", "P29_005": "大分県日田市朝日町936-1", "P29_006": "3", "P29_007": "1", "P29_008": "00", "P29_009": null }, "geometry": { "type": "Point", "coordinates": [ 130.918754925207651, 33.341647284244232 ] } },
{ "type": "Feature", "properties": { "P29_001": "44204", "P29_002": "B144210000614", "P29_003": "16001", "P29_004": "日田市立三和小学校", "P29_005": "大分県日田市清水町1187", "P29_006": "3", "P29_007": "1", "P29_008": "00", "P29_009": null }, "geometry": { "type": "Point", "coordinates": [ 130.943031613321182, 33.350627441021871 ] } },
{ "type": "Feature", "properties": { "P29_001": "44204", "P29_002": "B144210000623", "P29_003": "16001", "P29_004": "日田市立有田小学校", "P29_005": "大分県日田市諸留町2687-1", "P29_006": "3", "P29_007": "1", "P29_008": "00", "P29_009": null }, "geometry": { "type": "Point", "coordinates": [ 130.96890238875821, 33.331021314015373 ] } },
{ "type": "Feature", "properties": { "P29_001": "44204", "P29_002": "B144210000632", "P29_003": "16001", "P29_004": "日田市立石井小学校", "P29_005": "大分県日田市石井町2-478", "P29_006": "3", "P29_007": "1", "P29_008": "00", "P29_009": null }, "geometry": { "type": "Point", "coordinates": [ 130.908492461904075, 33.310733623097015 ] } },
{ "type": "Feature", "properties": { "P29_001": "44205", "P29_002": "B144210000641", "P29_003": "16001", "P29_004": "佐伯市立佐伯小学校", "P29_005": "大分県佐伯市城下西町2-22", "P29_006": "3", "P29_007": "1", "P29_008": "00", "P29_009": null }, "geometry": { "type": "Point", "coordinates": [ 131.893007652661055, 32.957664564902657 ] } },
{ "type": "Feature", "properties": { "P29_001": "44205", "P29_002": "B144210000650", "P29_003": "16001", "P29_004": "佐伯市立佐伯東小学校", "P29_005": "大分県佐伯市常盤西町5-1", "P29_006": "3", "P29_007": "1", "P29_008": "00", "P29_009": null }, "geometry": { "type": "Point", "coordinates": [ 131.898492673526192, 32.964826990142662 ] } },
{ "type": "Feature", "properties": { "P29_001": "44205", "P29_002": "B144210000669", "P29_003": "16001", "P29_004": "佐伯市立鶴岡小学校", "P29_005": "大分県佐伯市鶴岡町3-7-1", "P29_006": "3", "P29_007": "1", "P29_008": "00", "P29_009": null }, "geometry": { "type": "Point", "coordinates": [ 131.87496553297072, 32.960875181881896 ] } },
{ "type": "Feature", "properties": { "P29_001": "44205", "P29_002": "B144210000678", "P29_003": "16001", "P29_004": "佐伯市立上堅田小学校", "P29_005": "大分県佐伯市大字長谷9118", "P29_006": "3", "P29_007": "1", "P29_008": "00", "P29_009": null }, "geometry": { "type": "Point", "coordinates": [ 131.881332812029342, 32.937710981357284 ] } },
{ "type": "Feature", "properties": { "P29_001": "44205", "P29_002": "B144210000687", "P29_003": "16001", "P29_004": "佐伯市立大入島小学校", "P29_005": "大分県佐伯市大字石間浦1100", "P29_006": "3", "P29_007": "9", "P29_008": "00", "P29_009": null }, "geometry": { "type": "Point", "coordinates": [ 131.926640538269282, 32.986840006742632 ] } },
{ "type": "Feature", "properties": { "P29_001": "44205", "P29_002": "B144210000696", "P29_003": "16001", "P29_004": "佐伯市立八幡小学校", "P29_005": "大分県佐伯市大字戸穴2942", "P29_006": "3", "P29_007": "1", "P29_008": "00", "P29_009": null }, "geometry": { "type": "Point", "coordinates": [ 131.89194268526029, 33.003507823449802 ] } },
{ "type": "Feature", "properties": { "P29_001": "44205", "P29_002": "B144210000703", "P29_003": "16001", "P29_004": "佐伯市立下堅田小学校", "P29_005": "大分県佐伯市大字堅田5521", "P29_006": "3", "P29_007": "1", "P29_008": "00", "P29_009": null }, "geometry": { "type": "Point", "coordinates": [ 131.875893664242625, 32.925084540101004 ] } },
{ "type": "Feature", "properties": { "P29_001": "44205", "P29_002": "B144210000712", "P29_003": "16001", "P29_004": "佐伯市立青山小学校", "P29_005": "大分県佐伯市大字青山2691-1", "P29_006": "3", "P29_007": "1", "P29_008": "00", "P29_009": null }, "geometry": { "type": "Point", "coordinates": [ 131.873116773577266, 32.88362336483997 ] } },
{ "type": "Feature", "properties": { "P29_001": "44205", "P29_002": "B144210000721", "P29_003": "16001", "P29_004": "佐伯市立木立小学校", "P29_005": "大分県佐伯市大字木立4480", "P29_006": "3", "P29_007": "1", "P29_008": "00", "P29_009": null }, "geometry": { "type": "Point", "coordinates": [ 131.930981381728628, 32.920071490059037 ] } },
{ "type": "Feature", "properties": { "P29_001": "44206", "P29_002": "B144210000730", "P29_003": "16001", "P29_004": "臼杵市立佐志生小学校", "P29_005": "大分県臼杵市大字佐志生3015-1", "P29_006": "3", "P29_007": "1", "P29_008": "00", "P29_009": null }, "geometry": { "type": "Point", "coordinates": [ 131.827669386984326, 33.177062813050441 ] } },
{ "type": "Feature", "properties": { "P29_001": "44206", "P29_002": "B144210000749", "P29_003": "16001", "P29_004": "臼杵市立下ノ江小学校", "P29_005": "大分県臼杵市大字大野1955", "P29_006": "3", "P29_007": "1", "P29_008": "00", "P29_009": null }, "geometry": { "type": "Point", "coordinates": [ 131.806161082085424, 33.152470560513585 ] } },
{ "type": "Feature", "properties": { "P29_001": "44206", "P29_002": "B144210000758", "P29_003": "16001", "P29_004": "臼杵市立海辺小学校", "P29_005": "大分県臼杵市大字大浜173", "P29_006": "3", "P29_007": "1", "P29_008": "00", "P29_009": null }, "geometry": { "type": "Point", "coordinates": [ 131.808387863767365, 33.136660010195783 ] } },
{ "type": "Feature", "properties": { "P29_001": "44206", "P29_002": "B144210000767", "P29_003": "16001", "P29_004": "臼杵市立下北小学校", "P29_005": "大分県臼杵市大字稲田862", "P29_006": "3", "P29_007": "1", "P29_008": "00", "P29_009": null }, "geometry": { "type": "Point", "coordinates": [ 131.789978041243387, 33.145160415978381 ] } },
{ "type": "Feature", "properties": { "P29_001": "44206", "P29_002": "B144210000776", "P29_003": "16001", "P29_004": "臼杵市立上北小学校", "P29_005": "大分県臼杵市大字末広2487-2", "P29_006": "3", "P29_007": "1", "P29_008": "00", "P29_009": null }, "geometry": { "type": "Point", "coordinates": [ 131.757145282875854, 33.139819680601512 ] } },
{ "type": "Feature", "properties": { "P29_001": "44206", "P29_002": "B144210000785", "P29_003": "16001", "P29_004": "臼杵市立下南小学校", "P29_005": "大分県臼杵市大字望月815", "P29_006": "3", "P29_007": "1", "P29_008": "00", "P29_009": null }, "geometry": { "type": "Point", "coordinates": [ 131.772930232909175, 33.103021664081261 ] } },
{ "type": "Feature", "properties": { "P29_001": "44206", "P29_002": "B144210000794", "P29_003": "16001", "P29_004": "臼杵市立市浜小学校", "P29_005": "大分県臼杵市大字戸室503", "P29_006": "3", "P29_007": "1", "P29_008": "00", "P29_009": null }, "geometry": { "type": "Point", "coordinates": [ 131.787334697400667, 33.118522192405891 ] } },
{ "type": "Feature", "properties": { "P29_001": "44206", "P29_002": "B144210000801", "P29_003": "16001", "P29_004": "臼杵市立福良ケ丘小学校", "P29_005": "大分県臼杵市大字福良360-1", "P29_006": "3", "P29_007": "1", "P29_008": "00", "P29_009": null }, "geometry": { "type": "Point", "coordinates": [ 131.794301228975911, 33.11458659935959 ] } },
{ "type": "Feature", "properties": { "P29_001": "44206", "P29_002": "B144210000810", "P29_003": "16001", "P29_004": "臼杵市立臼杵小学校", "P29_005": "大分県臼杵市大字臼杵65", "P29_006": "3", "P29_007": "1", "P29_008": "00", "P29_009": null }, "geometry": { "type": "Point", "coordinates": [ 131.800560055137595, 33.124631238657237 ] } },
{ "type": "Feature", "properties": { "P29_001": "44207", "P29_002": "B144210000829", "P29_003": "16001", "P29_004": "津久見市立長目小学校", "P29_005": "大分県津久見市大字長目1698", "P29_006": "3", "P29_007": "1", "P29_008": "00", "P29_009": null }, "geometry": { "type": "Point", "coordinates": [ 131.882417999847007, 33.109981998953089 ] } },
{ "type": "Feature", "properties": { "P29_001": "44207", "P29_002": "B144210000838", "P29_003": "16001", "P29_004": "津久見市立堅徳小学校", "P29_005": "大分県津久見市大字堅浦3-1", "P29_006": "3", "P29_007": "1", "P29_008": "00", "P29_009": null }, "geometry": { "type": "Point", "coordinates": [ 131.858835575121333, 33.092136155566067 ] } },
{ "type": "Feature", "properties": { "P29_001": "44207", "P29_002": "B144210000847", "P29_003": "16001", "P29_004": "津久見市立青江小学校", "P29_005": "大分県津久見市上青江3537", "P29_006": "3", "P29_007": "1", "P29_008": "00", "P29_009": null }, "geometry": { "type": "Point", "coordinates": [ 131.839538354019453, 33.082143730355789 ] } },
{ "type": "Feature", "properties": { "P29_001": "44207", "P29_002": "B144210000856", "P29_003": "16001", "P29_004": "津久見市立津久見小学校", "P29_005": "大分県津久見市立花町1-7", "P29_006": "3", "P29_007": "1", "P29_008": "00", "P29_009": null }, "geometry": { "type": "Point", "coordinates": [ 131.859667958876628, 33.066154705174029 ] } },
{ "type": "Feature", "properties": { "P29_001": "44207", "P29_002": "B144210000865", "P29_003": "16001", "P29_004": "津久見市立千怒小学校", "P29_005": "大分県津久見市大字千怒1400", "P29_006": "3", "P29_007": "1", "P29_008": "00", "P29_009": null }, "geometry": { "type": "Point", "coordinates": [ 131.888641002709818, 33.065819998829603 ] } },
{ "type": "Feature", "properties": { "P29_001": "44207", "P29_002": "B144210000874", "P29_003": "16001", "P29_004": "津久見市立日代小学校", "P29_005": "大分県津久見市網代1535-2", "P29_006": "3", "P29_007": "1", "P29_008": "00", "P29_009": null }, "geometry": { "type": "Point", "coordinates": [ 131.918207999042608, 33.067828999317271 ] } },
{ "type": "Feature", "properties": { "P29_001": "44207", "P29_002": "B144210000883", "P29_003": "16001", "P29_004": "津久見市立越智小学校", "P29_005": "大分県津久見市大字四浦5893-2", "P29_006": "3", "P29_007": "1", "P29_008": "00", "P29_009": null }, "geometry": { "type": "Point", "coordinates": [ 131.98925228067958, 33.083778573678359 ] } },
{ "type": "Feature", "properties": { "P29_001": "44207", "P29_002": "B144210000892", "P29_003": "16001", "P29_004": "津久見市立保戸島小学校", "P29_005": "大分県津久見市保戸島21-2", "P29_006": "3", "P29_007": "1", "P29_008": "00", "P29_009": null }, "geometry": { "type": "Point", "coordinates": [ 132.006415379371816, 33.100496294451496 ] } },
{ "type": "Feature", "properties": { "P29_001": "44207", "P29_002": "B144210000909", "P29_003": "16001", "P29_004": "津久見市立無垢島小学校", "P29_005": "大分県津久見市大字長目2648-2", "P29_006": "3", "P29_007": "1", "P29_008": "00", "P29_009": null }, "geometry": { "type": "Point", "coordinates": [ 131.97962800203959, 33.160609996634143 ] } },
{ "type": "Feature", "properties": { "P29_001": "44208", "P29_002": "B144210000918", "P29_003": "16001", "P29_004": "竹田市立豊岡小学校", "P29_005": "大分県竹田市飛田川1810-1", "P29_006": "3", "P29_007": "1", "P29_008": "00", "P29_009": null }, "geometry": { "type": "Point", "coordinates": [ 131.384068518498367, 32.968093780849948 ] } },
{ "type": "Feature", "properties": { "P29_001": "44208", "P29_002": "B144210000927", "P29_003": "16001", "P29_004": "竹田市立南部小学校", "P29_005": "大分県竹田市君ヶ園1014", "P29_006": "3", "P29_007": "1", "P29_008": "00", "P29_009": null }, "geometry": { "type": "Point", "coordinates": [ 131.36983015519121, 32.951121780665432 ] } },
{ "type": "Feature", "properties": { "P29_001": "44208", "P29_002": "B144210000936", "P29_003": "16001", "P29_004": "竹田市立祖峰小学校", "P29_005": "大分県竹田市門田266", "P29_006": "3", "P29_007": "1", "P29_008": "00", "P29_009": null }, "geometry": { "type": "Point", "coordinates": [ 131.384618121297137, 32.93578853598941 ] } },
{ "type": "Feature", "properties": { "P29_001": "44208", "P29_002": "B144210000945", "P29_003": "16001", "P29_004": "竹田市立菅生小学校", "P29_005": "大分県竹田市菅生490", "P29_006": "3", "P29_007": "1", "P29_008": "00", "P29_009": null }, "geometry": { "type": "Point", "coordinates": [ 131.285648262017361, 32.956108940857582 ] } },
{ "type": "Feature", "properties": { "P29_001": "44208", "P29_002": "B144210000954", "P29_003": "16001", "P29_004": "竹田市立城原小学校", "P29_005": "大分県竹田市城原1705", "P29_006": "3", "P29_007": "1", "P29_008": "00", "P29_009": null }, "geometry": { "type": "Point", "coordinates": [ 131.337523805228699, 32.99168696610549 ] } },
{ "type": "Feature", "properties": { "P29_001": "44209", "P29_002": "B144210000963", "P29_003": "16001", "P29_004": "豊後高田市立高田小学校", "P29_005": "大分県豊後高田市新地1460", "P29_006": "3", "P29_007": "1", "P29_008": "00", "P29_009": null }, "geometry": { "type": "Point", "coordinates": [ 131.438431731533626, 33.552036096224398 ] } },
{ "type": "Feature", "properties": { "P29_001": "44209", "P29_002": "B144210000972", "P29_003": "16001", "P29_004": "豊後高田市立桂陽小学校", "P29_005": "大分県豊後高田市玉津1053", "P29_006": "3", "P29_007": "1", "P29_008": "00", "P29_009": null }, "geometry": { "type": "Point", "coordinates": [ 131.442102190554436, 33.563193225261308 ] } },
{ "type": "Feature", "properties": { "P29_001": "44209", "P29_002": "B144210000981", "P29_003": "16001", "P29_004": "豊後高田市立河内小学校", "P29_005": "大分県豊後高田市佐野2017", "P29_006": "3", "P29_007": "1", "P29_008": "00", "P29_009": null }, "geometry": { "type": "Point", "coordinates": [ 131.467278807261806, 33.534342543569942 ] } },
{ "type": "Feature", "properties": { "P29_001": "44209", "P29_002": "B144210000990", "P29_003": "16001", "P29_004": "豊後高田市立都甲小学校", "P29_005": "大分県豊後高田市松行363", "P29_006": "3", "P29_007": "1", "P29_008": "00", "P29_009": null }, "geometry": { "type": "Point", "coordinates": [ 131.52097273550325, 33.565726829041111 ] } },
{ "type": "Feature", "properties": { "P29_001": "44209", "P29_002": "B144210001007", "P29_003": "16001", "P29_004": "豊後高田市立草地小学校", "P29_005": "大分県豊後高田市草地292-2", "P29_006": "3", "P29_007": "1", "P29_008": "00", "P29_009": null }, "geometry": { "type": "Point", "coordinates": [ 131.461422769495897, 33.576425464960209 ] } },
{ "type": "Feature", "properties": { "P29_001": "44209", "P29_002": "B144210001016", "P29_003": "16001", "P29_004": "豊後高田市立呉崎小学校", "P29_005": "大分県豊後高田市呉崎1551", "P29_006": "3", "P29_007": "1", "P29_008": "00", "P29_009": null }, "geometry": { "type": "Point", "coordinates": [ 131.446981008221172, 33.579324070518318 ] } },
{ "type": "Feature", "properties": { "P29_001": "44209", "P29_002": "B144210001025", "P29_003": "16001", "P29_004": "豊後高田市立田染小学校", "P29_005": "大分県豊後高田市田染相原50", "P29_006": "3", "P29_007": "1", "P29_008": "00", "P29_009": null }, "geometry": { "type": "Point", "coordinates": [ 131.520311535188767, 33.514534404207765 ] } },
{ "type": "Feature", "properties": { "P29_001": "44210", "P29_002": "B144210001034", "P29_003": "16001", "P29_004": "杵築市立八坂小学校", "P29_005": "大分県杵築市八坂2782-1", "P29_006": "3", "P29_007": "1", "P29_008": "00", "P29_009": null }, "geometry": { "type": "Point", "coordinates": [ 131.586474570867551, 33.412166079203793 ] } },
{ "type": "Feature", "properties": { "P29_001": "44210", "P29_002": "B144210001043", "P29_003": "16001", "P29_004": "杵築市立東小学校", "P29_005": "大分県杵築市大字片野1129-2", "P29_006": "3", "P29_007": "1", "P29_008": "00", "P29_009": null }, "geometry": { "type": "Point", "coordinates": [ 131.630222912003006, 33.402923740662153 ] } },
{ "type": "Feature", "properties": { "P29_001": "44210", "P29_002": "B144210001052", "P29_003": "16001", "P29_004": "杵築市立大内小学校", "P29_005": "大分県杵築市大字大内4353-2", "P29_006": "3", "P29_007": "1", "P29_008": "00", "P29_009": null }, "geometry": { "type": "Point", "coordinates": [ 131.628318548635747, 33.427044772157295 ] } },
{ "type": "Feature", "properties": { "P29_001": "44210", "P29_002": "B144210001061", "P29_003": "16001", "P29_004": "杵築市立杵築小学校", "P29_005": "大分県杵築市大字杵築216", "P29_006": "3", "P29_007": "1", "P29_008": "00", "P29_009": null }, "geometry": { "type": "Point", "coordinates": [ 131.62148987613142, 33.417271042203588 ] } },
{ "type": "Feature", "properties": { "P29_001": "44210", "P29_002": "B144210001070", "P29_003": "16001", "P29_004": "杵築市立北杵築小学校", "P29_005": "大分県杵築市大字溝井454", "P29_006": "3", "P29_007": "1", "P29_008": "00", "P29_009": null }, "geometry": { "type": "Point", "coordinates": [ 131.594235074152294, 33.440422266770923 ] } },
{ "type": "Feature", "properties": { "P29_001": "44210", "P29_002": "B144210001089", "P29_003": "16001", "P29_004": "杵築市立護江小学校", "P29_005": "大分県杵築市大字守江1911", "P29_006": "3", "P29_007": "1", "P29_008": "00", "P29_009": null }, "geometry": { "type": "Point", "coordinates": [ 131.662603860711044, 33.423576166767532 ] } },
{ "type": "Feature", "properties": { "P29_001": "44210", "P29_002": "B144210001098", "P29_003": "16001", "P29_004": "杵築市立豊洋小学校", "P29_005": "大分県杵築市大字奈多231-1", "P29_006": "3", "P29_007": "1", "P29_008": "00", "P29_009": null }, "geometry": { "type": "Point", "coordinates": [ 131.705253141151985, 33.428167404574772 ] } },
{ "type": "Feature", "properties": { "P29_001": "44211", "P29_002": "B144210001105", "P29_003": "16001", "P29_004": "宇佐市立天津小学校", "P29_005": "大分県宇佐市下敷田264-1", "P29_006": "3", "P29_007": "1", "P29_008": "00", "P29_009": null }, "geometry": { "type": "Point", "coordinates": [ 131.289563091322009, 33.561402993059659 ] } },
{ "type": "Feature", "properties": { "P29_001": "44211", "P29_002": "B144210001114", "P29_003": "16001", "P29_004": "宇佐市立長峰小学校", "P29_005": "大分県宇佐市佐野686-2", "P29_006": "3", "P29_007": "1", "P29_008": "00", "P29_009": null }, "geometry": { "type": "Point", "coordinates": [ 131.275075194997186, 33.540259083858764 ] } },
{ "type": "Feature", "properties": { "P29_001": "44211", "P29_002": "B144210001123", "P29_003": "16001", "P29_004": "宇佐市立横山小学校", "P29_005": "大分県宇佐市大字上元重859-1", "P29_006": "3", "P29_007": "1", "P29_008": "00", "P29_009": null }, "geometry": { "type": "Point", "coordinates": [ 131.300052459305647, 33.517514465429116 ] } },
{ "type": "Feature", "properties": { "P29_001": "44211", "P29_002": "B144210001132", "P29_003": "16001", "P29_004": "宇佐市立糸口小学校", "P29_005": "大分県宇佐市大字時枝600-1", "P29_006": "3", "P29_007": "1", "P29_008": "00", "P29_009": null }, "geometry": { "type": "Point", "coordinates": [ 131.307668362388995, 33.553652103118914 ] } },
{ "type": "Feature", "properties": { "P29_001": "44211", "P29_002": "B144210001141", "P29_003": "16001", "P29_004": "宇佐市立高家小学校", "P29_005": "大分県宇佐市東高家288", "P29_006": "3", "P29_007": "1", "P29_008": "00", "P29_009": null }, "geometry": { "type": "Point", "coordinates": [ 131.309849318167011, 33.57124415850943 ] } },
{ "type": "Feature", "properties": { "P29_001": "44211", "P29_002": "B144210001150", "P29_003": "16001", "P29_004": "宇佐市立八幡小学校", "P29_005": "大分県宇佐市上乙女283-1", "P29_006": "3", "P29_007": "1", "P29_008": "00", "P29_009": null }, "geometry": { "type": "Point", "coordinates": [ 131.333042093703796, 33.56291464418063 ] } },
{ "type": "Feature", "properties": { "P29_001": "44211", "P29_002": "B144210001169", "P29_003": "16001", "P29_004": "宇佐市立四日市北小学校", "P29_005": "大分県宇佐市四日市1351-1", "P29_006": "3", "P29_007": "1", "P29_008": "00", "P29_009": null }, "geometry": { "type": "Point", "coordinates": [ 131.326987837738784, 33.533288564618999 ] } },
{ "type": "Feature", "properties": { "P29_001": "44211", "P29_002": "B144210001178", "P29_003": "16001", "P29_004": "宇佐市立柳ヶ浦小学校", "P29_005": "大分県宇佐市大字江須賀2406", "P29_006": "3", "P29_007": "1", "P29_008": "00", "P29_009": null }, "geometry": { "type": "Point", "coordinates": [ 131.364719027253187, 33.560097691752652 ] } },
{ "type": "Feature", "properties": { "P29_001": "44211", "P29_002": "B144210001187", "P29_003": "16001", "P29_004": "宇佐市立長洲小学校", "P29_005": "大分県宇佐市長洲630", "P29_006": "3", "P29_007": "1", "P29_008": "00", "P29_009": null }, "geometry": { "type": "Point", "coordinates": [ 131.375736886026687, 33.570198848216954 ] } },
{ "type": "Feature", "properties": { "P29_001": "44211", "P29_002": "B144210001196", "P29_003": "16001", "P29_004": "宇佐市立和間小学校", "P29_005": "大分県宇佐市大字松崎1514", "P29_006": "3", "P29_007": "1", "P29_008": "00", "P29_009": null }, "geometry": { "type": "Point", "coordinates": [ 131.39773665841534, 33.553595688490134 ] } },
{ "type": "Feature", "properties": { "P29_001": "44211", "P29_002": "B144210001203", "P29_003": "16001", "P29_004": "宇佐市立封戸小学校", "P29_005": "大分県宇佐市大字苅宇田59", "P29_006": "3", "P29_007": "1", "P29_008": "00", "P29_009": null }, "geometry": { "type": "Point", "coordinates": [ 131.419970180395552, 33.540731343669059 ] } },
{ "type": "Feature", "properties": { "P29_001": "44211", "P29_002": "B144210001212", "P29_003": "16001", "P29_004": "宇佐市立北馬城小学校", "P29_005": "大分県宇佐市岩崎781", "P29_006": "3", "P29_007": "1", "P29_008": "00", "P29_009": null }, "geometry": { "type": "Point", "coordinates": [ 131.403826485556976, 33.530899060261127 ] } },
{ "type": "Feature", "properties": { "P29_001": "44211", "P29_002": "B144210001221", "P29_003": "16001", "P29_004": "宇佐市立宇佐小学校", "P29_005": "大分県宇佐市南宇佐2007", "P29_006": "3", "P29_007": "1", "P29_008": "00", "P29_009": null }, "geometry": { "type": "Point", "coordinates": [ 131.371438919303017, 33.530779900650273 ] } },
{ "type": "Feature", "properties": { "P29_001": "44211", "P29_002": "B144210001230", "P29_003": "16001", "P29_004": "宇佐市立西馬城小学校", "P29_005": "大分県宇佐市上矢部1069", "P29_006": "3", "P29_007": "1", "P29_008": "00", "P29_009": null }, "geometry": { "type": "Point", "coordinates": [ 131.37075947921511, 33.501747447080305 ] } },
{ "type": "Feature", "properties": { "P29_001": "44211", "P29_002": "B144210001249", "P29_003": "16001", "P29_004": "宇佐市立駅館小学校", "P29_005": "大分県宇佐市大字上田394-2", "P29_006": "3", "P29_007": "1", "P29_008": "00", "P29_009": null }, "geometry": { "type": "Point", "coordinates": [ 131.346680477747498, 33.53208915153084 ] } },
{ "type": "Feature", "properties": { "P29_001": "44211", "P29_002": "B144210001258", "P29_003": "16001", "P29_004": "宇佐市立豊川小学校", "P29_005": "大分県宇佐市大字大塚542-2", "P29_006": "3", "P29_007": "1", "P29_008": "00", "P29_009": null }, "geometry": { "type": "Point", "coordinates": [ 131.335981257339199, 33.515540423867655 ] } },
{ "type": "Feature", "properties": { "P29_001": "44209", "P29_002": "B144210001267", "P29_003": "16001", "P29_004": "豊後高田市立臼野小学校", "P29_005": "大分県豊後高田市臼野2874", "P29_006": "3", "P29_007": "1", "P29_008": "00", "P29_009": null }, "geometry": { "type": "Point", "coordinates": [ 131.49325923552135, 33.627593704133204 ] } },
{ "type": "Feature", "properties": { "P29_001": "44209", "P29_002": "B144210001276", "P29_003": "16001", "P29_004": "豊後高田市立三浦小学校", "P29_005": "大分県豊後高田市堅来4455", "P29_006": "3", "P29_007": "1", "P29_008": "00", "P29_009": null }, "geometry": { "type": "Point", "coordinates": [ 131.501033291375279, 33.639605949038035 ] } },
{ "type": "Feature", "properties": { "P29_001": "44209", "P29_002": "B144210001285", "P29_003": "16001", "P29_004": "豊後高田市立香々地小学校", "P29_005": "大分県豊後高田市香々地3546", "P29_006": "3", "P29_007": "1", "P29_008": "00", "P29_009": null }, "geometry": { "type": "Point", "coordinates": [ 131.526318637344701, 33.669444656177866 ] } },
{ "type": "Feature", "properties": { "P29_001": "44322", "P29_002": "B144210001329", "P29_003": "16001", "P29_004": "姫島村立姫島小学校", "P29_005": "大分県東国東郡姫島村1603", "P29_006": "3", "P29_007": "1", "P29_008": "00", "P29_009": null }, "geometry": { "type": "Point", "coordinates": [ 131.644933252247455, 33.725740208426643 ] } },
{ "type": "Feature", "properties": { "P29_001": "44214", "P29_002": "B144210001338", "P29_003": "16001", "P29_004": "国東市立国東小学校", "P29_005": "大分県国東市国東町安国寺623-2", "P29_006": "3", "P29_007": "1", "P29_008": "00", "P29_009": null }, "geometry": { "type": "Point", "coordinates": [ 131.729131401735032, 33.562192937414054 ] } },
{ "type": "Feature", "properties": { "P29_001": "44214", "P29_002": "B144210001347", "P29_003": "16001", "P29_004": "国東市立小原小学校", "P29_005": "大分県国東市国東町小原1468", "P29_006": "3", "P29_007": "1", "P29_008": "00", "P29_009": null }, "geometry": { "type": "Point", "coordinates": [ 131.722347748526715, 33.5498866850455 ] } },
{ "type": "Feature", "properties": { "P29_001": "44214", "P29_002": "B144210001356", "P29_003": "16001", "P29_004": "国東市立旭日小学校", "P29_005": "大分県国東市国東町綱井2980-1", "P29_006": "3", "P29_007": "1", "P29_008": "00", "P29_009": null }, "geometry": { "type": "Point", "coordinates": [ 131.72243421704917, 33.529167253712366 ] } },
{ "type": "Feature", "properties": { "P29_001": "44214", "P29_002": "B144210001365", "P29_003": "16001", "P29_004": "国東市立安岐小学校", "P29_005": "大分県国東市安岐町下原2071", "P29_006": "3", "P29_007": "1", "P29_008": "00", "P29_009": null }, "geometry": { "type": "Point", "coordinates": [ 131.720372479332553, 33.466843946475258 ] } },
{ "type": "Feature", "properties": { "P29_001": "44341", "P29_002": "B144210001374", "P29_003": "16001", "P29_004": "日出町立豊岡小学校", "P29_005": "大分県速見郡日出町大字豊岡3354-1", "P29_006": "3", "P29_007": "1", "P29_008": "00", "P29_009": null }, "geometry": { "type": "Point", "coordinates": [ 131.505527298834721, 33.366015597886481 ] } },
{ "type": "Feature", "properties": { "P29_001": "44341", "P29_002": "B144210001383", "P29_003": "16001", "P29_004": "日出町立日出小学校", "P29_005": "大分県速見郡日出町2610-1", "P29_006": "3", "P29_007": "1", "P29_008": "00", "P29_009": null }, "geometry": { "type": "Point", "coordinates": [ 131.531162918275442, 33.367737252429286 ] } },
{ "type": "Feature", "properties": { "P29_001": "44341", "P29_002": "B144210001392", "P29_003": "16001", "P29_004": "日出町立藤原小学校", "P29_005": "大分県速見郡日出町大字藤原5266-1", "P29_006": "3", "P29_007": "1", "P29_008": "00", "P29_009": null }, "geometry": { "type": "Point", "coordinates": [ 131.550011048961693, 33.390992759005805 ] } },
{ "type": "Feature", "properties": { "P29_001": "44341", "P29_002": "B144210001409", "P29_003": "16001", "P29_004": "日出町立川崎小学校", "P29_005": "大分県速見郡日出町大字川崎1082", "P29_006": "3", "P29_007": "1", "P29_008": "00", "P29_009": null }, "geometry": { "type": "Point", "coordinates": [ 131.550174590244893, 33.369889481498191 ] } },
{ "type": "Feature", "properties": { "P29_001": "44341", "P29_002": "B144210001418", "P29_003": "16001", "P29_004": "日出町立大神小学校", "P29_005": "大分県速見郡日出町大字大神3139-1", "P29_006": "3", "P29_007": "1", "P29_008": "00", "P29_009": null }, "geometry": { "type": "Point", "coordinates": [ 131.574897573340678, 33.370721341768629 ] } },
{ "type": "Feature", "properties": { "P29_001": "44210", "P29_002": "B144210001427", "P29_003": "16001", "P29_004": "杵築市立山香小学校", "P29_005": "大分県杵築市山香町内河野2500-1", "P29_006": "3", "P29_007": "1", "P29_008": "00", "P29_009": null }, "geometry": { "type": "Point", "coordinates": [ 131.501240778244437, 33.450105334300034 ] } },
{ "type": "Feature", "properties": { "P29_001": "44210", "P29_002": "B144210001436", "P29_003": "16001", "P29_004": "杵築市立立石小学校", "P29_005": "大分県杵築市山香町大字立石208", "P29_006": "3", "P29_007": "1", "P29_008": "00", "P29_009": null }, "geometry": { "type": "Point", "coordinates": [ 131.482178767514171, 33.483001522466743 ] } },
{ "type": "Feature", "properties": { "P29_001": "44213", "P29_002": "B144210001445", "P29_003": "16001", "P29_004": "由布市立石城小学校", "P29_005": "大分県由布市挾間町来鉢31-1", "P29_006": "3", "P29_007": "1", "P29_008": "00", "P29_009": null }, "geometry": { "type": "Point", "coordinates": [ 131.523211356429385, 33.222812234860264 ] } },
{ "type": "Feature", "properties": { "P29_001": "44213", "P29_002": "B144210001454", "P29_003": "16001", "P29_004": "由布市立由布川小学校", "P29_005": "大分県由布市挾間町古野211-1", "P29_006": "3", "P29_007": "1", "P29_008": "00", "P29_009": null }, "geometry": { "type": "Point", "coordinates": [ 131.529150368687368, 33.210625366426434 ] } },
{ "type": "Feature", "properties": { "P29_001": "44213", "P29_002": "B144210001463", "P29_003": "16001", "P29_004": "由布市立挾間小学校", "P29_005": "大分県由布市挾間町向原89", "P29_006": "3", "P29_007": "1", "P29_008": "00", "P29_009": null }, "geometry": { "type": "Point", "coordinates": [ 131.514973900741182, 33.198842768302939 ] } },
{ "type": "Feature", "properties": { "P29_001": "44213", "P29_002": "B144210001472", "P29_003": "16001", "P29_004": "由布市立谷小学校", "P29_005": "大分県由布市挾間町谷699", "P29_006": "3", "P29_007": "1", "P29_008": "00", "P29_009": null }, "geometry": { "type": "Point", "coordinates": [ 131.492865978817946, 33.186486329829208 ] } },
{ "type": "Feature", "properties": { "P29_001": "44213", "P29_002": "B144210001481", "P29_003": "16001", "P29_004": "由布市立阿南小学校", "P29_005": "大分県由布市庄内町東長宝523", "P29_006": "3", "P29_007": "1", "P29_008": "00", "P29_009": null }, "geometry": { "type": "Point", "coordinates": [ 131.452718411799736, 33.186375473119234 ] } },
{ "type": "Feature", "properties": { "P29_001": "44213", "P29_002": "B144210001490", "P29_003": "16001", "P29_004": "由布市立東庄内小学校", "P29_005": "大分県由布市庄内町大龍1835", "P29_006": "3", "P29_007": "1", "P29_008": "00", "P29_009": null }, "geometry": { "type": "Point", "coordinates": [ 131.435280141537646, 33.17650310119614 ] } },
{ "type": "Feature", "properties": { "P29_001": "44213", "P29_002": "B144210001506", "P29_003": "16001", "P29_004": "由布市立西庄内小学校", "P29_005": "大分県由布市庄内町高岡417-1", "P29_006": "3", "P29_007": "1", "P29_008": "00", "P29_009": null }, "geometry": { "type": "Point", "coordinates": [ 131.409920155035508, 33.184302273861725 ] } },
{ "type": "Feature", "properties": { "P29_001": "44213", "P29_002": "B144210001515", "P29_003": "16001", "P29_004": "由布市立由布院小学校", "P29_005": "大分県由布市湯布院町川上3758", "P29_006": "3", "P29_007": "1", "P29_008": "00", "P29_009": null }, "geometry": { "type": "Point", "coordinates": [ 131.354648308732038, 33.264143951172358 ] } },
{ "type": "Feature", "properties": { "P29_001": "44213", "P29_002": "B144210001524", "P29_003": "16001", "P29_004": "由布市立川西小学校", "P29_005": "大分県由布市湯布院町川西3716", "P29_006": "3", "P29_007": "1", "P29_008": "00", "P29_009": null }, "geometry": { "type": "Point", "coordinates": [ 131.324096651625183, 33.235751256082338 ] } },
{ "type": "Feature", "properties": { "P29_001": "44213", "P29_002": "B144210001533", "P29_003": "16001", "P29_004": "由布市立塚原小学校", "P29_005": "大分県由布市湯布院町塚原511", "P29_006": "3", "P29_007": "1", "P29_008": "00", "P29_009": null }, "geometry": { "type": "Point", "coordinates": [ 131.387605937558533, 33.306423634107261 ] } },
{ "type": "Feature", "properties": { "P29_001": "44201", "P29_002": "B144210001542", "P29_003": "16001", "P29_004": "大分市立こうざき小学校", "P29_005": "大分県大分市大字本神崎945-2", "P29_006": "3", "P29_007": "1", "P29_008": "00", "P29_009": null }, "geometry": { "type": "Point", "coordinates": [ 131.799321561470293, 33.238492753340971 ] } },
{ "type": "Feature", "properties": { "P29_001": "44201", "P29_002": "B144210001551", "P29_003": "16001", "P29_004": "大分市立佐賀関小学校", "P29_005": "大分県大分市大字佐賀関1104", "P29_006": "3", "P29_007": "1", "P29_008": "00", "P29_009": null }, "geometry": { "type": "Point", "coordinates": [ 131.87462459949856, 33.246351620055414 ] } },
{ "type": "Feature", "properties": { "P29_001": "44205", "P29_002": "B144210001579", "P29_003": "16001", "P29_004": "佐伯市立東雲小学校", "P29_005": "大分県佐伯市上浦大字浅海井浦3", "P29_006": "3", "P29_007": "1", "P29_008": "00", "P29_009": null }, "geometry": { "type": "Point", "coordinates": [ 131.925996222093289, 33.04640363624803 ] } },
{ "type": "Feature", "properties": { "P29_001": "44205", "P29_002": "B144210001588", "P29_003": "16001", "P29_004": "佐伯市立明治小学校", "P29_005": "大分県佐伯市弥生大字大坂本1135", "P29_006": "3", "P29_007": "1", "P29_008": "00", "P29_009": null }, "geometry": { "type": "Point", "coordinates": [ 131.849409541275804, 32.981969966844183 ] } },
{ "type": "Feature", "properties": { "P29_001": "44205", "P29_002": "B144210001597", "P29_003": "16001", "P29_004": "佐伯市立上野小学校", "P29_005": "大分県佐伯市弥生大字上小倉456", "P29_006": "3", "P29_007": "1", "P29_008": "00", "P29_009": null }, "geometry": { "type": "Point", "coordinates": [ 131.834039014720616, 32.970449625682768 ] } },
{ "type": "Feature", "properties": { "P29_001": "44205", "P29_002": "B144210001604", "P29_003": "16001", "P29_004": "佐伯市立切畑小学校", "P29_005": "大分県佐伯市弥生大字門田1328", "P29_006": "3", "P29_007": "1", "P29_008": "00", "P29_009": null }, "geometry": { "type": "Point", "coordinates": [ 131.837895886224459, 32.953406441454739 ] } },
{ "type": "Feature", "properties": { "P29_001": "44205", "P29_002": "B144210001613", "P29_003": "16001", "P29_004": "佐伯市立直川小学校", "P29_005": "大分県佐伯市直川大字上直見500", "P29_006": "3", "P29_007": "1", "P29_008": "00", "P29_009": null }, "geometry": { "type": "Point", "coordinates": [ 131.776801020186326, 32.897779496160133 ] } },
{ "type": "Feature", "properties": { "P29_001": "44205", "P29_002": "B144210001622", "P29_003": "16001", "P29_004": "佐伯市立松浦小学校", "P29_005": "大分県佐伯市鶴見大字地松浦2044", "P29_006": "3", "P29_007": "1", "P29_008": "00", "P29_009": null }, "geometry": { "type": "Point", "coordinates": [ 131.961496937108421, 32.945379321875286 ] } },
{ "type": "Feature", "properties": { "P29_001": "44205", "P29_002": "B144210001631", "P29_003": "16001", "P29_004": "佐伯市立大島小学校", "P29_005": "大分県佐伯市大字大島717-4", "P29_006": "3", "P29_007": "9", "P29_008": "00", "P29_009": null }, "geometry": { "type": "Point", "coordinates": [ 132.071858999086373, 32.96662900004192 ] } },
{ "type": "Feature", "properties": { "P29_001": "44205", "P29_002": "B144210001640", "P29_003": "16001", "P29_004": "佐伯市立蒲江小学校深島分校", "P29_005": "大分県佐伯市蒲江大字蒲江浦3276-3", "P29_006": "3", "P29_007": "1", "P29_008": "00", "P29_009": null }, "geometry": { "type": "Point", "coordinates": [ 131.926763002854983, 32.802405003058063 ] } },
{ "type": "Feature", "properties": { "P29_001": "44206", "P29_002": "B144210001659", "P29_003": "16001", "P29_004": "臼杵市立川登小学校", "P29_005": "大分県臼杵市野津町大字清水原1341", "P29_006": "3", "P29_007": "1", "P29_008": "00", "P29_009": null }, "geometry": { "type": "Point", "coordinates": [ 131.718045407448102, 33.005560787473392 ] } },
{ "type": "Feature", "properties": { "P29_001": "44206", "P29_002": "B144210001668", "P29_003": "16001", "P29_004": "臼杵市立野津小学校", "P29_005": "大分県臼杵市野津町大字山頭3100", "P29_006": "3", "P29_007": "1", "P29_008": "00", "P29_009": null }, "geometry": { "type": "Point", "coordinates": [ 131.699437632922979, 33.045636648464935 ] } },
{ "type": "Feature", "properties": { "P29_001": "44206", "P29_002": "B144210001677", "P29_003": "16001", "P29_004": "臼杵市立南野津小学校", "P29_005": "大分県臼杵市野津町大字西畑600", "P29_006": "3", "P29_007": "1", "P29_008": "00", "P29_009": null }, "geometry": { "type": "Point", "coordinates": [ 131.667206011889562, 33.012799426689149 ] } },
{ "type": "Feature", "properties": { "P29_001": "44212", "P29_002": "B144210001686", "P29_003": "16001", "P29_004": "豊後大野市立菅尾小学校", "P29_005": "大分県豊後大野市三重町浅瀬3304", "P29_006": "3", "P29_007": "1", "P29_008": "00", "P29_009": null }, "geometry": { "type": "Point", "coordinates": [ 131.61615985318457, 33.019930965083738 ] } },
{ "type": "Feature", "properties": { "P29_001": "44212", "P29_002": "B144210001695", "P29_003": "16001", "P29_004": "豊後大野市立百枝小学校", "P29_005": "大分県豊後大野市三重町西泉1512", "P29_006": "3", "P29_007": "1", "P29_008": "00", "P29_009": null }, "geometry": { "type": "Point", "coordinates": [ 131.577716154036011, 33.001629182274328 ] } },
{ "type": "Feature", "properties": { "P29_001": "44212", "P29_002": "B144210001702", "P29_003": "16001", "P29_004": "豊後大野市立三重第一小学校", "P29_005": "大分県豊後大野市三重町市場1062-1", "P29_006": "3", "P29_007": "1", "P29_008": "00", "P29_009": null }, "geometry": { "type": "Point", "coordinates": [ 131.579922438433016, 32.978203619323324 ] } },
{ "type": "Feature", "properties": { "P29_001": "44212", "P29_002": "B144210001711", "P29_003": "16001", "P29_004": "豊後大野市立三重東小学校", "P29_005": "大分県豊後大野市三重町小坂3959", "P29_006": "3", "P29_007": "1", "P29_008": "00", "P29_009": null }, "geometry": { "type": "Point", "coordinates": [ 131.609905277415066, 32.989619633114131 ] } },
{ "type": "Feature", "properties": { "P29_001": "44212", "P29_002": "B144210001720", "P29_003": "16001", "P29_004": "豊後大野市立新田小学校", "P29_005": "大分県豊後大野市三重町久田1220", "P29_006": "3", "P29_007": "1", "P29_008": "00", "P29_009": null }, "geometry": { "type": "Point", "coordinates": [ 131.558627824382512, 32.970619466711746 ] } },
{ "type": "Feature", "properties": { "P29_001": "44212", "P29_002": "B144210001739", "P29_003": "16001", "P29_004": "豊後大野市立清川小学校", "P29_005": "大分県豊後大野市清川町砂田1732", "P29_006": "3", "P29_007": "1", "P29_008": "00", "P29_009": null }, "geometry": { "type": "Point", "coordinates": [ 131.514057057025724, 32.967594234387207 ] } },
{ "type": "Feature", "properties": { "P29_001": "44212", "P29_002": "B144210001748", "P29_003": "16001", "P29_004": "豊後大野市立大野小学校", "P29_005": "大分県豊後大野市大野町田中2261", "P29_006": "3", "P29_007": "1", "P29_008": "00", "P29_009": null }, "geometry": { "type": "Point", "coordinates": [ 131.501960689713286, 33.041964129177906 ] } },
{ "type": "Feature", "properties": { "P29_001": "44212", "P29_002": "B144210001757", "P29_003": "16001", "P29_004": "豊後大野市立犬飼小学校", "P29_005": "大分県豊後大野市犬飼町久原711", "P29_006": "3", "P29_007": "1", "P29_008": "00", "P29_009": null }, "geometry": { "type": "Point", "coordinates": [ 131.641518576141351, 33.071714542921768 ] } },
{ "type": "Feature", "properties": { "P29_001": "44208", "P29_002": "B144210001766", "P29_003": "16001", "P29_004": "竹田市立荻小学校", "P29_005": "大分県竹田市荻町馬場448-1", "P29_006": "3", "P29_007": "1", "P29_008": "00", "P29_009": null }, "geometry": { "type": "Point", "coordinates": [ 131.295236315211298, 32.922581324934207 ] } },
{ "type": "Feature", "properties": { "P29_001": "44208", "P29_002": "B144210001775", "P29_003": "16001", "P29_004": "竹田市立白丹小学校", "P29_005": "大分県竹田市久住町大字白丹4707", "P29_006": "3", "P29_007": "1", "P29_008": "00", "P29_009": null }, "geometry": { "type": "Point", "coordinates": [ 131.265247843222369, 33.006949449374339 ] } },
{ "type": "Feature", "properties": { "P29_001": "44208", "P29_002": "B144210001784", "P29_003": "16001", "P29_004": "竹田市立久住小学校", "P29_005": "大分県竹田市久住町大字久住2859", "P29_006": "3", "P29_007": "1", "P29_008": "00", "P29_009": null }, "geometry": { "type": "Point", "coordinates": [ 131.292060675657069, 33.024831967596519 ] } },
{ "type": "Feature", "properties": { "P29_001": "44208", "P29_002": "B144210001793", "P29_003": "16001", "P29_004": "竹田市立都野小学校", "P29_005": "大分県竹田市久住町大字栢木6037-1", "P29_006": "3", "P29_007": "1", "P29_008": "00", "P29_009": null }, "geometry": { "type": "Point", "coordinates": [ 131.330223670637167, 33.058834337145932 ] } },
{ "type": "Feature", "properties": { "P29_001": "44461", "P29_002": "B144210001800", "P29_003": "16001", "P29_004": "九重町立東飯田小学校", "P29_005": "大分県玖珠郡九重町大字恵良938", "P29_006": "3", "P29_007": "1", "P29_008": "00", "P29_009": null }, "geometry": { "type": "Point", "coordinates": [ 131.179398428325783, 33.258615700413614 ] } },
{ "type": "Feature", "properties": { "P29_001": "44461", "P29_002": "B144210001819", "P29_003": "16001", "P29_004": "九重町立野上小学校", "P29_005": "大分県玖珠郡九重町大字野上17-1", "P29_006": "3", "P29_007": "1", "P29_008": "00", "P29_009": null }, "geometry": { "type": "Point", "coordinates": [ 131.202141774631059, 33.225306645834515 ] } },
{ "type": "Feature", "properties": { "P29_001": "44461", "P29_002": "B144210001828", "P29_003": "16001", "P29_004": "九重町立野矢小学校", "P29_005": "大分県玖珠郡九重町野上3460", "P29_006": "3", "P29_007": "1", "P29_008": "00", "P29_009": null }, "geometry": { "type": "Point", "coordinates": [ 131.262613131772468, 33.239229549561507 ] } },
{ "type": "Feature", "properties": { "P29_001": "44461", "P29_002": "B144210001837", "P29_003": "16001", "P29_004": "九重町立飯田小学校", "P29_005": "大分県玖珠郡九重町大字田野1617", "P29_006": "3", "P29_007": "1", "P29_008": "00", "P29_009": null }, "geometry": { "type": "Point", "coordinates": [ 131.221765040123955, 33.159453309131671 ] } },
{ "type": "Feature", "properties": { "P29_001": "44461", "P29_002": "B144210001846", "P29_003": "16001", "P29_004": "九重町立淮園小学校", "P29_005": "大分県玖珠郡九重町大字菅原1274", "P29_006": "3", "P29_007": "1", "P29_008": "00", "P29_009": null }, "geometry": { "type": "Point", "coordinates": [ 131.159158338822522, 33.194005715531915 ] } },
{ "type": "Feature", "properties": { "P29_001": "44461", "P29_002": "B144210001855", "P29_003": "16001", "P29_004": "九重町立南山田小学校", "P29_005": "大分県玖珠郡九重町町田609", "P29_006": "3", "P29_007": "1", "P29_008": "00", "P29_009": null }, "geometry": { "type": "Point", "coordinates": [ 131.173117727710832, 33.220052925812645 ] } },
{ "type": "Feature", "properties": { "P29_001": "44462", "P29_002": "B144210001864", "P29_003": "16001", "P29_004": "玖珠町立森中央小学校", "P29_005": "大分県玖珠郡玖珠町大字森1-1", "P29_006": "3", "P29_007": "1", "P29_008": "00", "P29_009": null }, "geometry": { "type": "Point", "coordinates": [ 131.158904006412513, 33.293875308544372 ] } },
{ "type": "Feature", "properties": { "P29_001": "44462", "P29_002": "B144210001882", "P29_003": "16001", "P29_004": "玖珠町立日出生小学校", "P29_005": "大分県玖珠郡玖珠町大字日出生1934-5", "P29_006": "3", "P29_007": "9", "P29_008": "00", "P29_009": null }, "geometry": { "type": "Point", "coordinates": [ 131.253996138048649, 33.341625029853972 ] } },
{ "type": "Feature", "properties": { "P29_001": "44462", "P29_002": "B144210001891", "P29_003": "16001", "P29_004": "玖珠町立日出生小学校小野原分校", "P29_005": "大分県玖珠郡玖珠町大字日出生946-85", "P29_006": "3", "P29_007": "9", "P29_008": "00", "P29_009": null }, "geometry": { "type": "Point", "coordinates": [ 131.289442484614369, 33.327465923832065 ] } },
{ "type": "Feature", "properties": { "P29_001": "44462", "P29_002": "B144210001908", "P29_003": "16001", "P29_004": "玖珠町立塚脇小学校", "P29_005": "大分県玖珠郡玖珠町大字塚脇198", "P29_006": "3", "P29_007": "1", "P29_008": "00", "P29_009": null }, "geometry": { "type": "Point", "coordinates": [ 131.151253831569079, 33.27496590166033 ] } },
{ "type": "Feature", "properties": { "P29_001": "44462", "P29_002": "B144210001917", "P29_003": "16001", "P29_004": "玖珠町立小田小学校", "P29_005": "大分県玖珠郡玖珠町大字小田1027-1", "P29_006": "3", "P29_007": "1", "P29_008": "00", "P29_009": null }, "geometry": { "type": "Point", "coordinates": [ 131.121809639187376, 33.270367739326787 ] } },
{ "type": "Feature", "properties": { "P29_001": "44462", "P29_002": "B144210001944", "P29_003": "16001", "P29_004": "玖珠町立北山田小学校", "P29_005": "大分県玖珠郡玖珠町大字戸畑2861", "P29_006": "3", "P29_007": "1", "P29_008": "00", "P29_009": null }, "geometry": { "type": "Point", "coordinates": [ 131.095065830640777, 33.284821722327472 ] } },
{ "type": "Feature", "properties": { "P29_001": "44462", "P29_002": "B144210001953", "P29_003": "16001", "P29_004": "玖珠町立八幡小学校", "P29_005": "大分県玖珠郡玖珠町大字太田1462", "P29_006": "3", "P29_007": "1", "P29_008": "00", "P29_009": null }, "geometry": { "type": "Point", "coordinates": [ 131.13890890164555, 33.313608998900953 ] } },
{ "type": "Feature", "properties": { "P29_001": "44462", "P29_002": "B144210001962", "P29_003": "16001", "P29_004": "玖珠町立古後小学校", "P29_005": "大分県玖珠郡玖珠町大字古後1611-1", "P29_006": "3", "P29_007": "1", "P29_008": "00", "P29_009": null }, "geometry": { "type": "Point", "coordinates": [ 131.093209618896481, 33.36656858554128 ] } },
{ "type": "Feature", "properties": { "P29_001": "44203", "P29_002": "B144210001971", "P29_003": "16001", "P29_004": "中津市立秣小学校", "P29_005": "大分県中津市三光西秣1204", "P29_006": "3", "P29_007": "1", "P29_008": "00", "P29_009": null }, "geometry": { "type": "Point", "coordinates": [ 131.240182587989949, 33.531471151686894 ] } },
{ "type": "Feature", "properties": { "P29_001": "44203", "P29_002": "B144210001980", "P29_003": "16001", "P29_004": "中津市立深水小学校", "P29_005": "大分県中津市三光上深水75", "P29_006": "3", "P29_007": "1", "P29_008": "00", "P29_009": null }, "geometry": { "type": "Point", "coordinates": [ 131.261756647933851, 33.504174555382889 ] } },
{ "type": "Feature", "properties": { "P29_001": "44203", "P29_002": "B144210001999", "P29_003": "16001", "P29_004": "中津市立山口小学校", "P29_005": "大分県中津市三光成恒329", "P29_006": "3", "P29_007": "1", "P29_008": "00", "P29_009": null }, "geometry": { "type": "Point", "coordinates": [ 131.208836747409237, 33.539442334616567 ] } },
{ "type": "Feature", "properties": { "P29_001": "44203", "P29_002": "B144210002006", "P29_003": "16001", "P29_004": "中津市立真坂小学校", "P29_005": "大分県中津市三光臼木432", "P29_006": "3", "P29_007": "1", "P29_008": "00", "P29_009": null }, "geometry": { "type": "Point", "coordinates": [ 131.182820825497259, 33.5372093139989 ] } },
{ "type": "Feature", "properties": { "P29_001": "44203", "P29_002": "B144210002015", "P29_003": "16001", "P29_004": "中津市立樋田小学校", "P29_005": "大分県中津市本耶馬渓町樋田94", "P29_006": "3", "P29_007": "1", "P29_008": "00", "P29_009": null }, "geometry": { "type": "Point", "coordinates": [ 131.17268659527096, 33.504841218645396 ] } },
{ "type": "Feature", "properties": { "P29_001": "44203", "P29_002": "B144210002024", "P29_003": "16001", "P29_004": "中津市立上津小学校", "P29_005": "大分県中津市本耶馬渓町折元662", "P29_006": "3", "P29_007": "1", "P29_008": "00", "P29_009": null }, "geometry": { "type": "Point", "coordinates": [ 131.179570120512096, 33.463686903351025 ] } },
{ "type": "Feature", "properties": { "P29_001": "44203", "P29_002": "B144210002033", "P29_003": "16001", "P29_004": "中津市立城井小学校", "P29_005": "大分県中津市耶馬溪町大字平田1399", "P29_006": "3", "P29_007": "1", "P29_008": "00", "P29_009": null }, "geometry": { "type": "Point", "coordinates": [ 131.140035702476069, 33.46858535282032 ] } },
{ "type": "Feature", "properties": { "P29_001": "44203", "P29_002": "B144210002042", "P29_003": "16001", "P29_004": "中津市立下郷小学校", "P29_005": "大分県中津市耶馬溪町大字大島190-2", "P29_006": "3", "P29_007": "1", "P29_008": "00", "P29_009": null }, "geometry": { "type": "Point", "coordinates": [ 131.09951488059798, 33.428978658180945 ] } },
{ "type": "Feature", "properties": { "P29_001": "44203", "P29_002": "B144210002051", "P29_003": "16001", "P29_004": "中津市立津民小学校", "P29_005": "大分県中津市耶馬溪町大字大野1072-2", "P29_006": "3", "P29_007": "1", "P29_008": "00", "P29_009": null }, "geometry": { "type": "Point", "coordinates": [ 131.082804827988042, 33.478409926852656 ] } },
{ "type": "Feature", "properties": { "P29_001": "44203", "P29_002": "B144210002060", "P29_003": "16001", "P29_004": "中津市立三郷小学校", "P29_005": "大分県中津市山国町宇曽727", "P29_006": "3", "P29_007": "1", "P29_008": "00", "P29_009": null }, "geometry": { "type": "Point", "coordinates": [ 131.054245568259915, 33.403208341267373 ] } },
{ "type": "Feature", "properties": { "P29_001": "44211", "P29_002": "B144210002079", "P29_003": "16001", "P29_004": "宇佐市立南院内小学校", "P29_005": "大分県宇佐市院内町下恵良687", "P29_006": "3", "P29_007": "1", "P29_008": "00", "P29_009": null }, "geometry": { "type": "Point", "coordinates": [ 131.291714372121248, 33.384410978387066 ] } },
{ "type": "Feature", "properties": { "P29_001": "44211", "P29_002": "B144210002088", "P29_003": "16001", "P29_004": "宇佐市立南院内小学校羽馬礼分校", "P29_005": "大分県宇佐市院内町羽馬礼212-1", "P29_006": "3", "P29_007": "9", "P29_008": "00", "P29_009": null }, "geometry": { "type": "Point", "coordinates": [ 131.275340659276651, 33.352385479144353 ] } },
{ "type": "Feature", "properties": { "P29_001": "44211", "P29_002": "B144210002097", "P29_003": "16001", "P29_004": "宇佐市立深見小学校", "P29_005": "大分県宇佐市安心院町矢畑40-2", "P29_006": "3", "P29_007": "1", "P29_008": "00", "P29_009": null }, "geometry": { "type": "Point", "coordinates": [ 131.341088262340946, 33.393438105230771 ] } },
{ "type": "Feature", "properties": { "P29_001": "44211", "P29_002": "B144210002104", "P29_003": "16001", "P29_004": "宇佐市立深見小学校福貴野分校", "P29_005": "大分県宇佐市安心院町福貴野33", "P29_006": "3", "P29_007": "9", "P29_008": "00", "P29_009": null }, "geometry": { "type": "Point", "coordinates": [ 131.338108040948811, 33.351787249920186 ] } },
{ "type": "Feature", "properties": { "P29_001": "44211", "P29_002": "B144210002113", "P29_003": "16001", "P29_004": "宇佐市立安心院小学校", "P29_005": "大分県宇佐市安心院町木裳115-1", "P29_006": "3", "P29_007": "1", "P29_008": "00", "P29_009": null }, "geometry": { "type": "Point", "coordinates": [ 131.358374427500536, 33.435323356352953 ] } },
{ "type": "Feature", "properties": { "P29_001": "44211", "P29_002": "B144210002122", "P29_003": "16001", "P29_004": "宇佐市立津房小学校", "P29_005": "大分県宇佐市安心院町五郎丸380-2", "P29_006": "3", "P29_007": "1", "P29_008": "00", "P29_009": null }, "geometry": { "type": "Point", "coordinates": [ 131.39672060547349, 33.390870891435625 ] } },
{ "type": "Feature", "properties": { "P29_001": "44211", "P29_002": "B144210002131", "P29_003": "16001", "P29_004": "宇佐市立佐田小学校", "P29_005": "大分県宇佐市安心院町佐田215", "P29_006": "3", "P29_007": "1", "P29_008": "00", "P29_009": null }, "geometry": { "type": "Point", "coordinates": [ 131.395756092500562, 33.441613249702968 ] } },
{ "type": "Feature", "properties": { "P29_001": "44202", "P29_002": "B144210002140", "P29_003": "16001", "P29_004": "別府市立鶴見小学校", "P29_005": "大分県別府市大字鶴見4034", "P29_006": "3", "P29_007": "1", "P29_008": "00", "P29_009": null }, "geometry": { "type": "Point", "coordinates": [ 131.469694708634421, 33.295634582468338 ] } },
{ "type": "Feature", "properties": { "P29_001": "44201", "P29_002": "B144210002159", "P29_003": "16001", "P29_004": "大分市立明野北小学校", "P29_005": "大分県大分市大字明野北4-10-1", "P29_006": "3", "P29_007": "1", "P29_008": "00", "P29_009": null }, "geometry": { "type": "Point", "coordinates": [ 131.655945994296985, 33.230163004528855 ] } },
{ "type": "Feature", "properties": { "P29_001": "44201", "P29_002": "B144210002168", "P29_003": "16001", "P29_004": "大分市立宗方小学校", "P29_005": "大分県大分市大字松が丘1-24-1", "P29_006": "3", "P29_007": "1", "P29_008": "00", "P29_009": null }, "geometry": { "type": "Point", "coordinates": [ 131.577082500892487, 33.20501334700301 ] } },
{ "type": "Feature", "properties": { "P29_001": "44202", "P29_002": "B144210002177", "P29_003": "16001", "P29_004": "別府市立春木川小学校", "P29_005": "大分県別府市大字北石垣1218-5", "P29_006": "3", "P29_007": "1", "P29_008": "00", "P29_009": null }, "geometry": { "type": "Point", "coordinates": [ 131.49677464574367, 33.307374052817252 ] } },
{ "type": "Feature", "properties": { "P29_001": "44201", "P29_002": "B144210002186", "P29_003": "16001", "P29_004": "大分市立森岡小学校", "P29_005": "大分県大分市大字曲1041-2", "P29_006": "3", "P29_007": "1", "P29_008": "00", "P29_009": null }, "geometry": { "type": "Point", "coordinates": [ 131.614046399754869, 33.20554172719109 ] } },
{ "type": "Feature", "properties": { "P29_001": "44201", "P29_002": "B144210002195", "P29_003": "16001", "P29_004": "大分市立舞鶴小学校", "P29_005": "大分県大分市西浜2-1", "P29_006": "3", "P29_007": "1", "P29_008": "00", "P29_009": null }, "geometry": { "type": "Point", "coordinates": [ 131.625804074899719, 33.246727559346624 ] } },
{ "type": "Feature", "properties": { "P29_001": "44205", "P29_002": "B144210002202", "P29_003": "16001", "P29_004": "佐伯市立渡町台小学校", "P29_005": "大分県佐伯市長島町3-16-1", "P29_006": "3", "P29_007": "1", "P29_008": "00", "P29_009": null }, "geometry": { "type": "Point", "coordinates": [ 131.908546617148176, 32.958427478090343 ] } },
{ "type": "Feature", "properties": { "P29_001": "44201", "P29_002": "B144210002211", "P29_003": "16001", "P29_004": "大分市立横瀬小学校", "P29_005": "大分県大分市大字横瀬1109-1", "P29_006": "3", "P29_007": "1", "P29_008": "00", "P29_009": null }, "geometry": { "type": "Point", "coordinates": [ 131.540984062464673, 33.185672415094139 ] } },
{ "type": "Feature", "properties": { "P29_001": "44212", "P29_002": "B144210002220", "P29_003": "16001", "P29_004": "豊後大野市立千歳小学校", "P29_005": "大分県豊後大野市千歳町新殿761-1", "P29_006": "3", "P29_007": "1", "P29_008": "00", "P29_009": null }, "geometry": { "type": "Point", "coordinates": [ 131.596894548321501, 33.038401598794955 ] } },
{ "type": "Feature", "properties": { "P29_001": "44201", "P29_002": "B144210002239", "P29_003": "16001", "P29_004": "大分市立寒田小学校", "P29_005": "大分県大分市大字寒田684-4", "P29_006": "3", "P29_007": "1", "P29_008": "00", "P29_009": null }, "geometry": { "type": "Point", "coordinates": [ 131.604562473480826, 33.183856589905425 ] } },
{ "type": "Feature", "properties": { "P29_001": "44202", "P29_002": "B144210002248", "P29_003": "16001", "P29_004": "別府市立緑丘小学校", "P29_005": "大分県別府市大字鶴見3789-1", "P29_006": "3", "P29_007": "1", "P29_008": "00", "P29_009": null }, "geometry": { "type": "Point", "coordinates": [ 131.486894001144833, 33.297285003453794 ] } },
{ "type": "Feature", "properties": { "P29_001": "44202", "P29_002": "B144210002257", "P29_003": "16001", "P29_004": "別府市立大平山小学校", "P29_005": "大分県別府市大字鶴見1991", "P29_006": "3", "P29_007": "1", "P29_008": "00", "P29_009": null }, "geometry": { "type": "Point", "coordinates": [ 131.466916751727553, 33.301489946796288 ] } },
{ "type": "Feature", "properties": { "P29_001": "44201", "P29_002": "B144210002266", "P29_003": "16001", "P29_004": "大分市立鴛野小学校", "P29_005": "大分県大分市大字鴛野108-1", "P29_006": "3", "P29_007": "1", "P29_008": "00", "P29_009": null }, "geometry": { "type": "Point", "coordinates": [ 131.619341477036954, 33.183723905840104 ] } },
{ "type": "Feature", "properties": { "P29_001": "44204", "P29_002": "B144210002275", "P29_003": "16001", "P29_004": "日田市立桂林小学校", "P29_005": "大分県日田市上城内町2-35", "P29_006": "3", "P29_007": "1", "P29_008": "00", "P29_009": null }, "geometry": { "type": "Point", "coordinates": [ 130.942857725212747, 33.326961460409393 ] } },
{ "type": "Feature", "properties": { "P29_001": "44201", "P29_002": "B144210002284", "P29_003": "16001", "P29_004": "大分市立田尻小学校", "P29_005": "大分県大分市大字田尻1250", "P29_006": "3", "P29_007": "1", "P29_008": "00", "P29_009": null }, "geometry": { "type": "Point", "coordinates": [ 131.590137371467875, 33.177771132898457 ] } },
{ "type": "Feature", "properties": { "P29_001": "44211", "P29_002": "B144210002293", "P29_003": "16001", "P29_004": "宇佐市立院内中部小学校", "P29_005": "大分県宇佐市院内町山城91", "P29_006": "3", "P29_007": "1", "P29_008": "00", "P29_009": null }, "geometry": { "type": "Point", "coordinates": [ 131.315694672049858, 33.418297515044948 ] } },
{ "type": "Feature", "properties": { "P29_001": "44201", "P29_002": "B144210002300", "P29_003": "16001", "P29_004": "大分市立荏隈小学校", "P29_005": "大分県大分市大字荏隈1380", "P29_006": "3", "P29_007": "1", "P29_008": "00", "P29_009": null }, "geometry": { "type": "Point", "coordinates": [ 131.577560143771706, 33.214434784965071 ] } },
{ "type": "Feature", "properties": { "P29_001": "44203", "P29_002": "B144210002319", "P29_003": "16001", "P29_004": "中津市立沖代小学校", "P29_005": "大分県中津市中央町2-3-33", "P29_006": "3", "P29_007": "1", "P29_008": "00", "P29_009": null }, "geometry": { "type": "Point", "coordinates": [ 131.19447360652731, 33.586148894240637 ] } },
{ "type": "Feature", "properties": { "P29_001": "44201", "P29_002": "B144210002328", "P29_003": "16001", "P29_004": "大分市立明治北小学校", "P29_005": "大分県大分市大字小池原428-1", "P29_006": "3", "P29_007": "1", "P29_008": "00", "P29_009": null }, "geometry": { "type": "Point", "coordinates": [ 131.667759060854678, 33.233346677021466 ] } },
{ "type": "Feature", "properties": { "P29_001": "44211", "P29_002": "B144210002337", "P29_003": "16001", "P29_004": "宇佐市立四日市南小学校", "P29_005": "大分県宇佐市四日市1726", "P29_006": "3", "P29_007": "1", "P29_008": "00", "P29_009": null }, "geometry": { "type": "Point", "coordinates": [ 131.327975858987088, 33.52665392970011 ] } },
{ "type": "Feature", "properties": { "P29_001": "44211", "P29_002": "B144210002346", "P29_003": "16001", "P29_004": "宇佐市立院内北部小学校", "P29_005": "大分県宇佐市院内町櫛野646", "P29_006": "3", "P29_007": "1", "P29_008": "00", "P29_009": null }, "geometry": { "type": "Point", "coordinates": [ 131.328839981720222, 33.461405999588145 ] } },
{ "type": "Feature", "properties": { "P29_001": "44201", "P29_002": "B144210002355", "P29_003": "16001", "P29_004": "大分市立横瀬西小学校", "P29_005": "大分県大分市大字横瀬2469", "P29_006": "3", "P29_007": "1", "P29_008": "00", "P29_009": null }, "geometry": { "type": "Point", "coordinates": [ 131.531429344421724, 33.190477935595034 ] } },
{ "type": "Feature", "properties": { "P29_001": "44201", "P29_002": "B144210002364", "P29_003": "16001", "P29_004": "大分市立西の台小学校", "P29_005": "大分県大分市にじが丘3-1717-1", "P29_006": "3", "P29_007": "1", "P29_008": "00", "P29_009": null }, "geometry": { "type": "Point", "coordinates": [ 131.584433500551057, 33.228000817796854 ] } },
{ "type": "Feature", "properties": { "P29_001": "44204", "P29_002": "B144210002373", "P29_003": "16001", "P29_004": "日田市立小野小学校", "P29_005": "大分県日田市鈴連町1658-1", "P29_006": "3", "P29_007": "1", "P29_008": "00", "P29_009": null }, "geometry": { "type": "Point", "coordinates": [ 130.941419210865661, 33.394203139271241 ] } },
{ "type": "Feature", "properties": { "P29_001": "44201", "P29_002": "B144210002382", "P29_003": "16001", "P29_004": "大分市立下郡小学校", "P29_005": "大分県大分市下郡北3-17-23", "P29_006": "3", "P29_007": "1", "P29_008": "00", "P29_009": null }, "geometry": { "type": "Point", "coordinates": [ 131.634173766739792, 33.228668818809936 ] } },
{ "type": "Feature", "properties": { "P29_001": "44202", "P29_002": "B144210002391", "P29_003": "16001", "P29_004": "別府市立南小学校", "P29_005": "大分県別府市浜脇3-7-13", "P29_006": "3", "P29_007": "1", "P29_008": "00", "P29_009": null }, "geometry": { "type": "Point", "coordinates": [ 131.502989070218177, 33.270784349444114 ] } },
{ "type": "Feature", "properties": { "P29_001": "44209", "P29_002": "B144210002408", "P29_003": "16001", "P29_004": "豊後高田市立真玉小学校", "P29_005": "大分県豊後高田市中真玉5809", "P29_006": "3", "P29_007": "1", "P29_008": "00", "P29_009": null }, "geometry": { "type": "Point", "coordinates": [ 131.492649111685267, 33.600382321740526 ] } },
{ "type": "Feature", "properties": { "P29_001": "44212", "P29_002": "B144210002417", "P29_003": "16001", "P29_004": "豊後大野市立朝地小学校", "P29_005": "大分県豊後大野市朝地町朝地2030", "P29_006": "3", "P29_007": "1", "P29_008": "00", "P29_009": null }, "geometry": { "type": "Point", "coordinates": [ 131.429770137449225, 33.012963251584893 ] } },
{ "type": "Feature", "properties": { "P29_001": "44201", "P29_002": "B144210002426", "P29_003": "16001", "P29_004": "大分市立大在西小学校", "P29_005": "大分県大分市角子原1-4-41", "P29_006": "3", "P29_007": "1", "P29_008": "00", "P29_009": null }, "geometry": { "type": "Point", "coordinates": [ 131.708717849319129, 33.247048709737513 ] } },
{ "type": "Feature", "properties": { "P29_001": "44205", "P29_002": "B144210002435", "P29_003": "16001", "P29_004": "佐伯市立本匠小学校", "P29_005": "大分県佐伯市本匠大字笠掛1415", "P29_006": "3", "P29_007": "1", "P29_008": "00", "P29_009": null }, "geometry": { "type": "Point", "coordinates": [ 131.802534877218903, 32.955639346622647 ] } },
{ "type": "Feature", "properties": { "P29_001": "44208", "P29_002": "B144210002444", "P29_003": "16001", "P29_004": "竹田市立直入小学校", "P29_005": "大分県竹田市直入町大字長湯3088", "P29_006": "3", "P29_007": "1", "P29_008": "00", "P29_009": null }, "geometry": { "type": "Point", "coordinates": [ 131.371208611928694, 33.065710087989224 ] } },
{ "type": "Feature", "properties": { "P29_001": "44214", "P29_002": "B144210002453", "P29_003": "16001", "P29_004": "国東市立安岐中央小学校", "P29_005": "大分県国東市安岐町中園210-1", "P29_006": "3", "P29_007": "1", "P29_008": "00", "P29_009": null }, "geometry": { "type": "Point", "coordinates": [ 131.694873343633617, 33.463853219488193 ] } },
{ "type": "Feature", "properties": { "P29_001": "44202", "P29_002": "B144210002462", "P29_003": "16001", "P29_004": "別府市立別府中央小学校", "P29_005": "大分県別府市京町818-26", "P29_006": "3", "P29_007": "1", "P29_008": "00", "P29_009": null }, "geometry": { "type": "Point", "coordinates": [ 131.505032678046376, 33.287921561444719 ] } },
{ "type": "Feature", "properties": { "P29_001": "44206", "P29_002": "B144210002471", "P29_003": "16001", "P29_004": "臼杵市立臼杵南小学校", "P29_005": "大分県臼杵市大字掻懐1483", "P29_006": "3", "P29_007": "1", "P29_008": "00", "P29_009": null }, "geometry": { "type": "Point", "coordinates": [ 131.757505725841753, 33.091377823724713 ] } },
{ "type": "Feature", "properties": { "P29_001": "44208", "P29_002": "B144210002480", "P29_003": "16001", "P29_004": "竹田市立竹田小学校", "P29_005": "大分県竹田市会々1637", "P29_006": "3", "P29_007": "1", "P29_008": "00", "P29_009": null }, "geometry": { "type": "Point", "coordinates": [ 131.399770103885885, 32.973938142340131 ] } },
{ "type": "Feature", "properties": { "P29_001": "44205", "P29_002": "B144210002499", "P29_003": "16001", "P29_004": "佐伯市立宇目緑豊小学校", "P29_005": "大分県佐伯市宇目大字千束2241", "P29_006": "3", "P29_007": "1", "P29_008": "00", "P29_009": null }, "geometry": { "type": "Point", "coordinates": [ 131.673334723855675, 32.857061309226218 ] } },
{ "type": "Feature", "properties": { "P29_001": "44211", "P29_002": "B144210002505", "P29_003": "16001", "P29_004": "宇佐市立院内中部小学校上院内分校", "P29_005": "大分県宇佐市院内町定別当44", "P29_006": "3", "P29_007": "9", "P29_008": "00", "P29_009": null }, "geometry": { "type": "Point", "coordinates": [ 131.252731996013551, 33.392520995391997 ] } },
{ "type": "Feature", "properties": { "P29_001": "44212", "P29_002": "B144210002514", "P29_003": "16001", "P29_004": "豊後大野市立緒方小学校", "P29_005": "大分県豊後大野市緒方町馬場100", "P29_006": "3", "P29_007": "1", "P29_008": "00", "P29_009": null }, "geometry": { "type": "Point", "coordinates": [ 131.473095675654861, 32.972831776716745 ] } },
{ "type": "Feature", "properties": { "P29_001": "44204", "P29_002": "B144210002523", "P29_003": "16001", "P29_004": "日田市立大明小学校", "P29_005": "大分県日田市大肥本町1701", "P29_006": "3", "P29_007": "1", "P29_008": "00", "P29_009": null }, "geometry": { "type": "Point", "coordinates": [ 130.882516315855923, 33.364998321820352 ] } },
{ "type": "Feature", "properties": { "P29_001": "44204", "P29_002": "B144210002532", "P29_003": "16001", "P29_004": "日田市立前津江小学校", "P29_005": "大分県日田市前津江町大野2562", "P29_006": "3", "P29_007": "1", "P29_008": "00", "P29_009": null }, "geometry": { "type": "Point", "coordinates": [ 130.920795836961389, 33.210763117013151 ] } },
{ "type": "Feature", "properties": { "P29_001": "44204", "P29_002": "B144210002541", "P29_003": "16001", "P29_004": "日田市立津江小学校", "P29_005": "大分県日田市中津江村栃野4341", "P29_006": "3", "P29_007": "1", "P29_008": "00", "P29_009": null }, "geometry": { "type": "Point", "coordinates": [ 130.971441055466954, 33.140060060593846 ] } },
{ "type": "Feature", "properties": { "P29_001": "44204", "P29_002": "B144210002550", "P29_003": "16001", "P29_004": "日田市立東渓小学校", "P29_005": "大分県日田市天瀬町馬原4011-1", "P29_006": "3", "P29_007": "1", "P29_008": "00", "P29_009": null }, "geometry": { "type": "Point", "coordinates": [ 131.007542112194415, 33.287145451951027 ] } },
{ "type": "Feature", "properties": { "P29_001": "44204", "P29_002": "B144210002569", "P29_003": "16001", "P29_004": "日田市立いつま小学校", "P29_005": "大分県日田市天瀬町五馬市2040", "P29_006": "3", "P29_007": "1", "P29_008": "00", "P29_009": null }, "geometry": { "type": "Point", "coordinates": [ 131.019574332902437, 33.233012907252494 ] } },
{ "type": "Feature", "properties": { "P29_001": "44214", "P29_002": "B144210002578", "P29_003": "16001", "P29_004": "国東市立富来小学校", "P29_005": "大分県国東市国東町富来浦677-4", "P29_006": "3", "P29_007": "1", "P29_008": "00", "P29_009": null }, "geometry": { "type": "Point", "coordinates": [ 131.701360199239417, 33.60821628750584 ] } },
{ "type": "Feature", "properties": { "P29_001": "44204", "P29_002": "B144210002587", "P29_003": "16001", "P29_004": "日田市立大山小学校", "P29_005": "大分県日田市大山町西大山3615-1", "P29_006": "3", "P29_007": "1", "P29_008": "00", "P29_009": null }, "geometry": { "type": "Point", "coordinates": [ 130.969330806338746, 33.257165739987911 ] } },
{ "type": "Feature", "properties": { "P29_001": "44210", "P29_002": "B144210002596", "P29_003": "16001", "P29_004": "杵築市立大田小学校", "P29_005": "大分県杵築市大田石丸1412-1", "P29_006": "3", "P29_007": "1", "P29_008": "00", "P29_009": null }, "geometry": { "type": "Point", "coordinates": [ 131.558378605515713, 33.493634548429085 ] } },
{ "type": "Feature", "properties": { "P29_001": "44201", "P29_002": "B144210002603", "P29_003": "16001", "P29_004": "大分市立敷戸小学校はばたき分校", "P29_005": "大分県大分市芳河原台11-27", "P29_006": "3", "P29_007": "1", "P29_008": "00", "P29_009": null }, "geometry": { "type": "Point", "coordinates": [ 131.615683231083182, 33.19447381387311 ] } },
{ "type": "Feature", "properties": { "P29_001": "44202", "P29_002": "B144210002612", "P29_003": "16001", "P29_004": "別府市立山の手小学校", "P29_005": "大分県別府市青山町5-68", "P29_006": "3", "P29_007": "1", "P29_008": "00", "P29_009": null }, "geometry": { "type": "Point", "coordinates": [ 131.49369579239945, 33.278408087343557 ] } },
{ "type": "Feature", "properties": { "P29_001": "44205", "P29_002": "B144210002621", "P29_003": "16001", "P29_004": "佐伯市立米水津小学校", "P29_005": "大分県佐伯市米水津大字浦代浦150-2", "P29_006": "3", "P29_007": "1", "P29_008": "00", "P29_009": null }, "geometry": { "type": "Point", "coordinates": [ 131.980062002743466, 32.921846001924656 ] } },
{ "type": "Feature", "properties": { "P29_001": "44205", "P29_002": "B144210002630", "P29_003": "16001", "P29_004": "佐伯市立蒲江湘南小学校", "P29_005": "大分県佐伯市蒲江大字蒲江浦943-3", "P29_006": "3", "P29_007": "1", "P29_008": "00", "P29_009": null }, "geometry": { "type": "Point", "coordinates": [ 131.942877607396241, 32.803171087183109 ] } },
{ "type": "Feature", "properties": { "P29_001": "44201", "P29_002": "B144210002649", "P29_003": "16001", "P29_004": "大分市立野津原小学校", "P29_005": "大分県大分市大字野津原1774-1", "P29_006": "3", "P29_007": "1", "P29_008": "00", "P29_009": null }, "geometry": { "type": "Point", "coordinates": [ 131.530603265988674, 33.165576999869486 ] } },
{ "type": "Feature", "properties": { "P29_001": "44214", "P29_002": "B144210002658", "P29_003": "16001", "P29_004": "国東市立国見小学校", "P29_005": "大分県国東市国見町中850", "P29_006": "3", "P29_007": "1", "P29_008": "00", "P29_009": null }, "geometry": { "type": "Point", "coordinates": [ 131.590136514787247, 33.66772615431568 ] } },
{ "type": "Feature", "properties": { "P29_001": "44202", "P29_002": "B144310000015", "P29_003": "16001", "P29_004": "明星小学校", "P29_005": "大分県別府市野口原3088", "P29_006": "4", "P29_007": "1", "P29_008": "00", "P29_009": null }, "geometry": { "type": "Point", "coordinates": [ 131.483284458307054, 33.284656016262318 ] } }
]
}
