{
"type": "FeatureCollection",
"name": "geo_44_通所リハビリテーション",
"crs": { "type": "name", "properties": { "name": "urn:ogc:def:crs:OGC:1.3:CRS84" } },
"features": [
{ "type": "Feature", "properties": { "内容": "真央クリニックデイケア【通所リハビリテーション】大分県大分市大字小池原字宮ノ下１１６７番地の１", "url": "https://www.kaigokensaku.mhlw.go.jp/44/index.php?action_kouhyou_detail_004_kani=true&JigyosyoCd=4470103385-00&ServiceCd=160&Type=search", "url2": "http://www.shin-ou.jp" }, "geometry": { "type": "Point", "coordinates": [ 131.662115200000017, 33.2332406 ] } },
{ "type": "Feature", "properties": { "内容": "たねだ内科【通所リハビリテーション】大分県大分市豊饒二丁目3番23号", "url": "https://www.kaigokensaku.mhlw.go.jp/44/index.php?action_kouhyou_detail_004_kani=true&JigyosyoCd=4410114831-00&ServiceCd=160&Type=search", "url2": "http;//www.oct-net.ne.jp/taneda" }, "geometry": { "type": "Point", "coordinates": [ 131.598214591401586, 33.209655911094366 ] } },
{ "type": "Feature", "properties": { "内容": "猿渡整形外科デイケアセンター【通所リハビリテーション】大分市竹下2丁目126番地", "url": "https://www.kaigokensaku.mhlw.go.jp/44/index.php?action_kouhyou_detail_004_kani=true&JigyosyoCd=4410122313-00&ServiceCd=160&Type=search", "url2": "http://sawatari-cl.com/" }, "geometry": { "type": "Point", "coordinates": [ 131.731716299999988, 33.2407035 ] } },
{ "type": "Feature", "properties": { "内容": "安武医院デイ・ケア【通所リハビリテーション】大分県大分市今津留１丁目３番１４号", "url": "https://www.kaigokensaku.mhlw.go.jp/44/index.php?action_kouhyou_detail_004_kani=true&JigyosyoCd=4470103724-00&ServiceCd=160&Type=search", "url2": null }, "geometry": { "type": "Point", "coordinates": [ 131.625289699999939, 33.2406082 ] } },
{ "type": "Feature", "properties": { "内容": "松岡メディカルクリニック　通所リハビリテーション【通所リハビリテーション】大分県大分市大字松岡1824-1", "url": "https://www.kaigokensaku.mhlw.go.jp/44/index.php?action_kouhyou_detail_004_kani=true&JigyosyoCd=4410118303-00&ServiceCd=160&Type=search", "url2": "www.matuoka.net" }, "geometry": { "type": "Point", "coordinates": [ 131.663693700000067, 33.178663 ] } },
{ "type": "Feature", "properties": { "内容": "デイケアおおつか【通所リハビリテーション】大分県大分市住吉町1丁目2番16号メディケアおおつか　１階", "url": "https://www.kaigokensaku.mhlw.go.jp/44/index.php?action_kouhyou_detail_004_kani=true&JigyosyoCd=4470108459-00&ServiceCd=160&Type=search", "url2": "http://www.otsuka.mc.jp" }, "geometry": { "type": "Point", "coordinates": [ 131.6052558, 33.2454017 ] } },
{ "type": "Feature", "properties": { "内容": "今村病院通所リハビリテーション【通所リハビリテーション】大分県大分市大手町3丁目2番29号", "url": "https://www.kaigokensaku.mhlw.go.jp/44/index.php?action_kouhyou_detail_004_kani=true&JigyosyoCd=4470110596-00&ServiceCd=160&Type=search", "url2": "http://imamura-hospital.jp/" }, "geometry": { "type": "Point", "coordinates": [ 131.613901, 33.2389495 ] } },
{ "type": "Feature", "properties": { "内容": "デイケア中島【通所リハビリテーション】大分県大分市中島中央1丁目1番8号", "url": "https://www.kaigokensaku.mhlw.go.jp/44/index.php?action_kouhyou_detail_004_kani=true&JigyosyoCd=4450180130-00&ServiceCd=160&Type=search", "url2": "http://otsuka-mc.jp/" }, "geometry": { "type": "Point", "coordinates": [ 131.612713, 33.242655 ] } },
{ "type": "Feature", "properties": { "内容": "アクアフィットネス通所リハビリ【通所リハビリテーション】大分県大分市東鶴崎2丁目３番２２号アクアフィットネス通所リハビリ", "url": "https://www.kaigokensaku.mhlw.go.jp/44/index.php?action_kouhyou_detail_004_kani=true&JigyosyoCd=4470109804-00&ServiceCd=160&Type=search", "url2": null }, "geometry": { "type": "Point", "coordinates": [ 131.696300899999983, 33.2386472 ] } },
{ "type": "Feature", "properties": { "内容": "明野中央病院【通所リハビリテーション】明野東2丁目7番33号", "url": "https://www.kaigokensaku.mhlw.go.jp/44/index.php?action_kouhyou_detail_004_kani=true&JigyosyoCd=4410114369-00&ServiceCd=160&Type=search", "url2": "https://www.akenohp.jp" }, "geometry": { "type": "Point", "coordinates": [ 131.657232199999953, 33.2206135 ] } },
{ "type": "Feature", "properties": { "内容": "デイケアしんけん【通所リハビリテーション】大分県大分市大字寒田1054番地1", "url": "https://www.kaigokensaku.mhlw.go.jp/44/index.php?action_kouhyou_detail_004_kani=true&JigyosyoCd=4410123188-00&ServiceCd=160&Type=search", "url2": "info@takahashi-hp.net" }, "geometry": { "type": "Point", "coordinates": [ 131.6107718, 33.1870593 ] } },
{ "type": "Feature", "properties": { "内容": "通所リハビリテーションサファイア【通所リハビリテーション】大分県大分市永興2丁目8-77", "url": "https://www.kaigokensaku.mhlw.go.jp/44/index.php?action_kouhyou_detail_004_kani=true&JigyosyoCd=4470103435-00&ServiceCd=160&Type=search", "url2": null }, "geometry": { "type": "Point", "coordinates": [ 131.584452581216624, 33.218517095199097 ] } },
{ "type": "Feature", "properties": { "内容": "井野辺病院　通所リハビリテーション【通所リハビリテーション】大分県大分市大字中尾字平255番地", "url": "https://www.kaigokensaku.mhlw.go.jp/44/index.php?action_kouhyou_detail_004_kani=true&JigyosyoCd=4470101769-00&ServiceCd=160&Type=search", "url2": "http//www.inobe.or.jp/" }, "geometry": { "type": "Point", "coordinates": [ 131.4622061, 33.4242502 ] } },
{ "type": "Feature", "properties": { "内容": "井野辺府内クリニック　通所リハビリテーション【通所リハビリテーション】大分県大分市府内町1丁目3番23号井野辺府内クリニック", "url": "https://www.kaigokensaku.mhlw.go.jp/44/index.php?action_kouhyou_detail_004_kani=true&JigyosyoCd=4470102577-00&ServiceCd=160&Type=search", "url2": "http://www.inobe.or.jp/" }, "geometry": { "type": "Point", "coordinates": [ 131.610016399999921, 33.235130250452571 ] } },
{ "type": "Feature", "properties": { "内容": "南大分通所リハビリテーション【通所リハビリテーション】大分県大分市明磧町1丁目2番9号", "url": "https://www.kaigokensaku.mhlw.go.jp/44/index.php?action_kouhyou_detail_004_kani=true&JigyosyoCd=4470102817-00&ServiceCd=160&Type=search", "url2": "http://www.kyoritu-hospital.com/hos-index" }, "geometry": { "type": "Point", "coordinates": [ 131.588277299999959, 33.207621 ] } },
{ "type": "Feature", "properties": { "内容": "あけのメディカルクリニック通所リハビリテーション【通所リハビリテーション】大分県大分市大字横尾4451番地の5", "url": "https://www.kaigokensaku.mhlw.go.jp/44/index.php?action_kouhyou_detail_004_kani=true&JigyosyoCd=4470101942-00&ServiceCd=160&Type=search", "url2": "http://www.akenomedical.net/" }, "geometry": { "type": "Point", "coordinates": [ 131.664579600000025, 33.2080158 ] } },
{ "type": "Feature", "properties": { "内容": "デイケア浦田【通所リハビリテーション】大分県大分市花津留2丁目10番2号", "url": "https://www.kaigokensaku.mhlw.go.jp/44/index.php?action_kouhyou_detail_004_kani=true&JigyosyoCd=4470100985-00&ServiceCd=160&Type=search", "url2": "uratakaigo@siren.ocn.ne.jp" }, "geometry": { "type": "Point", "coordinates": [ 131.63336419999996, 33.2437609 ] } },
{ "type": "Feature", "properties": { "内容": "米満内科医院デイケアほがらか【通所リハビリテーション】大分県大分市明野南1丁目２７番10号", "url": "https://www.kaigokensaku.mhlw.go.jp/44/index.php?action_kouhyou_detail_004_kani=true&JigyosyoCd=4470104789-00&ServiceCd=160&Type=search", "url2": "yonemitsunaikiin.com" }, "geometry": { "type": "Point", "coordinates": [ 131.649608199999989, 33.2216026 ] } },
{ "type": "Feature", "properties": { "内容": "デイケアセンター月うさぎ【通所リハビリテーション】大分県大分市津守828-3", "url": "https://www.kaigokensaku.mhlw.go.jp/44/index.php?action_kouhyou_detail_004_kani=true&JigyosyoCd=4470105257-00&ServiceCd=160&Type=search", "url2": "http://k-suwanomori.com" }, "geometry": { "type": "Point", "coordinates": [ 131.617843900000025, 33.2087559 ] } },
{ "type": "Feature", "properties": { "内容": "デイ・ケアやました【通所リハビリテーション】大分県大分市大字下判田2349番地の1", "url": "https://www.kaigokensaku.mhlw.go.jp/44/index.php?action_kouhyou_detail_004_kani=true&JigyosyoCd=4470100910-00&ServiceCd=160&Type=search", "url2": "http://yamashita/chobi.net/" }, "geometry": { "type": "Point", "coordinates": [ 131.642784600000027, 33.1637443 ] } },
{ "type": "Feature", "properties": { "内容": "デイケアさくらハウス【通所リハビリテーション】大分県大分市牧1丁目25番1号", "url": "https://www.kaigokensaku.mhlw.go.jp/44/index.php?action_kouhyou_detail_004_kani=true&JigyosyoCd=4450100013-00&ServiceCd=160&Type=search", "url2": "http://www.zeze.-hospi.org/" }, "geometry": { "type": "Point", "coordinates": [ 131.6381222, 33.2391308 ] } },
{ "type": "Feature", "properties": { "内容": "えとう内科病院【通所リハビリテーション】大分市中判田1428番地1", "url": "https://www.kaigokensaku.mhlw.go.jp/44/index.php?action_kouhyou_detail_004_kani=true&JigyosyoCd=4470110745-00&ServiceCd=160&Type=search", "url2": "etounaika-hosp.com" }, "geometry": { "type": "Point", "coordinates": [ 131.631553100000019, 33.1670757 ] } },
{ "type": "Feature", "properties": { "内容": "医療法人　社団　三杏会　仁医会病院【通所リハビリテーション】大分県大分市大字古国府6丁目2番47号", "url": "https://www.kaigokensaku.mhlw.go.jp/44/index.php?action_kouhyou_detail_004_kani=true&JigyosyoCd=4410115317-00&ServiceCd=160&Type=search", "url2": "www.jinikai.com" }, "geometry": { "type": "Point", "coordinates": [ 131.611024060075067, 33.216426890769945 ] } },
{ "type": "Feature", "properties": { "内容": "リバーサイド百々園デイケアセンター【通所リハビリテーション】大分県大分市大字津守字山崎2742-1", "url": "https://www.kaigokensaku.mhlw.go.jp/44/index.php?action_kouhyou_detail_004_kani=true&JigyosyoCd=4450180072-00&ServiceCd=160&Type=search", "url2": "http://momoen.jp/" }, "geometry": { "type": "Point", "coordinates": [ 131.628991917427129, 33.210802532594634 ] } },
{ "type": "Feature", "properties": { "内容": "だいかく病院デイケアサービスセンター【通所リハビリテーション】大分県大分市下郡山の手２番１８号", "url": "https://www.kaigokensaku.mhlw.go.jp/44/index.php?action_kouhyou_detail_004_kani=true&JigyosyoCd=4470101579-00&ServiceCd=160&Type=search", "url2": "http://www.daikaku-hp.jp/" }, "geometry": { "type": "Point", "coordinates": [ 131.639025932354798, 33.221087887006817 ] } },
{ "type": "Feature", "properties": { "内容": "辛島内科・消化器内科【通所リハビリテーション】大分市賀来新川二丁目1番15号", "url": "https://www.kaigokensaku.mhlw.go.jp/44/index.php?action_kouhyou_detail_004_kani=true&JigyosyoCd=4410116463-00&ServiceCd=160&Type=search", "url2": "http://www.clinic-kaku-oita.com/pc/" }, "geometry": { "type": "Point", "coordinates": [ 131.574348, 33.2127421 ] } },
{ "type": "Feature", "properties": { "内容": "オアシス通所リハビリ【通所リハビリテーション】大分県大分市東鶴崎3丁目3番19号", "url": "https://www.kaigokensaku.mhlw.go.jp/44/index.php?action_kouhyou_detail_004_kani=true&JigyosyoCd=4410121158-00&ServiceCd=160&Type=search", "url2": "http://www.oasis-hp.jp/" }, "geometry": { "type": "Point", "coordinates": [ 131.695850899999982, 33.237914 ] } },
{ "type": "Feature", "properties": { "内容": "介護老人保健施設　小野鶴養生院【通所リハビリテーション】大分県大分市大字小野鶴１１５７番地の１", "url": "https://www.kaigokensaku.mhlw.go.jp/44/index.php?action_kouhyou_detail_004_kani=true&JigyosyoCd=4450180023-00&ServiceCd=160&Type=search", "url2": null }, "geometry": { "type": "Point", "coordinates": [ 131.568115199999966, 33.1988818 ] } },
{ "type": "Feature", "properties": { "内容": "三好医院　老人　デイケアセンター【通所リハビリテーション】大分県大分市大字森町534番地の10", "url": "https://www.kaigokensaku.mhlw.go.jp/44/index.php?action_kouhyou_detail_004_kani=true&JigyosyoCd=4470101439-00&ServiceCd=160&Type=search", "url2": null }, "geometry": { "type": "Point", "coordinates": [ 131.681119200000012, 33.2286227 ] } },
{ "type": "Feature", "properties": { "内容": "医療法人大分朋友会通所リハビリテーション【通所リハビリテーション】大分県大分市大字下宗方字櫛引258番地", "url": "https://www.kaigokensaku.mhlw.go.jp/44/index.php?action_kouhyou_detail_004_kani=true&JigyosyoCd=4470104367-00&ServiceCd=160&Type=search", "url2": "http://oita-hoyu.com/" }, "geometry": { "type": "Point", "coordinates": [ 131.589464721565264, 33.195895923293321 ] } },
{ "type": "Feature", "properties": { "内容": "老人保健施設　メディトピアこが【通所リハビリテーション】大分県大分市南鶴崎２丁目６番２２号", "url": "https://www.kaigokensaku.mhlw.go.jp/44/index.php?action_kouhyou_detail_004_kani=true&JigyosyoCd=4450180015-00&ServiceCd=160&Type=search", "url2": "http://www.kakuyukai.com" }, "geometry": { "type": "Point", "coordinates": [ 131.690345799999932, 33.2390583 ] } },
{ "type": "Feature", "properties": { "内容": "サテライト型介護老人保健施設メディケア山桜花【通所リハビリテーション】大分県大分市大字寒田486番26", "url": "https://www.kaigokensaku.mhlw.go.jp/44/index.php?action_kouhyou_detail_004_kani=true&JigyosyoCd=4470108574-00&ServiceCd=160&Type=search", "url2": "http://tenjukai.com" }, "geometry": { "type": "Point", "coordinates": [ 131.606142699999964, 33.1811689 ] } },
{ "type": "Feature", "properties": { "内容": "デイケア　パワースポット【通所リハビリテーション】大分県大分市萩原1丁目17番4号", "url": "https://www.kaigokensaku.mhlw.go.jp/44/index.php?action_kouhyou_detail_004_kani=true&JigyosyoCd=4470106867-00&ServiceCd=160&Type=search", "url2": "http://www.unonaika.net" }, "geometry": { "type": "Point", "coordinates": [ 131.6406359, 33.2433528 ] } },
{ "type": "Feature", "properties": { "内容": "大分リハビリテーション病院　通所リハビリテーション事業所【通所リハビリテーション】大分県大分市大字志村字谷ヶ迫765番地", "url": "https://www.kaigokensaku.mhlw.go.jp/44/index.php?action_kouhyou_detail_004_kani=true&JigyosyoCd=4470110018-00&ServiceCd=160&Type=search", "url2": "http://www.oitatohbu-hp.net/" }, "geometry": { "type": "Point", "coordinates": [ 131.705717, 33.23995 ] } },
{ "type": "Feature", "properties": { "内容": "介護老人保健施設たばる【通所リハビリテーション】大分県大分市大字田原936番地1の1", "url": "https://www.kaigokensaku.mhlw.go.jp/44/index.php?action_kouhyou_detail_004_kani=true&JigyosyoCd=4470110026-00&ServiceCd=160&Type=search", "url2": "https://tabaru-san-ai.com/rouken/" }, "geometry": { "type": "Point", "coordinates": [ 131.558855742327864, 33.184183367001246 ] } },
{ "type": "Feature", "properties": { "内容": "社会医療法人関愛会　佐賀関デイケアひわまり【通所リハビリテーション】大分県大分市大字佐賀関750番地の88社会医療法人関愛会　佐賀関病院", "url": "https://www.kaigokensaku.mhlw.go.jp/44/index.php?action_kouhyou_detail_004_kani=true&JigyosyoCd=4470110174-00&ServiceCd=160&Type=search", "url2": "sekiaikai.jp" }, "geometry": { "type": "Point", "coordinates": [ 131.8675247, 33.249611800000018 ] } },
{ "type": "Feature", "properties": { "内容": "坂ノ市リハビリテーションセンターもみの木【通所リハビリテーション】大分県大分市坂ノ市中央1-269坂ノ市病院3階", "url": "https://www.kaigokensaku.mhlw.go.jp/44/index.php?action_kouhyou_detail_004_kani=true&JigyosyoCd=4470109218-00&ServiceCd=160&Type=search", "url2": "http://blog.livedoor.jp/mominoki_reha/" }, "geometry": { "type": "Point", "coordinates": [ 131.753094372907952, 33.235401579801355 ] } },
{ "type": "Feature", "properties": { "内容": "大東リハビリテーションセンターもみの木【通所リハビリテーション】大分県大分市大字松岡1946番地", "url": "https://www.kaigokensaku.mhlw.go.jp/44/index.php?action_kouhyou_detail_004_kani=true&JigyosyoCd=4410123055-00&ServiceCd=160&Type=search", "url2": "https://sites.google.com/view/reha-mominoki" }, "geometry": { "type": "Point", "coordinates": [ 131.6716266, 33.1753357 ] } },
{ "type": "Feature", "properties": { "内容": "こうざきデイケア・リハビリテーションセンターもみの木【通所リハビリテーション】大分県大分市大字本神崎251番地の8こうざきクリニック2階", "url": "https://www.kaigokensaku.mhlw.go.jp/44/index.php?action_kouhyou_detail_004_kani=true&JigyosyoCd=4470104722-00&ServiceCd=160&Type=search", "url2": "https://sites.google.com/view/reha-mominoki/%E9%80%9A%E6%89%80%E3%83%AA%E3%83%8F%E3%83%93%E3%83%AA/%E3%81%93%E3%81%86%E3%81%96%E3%81%8D%E3%82%82%E3%81%BF%E3%81%AE%E6%9C%A8?authuser=0" }, "geometry": { "type": "Point", "coordinates": [ 131.795655900000042, 33.2332778 ] } },
{ "type": "Feature", "properties": { "内容": "大分豊寿苑【通所リハビリテーション】大分県大分市大字皆春1521番地の1", "url": "https://www.kaigokensaku.mhlw.go.jp/44/index.php?action_kouhyou_detail_004_kani=true&JigyosyoCd=4450180114-00&ServiceCd=160&Type=search", "url2": "http://www.hojuen.jp" }, "geometry": { "type": "Point", "coordinates": [ 131.6843437, 33.2359417 ] } },
{ "type": "Feature", "properties": { "内容": "へつぎ病院短時間通所リハビリ【通所リハビリテーション】大分県大分市大字中戸次字二本木5956番地", "url": "https://www.kaigokensaku.mhlw.go.jp/44/index.php?action_kouhyou_detail_004_kani=true&JigyosyoCd=4470109978-00&ServiceCd=160&Type=search", "url2": "https://www.tenshindo.org" }, "geometry": { "type": "Point", "coordinates": [ 131.656813899999946, 33.1582294 ] } },
{ "type": "Feature", "properties": { "内容": "介護老人保健施設　陽光苑【通所リハビリテーション】大分県大分市大字中戸次4525番地", "url": "https://www.kaigokensaku.mhlw.go.jp/44/index.php?action_kouhyou_detail_004_kani=true&JigyosyoCd=4450180031-00&ServiceCd=160&Type=search", "url2": "http://www.tenshindo.org/" }, "geometry": { "type": "Point", "coordinates": [ 131.656100400000014, 33.1556287 ] } },
{ "type": "Feature", "properties": { "内容": "介護老人保健施設わさだケアセンター【通所リハビリテーション】大分県大分市大字市字大坪11番地の2", "url": "https://www.kaigokensaku.mhlw.go.jp/44/index.php?action_kouhyou_detail_004_kani=true&JigyosyoCd=4450180064-00&ServiceCd=160&Type=search", "url2": "https://wasada-care-center.com" }, "geometry": { "type": "Point", "coordinates": [ 131.575345461512939, 33.187730476471138 ] } },
{ "type": "Feature", "properties": { "内容": "通所リハビリテーションけんせい【通所リハビリテーション】大分県大分市古ヶ鶴1―1‐15", "url": "https://www.kaigokensaku.mhlw.go.jp/44/index.php?action_kouhyou_detail_004_kani=true&JigyosyoCd=4470108293-00&ServiceCd=160&Type=search", "url2": "www.oita-min.or.jp" }, "geometry": { "type": "Point", "coordinates": [ 131.629933899999969, 33.2389501 ] } },
{ "type": "Feature", "properties": { "内容": "医療法人建山会　山田整形外科クリニック　短時間通所リハビリテーション事業所【通所リハビリテーション】大分県大分市下郡中央1-5-20", "url": "https://www.kaigokensaku.mhlw.go.jp/44/index.php?action_kouhyou_detail_004_kani=true&JigyosyoCd=4470110133-00&ServiceCd=160&Type=search", "url2": "http://yamada-seikei.net/" }, "geometry": { "type": "Point", "coordinates": [ 131.6307789, 33.2250498 ] } },
{ "type": "Feature", "properties": { "内容": "大嶋医院【通所リハビリテーション】大分県大分市竹中2666", "url": "https://www.kaigokensaku.mhlw.go.jp/44/index.php?action_kouhyou_detail_004_kani=true&JigyosyoCd=4410123782-00&ServiceCd=160&Type=search", "url2": "http://www.kigankai.or.jp/" }, "geometry": { "type": "Point", "coordinates": [ 131.652273900000012, 33.1412354 ] } },
{ "type": "Feature", "properties": { "内容": "のつはる診療所デイケアセンター【通所リハビリテーション】大分県大分市大字野津原906番地の１", "url": "https://www.kaigokensaku.mhlw.go.jp/44/index.php?action_kouhyou_detail_004_kani=true&JigyosyoCd=4472300542-00&ServiceCd=160&Type=search", "url2": "https://notsuharu-san-ai.com/" }, "geometry": { "type": "Point", "coordinates": [ 131.5301217, 33.1617042 ] } },
{ "type": "Feature", "properties": { "内容": "明和記念病院【通所リハビリテーション】大分県大分市明野北1丁目2番17号", "url": "https://www.kaigokensaku.mhlw.go.jp/44/index.php?action_kouhyou_detail_004_kani=true&JigyosyoCd=4410118832-00&ServiceCd=160&Type=search", "url2": "www.meiwa-hp.jp" }, "geometry": { "type": "Point", "coordinates": [ 131.655466, 33.2261328 ] } },
{ "type": "Feature", "properties": { "内容": "通所リハビリテーションつかがわ【通所リハビリテーション】大分県大分市東春日町5-25", "url": "https://www.kaigokensaku.mhlw.go.jp/44/index.php?action_kouhyou_detail_004_kani=true&JigyosyoCd=4470103427-00&ServiceCd=160&Type=search", "url2": "http://www.hakkokai.com" }, "geometry": { "type": "Point", "coordinates": [ 131.5995945898743, 33.240351946631705 ] } },
{ "type": "Feature", "properties": { "内容": "介護老人保健施設サンテラスながとみ通所リハビリテーション【通所リハビリテーション】大分市西大道２丁目２－１", "url": "https://www.kaigokensaku.mhlw.go.jp/44/index.php?action_kouhyou_detail_004_kani=true&JigyosyoCd=4450180122-00&ServiceCd=160&Type=search", "url2": "http://www.nagatomi-hp.com" }, "geometry": { "type": "Point", "coordinates": [ 131.596020899999985, 33.2314219 ] } },
{ "type": "Feature", "properties": { "内容": "中村病院通所リハビリテーション【通所リハビリテーション】大分県別府市秋葉町8番24号医療法人恵愛会　中村病院", "url": "https://www.kaigokensaku.mhlw.go.jp/44/index.php?action_kouhyou_detail_004_kani=true&JigyosyoCd=4410210654-00&ServiceCd=160&Type=search", "url2": "https://nakamura-med.or.jp" }, "geometry": { "type": "Point", "coordinates": [ 131.501112700000022, 33.275902 ] } },
{ "type": "Feature", "properties": { "内容": "釘宮整形外科リハビリクリニック【通所リハビリテーション】大分県別府市鶴見9-4", "url": "https://www.kaigokensaku.mhlw.go.jp/44/index.php?action_kouhyou_detail_004_kani=true&JigyosyoCd=4410215026-00&ServiceCd=160&Type=search", "url2": "http://kugimiyaseikei.com" }, "geometry": { "type": "Point", "coordinates": [ 131.4824395, 33.2987018 ] } },
{ "type": "Feature", "properties": { "内容": "通所リハビリテーションセンターくろき【通所リハビリテーション】大分県別府市照波園町14番28号通所リハビリテーションセンターくろき", "url": "https://www.kaigokensaku.mhlw.go.jp/44/index.php?action_kouhyou_detail_004_kani=true&JigyosyoCd=4470200348-00&ServiceCd=160&Type=search", "url2": "http://www.kuroki-hp.or.jp" }, "geometry": { "type": "Point", "coordinates": [ 131.497388399999977, 33.3191026 ] } },
{ "type": "Feature", "properties": { "内容": "介護老人保健施設メディケア別府【通所リハビリテーション】大分県別府市中島町14番6号", "url": "https://www.kaigokensaku.mhlw.go.jp/44/index.php?action_kouhyou_detail_004_kani=true&JigyosyoCd=4450280047-00&ServiceCd=160&Type=search", "url2": "http://www.hata.or.jp" }, "geometry": { "type": "Point", "coordinates": [ 131.492812760852104, 33.275128028705844 ] } },
{ "type": "Feature", "properties": { "内容": "村上脳神経内科クリニック　通所リハビリ・デイケア【通所リハビリテーション】山の手町14番25号", "url": "https://www.kaigokensaku.mhlw.go.jp/44/index.php?action_kouhyou_detail_004_kani=true&JigyosyoCd=4470202179-00&ServiceCd=160&Type=search", "url2": "http:www.murakami-clinic.or.jp" }, "geometry": { "type": "Point", "coordinates": [ 136.958033800000067, 34.7215481 ] } },
{ "type": "Feature", "properties": { "内容": "医療法人社団洗心会　別府温泉病院【通所リハビリテーション】大分県別府市大字野田22番地の1", "url": "https://www.kaigokensaku.mhlw.go.jp/44/index.php?action_kouhyou_detail_004_kani=true&JigyosyoCd=4410211470-00&ServiceCd=160&Type=search", "url2": "http://www.beppu-med.or.jp/onsen-byoin/" }, "geometry": { "type": "Point", "coordinates": [ 131.484931, 33.3299653 ] } },
{ "type": "Feature", "properties": { "内容": "医療法人　博慈会　内田病院　通所リハビリテーション　うちだ【通所リハビリテーション】大分県別府市末広町3番1号", "url": "https://www.kaigokensaku.mhlw.go.jp/44/index.php?action_kouhyou_detail_004_kani=true&JigyosyoCd=4410213526-00&ServiceCd=160&Type=search", "url2": null }, "geometry": { "type": "Point", "coordinates": [ 131.502888, 33.2735823 ] } },
{ "type": "Feature", "properties": { "内容": "農協共済別府リハビリテーションセンター【通所リハビリテーション】大分県別府市大字鶴見字中山田1026番地の10", "url": "https://www.kaigokensaku.mhlw.go.jp/44/index.php?action_kouhyou_detail_004_kani=true&JigyosyoCd=4410212403-00&ServiceCd=160&Type=search", "url2": "https://brc.or.jp/" }, "geometry": { "type": "Point", "coordinates": [ 131.463236716263083, 33.314062909694357 ] } },
{ "type": "Feature", "properties": { "内容": "大分県厚生連介護老人保健施設シェモア鶴見【通所リハビリテーション】大字緑丘町１１番２７号大分県厚生連総合福祉センター", "url": "https://www.kaigokensaku.mhlw.go.jp/44/index.php?action_kouhyou_detail_004_kani=true&JigyosyoCd=4450280039-00&ServiceCd=160&Type=search", "url2": "http://www.ok-chezmoi.com" }, "geometry": { "type": "Point", "coordinates": [ 131.4893668, 33.298371099999983 ] } },
{ "type": "Feature", "properties": { "内容": "久保田クリニック（通所リハビリテーション愛音）【通所リハビリテーション】大分県別府市石垣東10丁目4番17号", "url": "https://www.kaigokensaku.mhlw.go.jp/44/index.php?action_kouhyou_detail_004_kani=true&JigyosyoCd=4410214961-00&ServiceCd=160&Type=search", "url2": "www.kubota-clinic.com" }, "geometry": { "type": "Point", "coordinates": [ 131.496296900000061, 33.3042316 ] } },
{ "type": "Feature", "properties": { "内容": "デイケア元気村【通所リハビリテーション】耶馬溪町大字樋山路15-5", "url": "https://www.kaigokensaku.mhlw.go.jp/44/index.php?action_kouhyou_detail_004_kani=true&JigyosyoCd=4473000208-00&ServiceCd=160&Type=search", "url2": null }, "geometry": { "type": "Point", "coordinates": [ 131.097313699999972, 33.4300877 ] } },
{ "type": "Feature", "properties": { "内容": "介護老人保健施設さつき苑【通所リハビリテーション】大分県中津市三光土田1243-4", "url": "https://www.kaigokensaku.mhlw.go.jp/44/index.php?action_kouhyou_detail_004_kani=true&JigyosyoCd=4470301427-00&ServiceCd=160&Type=search", "url2": "https://seigakai.net" }, "geometry": { "type": "Point", "coordinates": [ 131.1755813, 33.5307171 ] } },
{ "type": "Feature", "properties": { "内容": "水谷デイケアセンター【通所リハビリテーション】大分県中津市山国町守実80番地の1", "url": "https://www.kaigokensaku.mhlw.go.jp/44/index.php?action_kouhyou_detail_004_kani=true&JigyosyoCd=4470301039-00&ServiceCd=160&Type=search", "url2": "https://mizutani-cl.jp" }, "geometry": { "type": "Point", "coordinates": [ 131.042736099999956, 33.4033174 ] } },
{ "type": "Feature", "properties": { "内容": "通所リハビリテーション　エルダーカマー【通所リハビリテーション】大分県中津市諸町１７９９番地", "url": "https://www.kaigokensaku.mhlw.go.jp/44/index.php?action_kouhyou_detail_004_kani=true&JigyosyoCd=4470300239-00&ServiceCd=160&Type=search", "url2": "http://www.kyorinkai.net/" }, "geometry": { "type": "Point", "coordinates": [ 131.182494499999962, 33.6022652 ] } },
{ "type": "Feature", "properties": { "内容": "いきいきクラブ【通所リハビリテーション】大分県中津市中央町１丁目８番３６号", "url": "https://www.kaigokensaku.mhlw.go.jp/44/index.php?action_kouhyou_detail_004_kani=true&JigyosyoCd=4470300254-00&ServiceCd=160&Type=search", "url2": "http://www.eizenkai.jp/" }, "geometry": { "type": "Point", "coordinates": [ 131.189322100000027, 33.5900107 ] } },
{ "type": "Feature", "properties": { "内容": "老人保健施設　創生園【通所リハビリテーション】大分県中津市大字上宮永298番地1", "url": "https://www.kaigokensaku.mhlw.go.jp/44/index.php?action_kouhyou_detail_004_kani=true&JigyosyoCd=4450380003-00&ServiceCd=160&Type=search", "url2": null }, "geometry": { "type": "Point", "coordinates": [ 131.1848281, 33.5859471 ] } },
{ "type": "Feature", "properties": { "内容": "髙椋クリニック【通所リハビリテーション】大分県中津市大字上宮永299番地3", "url": "https://www.kaigokensaku.mhlw.go.jp/44/index.php?action_kouhyou_detail_004_kani=true&JigyosyoCd=4410311635-00&ServiceCd=160&Type=search", "url2": null }, "geometry": { "type": "Point", "coordinates": [ 131.184817, 33.5857388 ] } },
{ "type": "Feature", "properties": { "内容": "医療法人三光会　介護老人保健施設　三光園【通所リハビリテーション】大分県中津市大字永添９１９番地", "url": "https://www.kaigokensaku.mhlw.go.jp/44/index.php?action_kouhyou_detail_004_kani=true&JigyosyoCd=4450380011-00&ServiceCd=160&Type=search", "url2": "http://www.sankouen-rk.com" }, "geometry": { "type": "Point", "coordinates": [ 131.210648399999968, 33.5747161 ] } },
{ "type": "Feature", "properties": { "内容": "デイケアセンターうちお【通所リハビリテーション】大分県中津市大字万田５９４番地", "url": "https://www.kaigokensaku.mhlw.go.jp/44/index.php?action_kouhyou_detail_004_kani=true&JigyosyoCd=4410312021-00&ServiceCd=160&Type=search", "url2": "www.uchio-seikei.com" }, "geometry": { "type": "Point", "coordinates": [ 131.185042388360557, 33.583906169006049 ] } },
{ "type": "Feature", "properties": { "内容": "介護老人保健施設さつき苑　通所リハビリテーション【通所リハビリテーション】大分県中津市三光土田1243-4", "url": "https://www.kaigokensaku.mhlw.go.jp/44/index.php?action_kouhyou_detail_004_kani=true&JigyosyoCd=4470301260-00&ServiceCd=160&Type=search", "url2": null }, "geometry": { "type": "Point", "coordinates": [ 131.1752988, 33.5304083 ] } },
{ "type": "Feature", "properties": { "内容": "川嶌整形外科病院【通所リハビリテーション】大分県中津市宮夫17番地", "url": "https://www.kaigokensaku.mhlw.go.jp/44/index.php?action_kouhyou_detail_004_kani=true&JigyosyoCd=4410312682-00&ServiceCd=160&Type=search", "url2": "http://kawashimahp.jp/" }, "geometry": { "type": "Point", "coordinates": [ 131.212311600000021, 33.5924642 ] } },
{ "type": "Feature", "properties": { "内容": "わたなべ整形外科クリニック【通所リハビリテーション】大分県中津市大字加来字加来原2283番地201", "url": "https://www.kaigokensaku.mhlw.go.jp/44/index.php?action_kouhyou_detail_004_kani=true&JigyosyoCd=4410312872-00&ServiceCd=160&Type=search", "url2": "https://watanabe-seikei.org" }, "geometry": { "type": "Point", "coordinates": [ 131.202505, 33.558237 ] } },
{ "type": "Feature", "properties": { "内容": "まつざきクリニック　通所リハビリテーション【通所リハビリテーション】三光臼木1218", "url": "https://www.kaigokensaku.mhlw.go.jp/44/index.php?action_kouhyou_detail_004_kani=true&JigyosyoCd=4473000323-00&ServiceCd=160&Type=search", "url2": null }, "geometry": { "type": "Point", "coordinates": [ 131.180273700000043, 33.5310974 ] } },
{ "type": "Feature", "properties": { "内容": "通所リハビリテーション　一ノ宮【通所リハビリテーション】大分県日田市竹田新町2-48", "url": "https://www.kaigokensaku.mhlw.go.jp/44/index.php?action_kouhyou_detail_004_kani=true&JigyosyoCd=4470401755-00&ServiceCd=160&Type=search", "url2": "info@ichinomiya-nh.com" }, "geometry": { "type": "Point", "coordinates": [ 130.937295, 33.3112955 ] } },
{ "type": "Feature", "properties": { "内容": "聖陵岩里病院　通所リハビリテーション【通所リハビリテーション】大分県　日田市　大字　庄手　字　堀ノ上　242(日ノ隈町)", "url": "https://www.kaigokensaku.mhlw.go.jp/44/index.php?action_kouhyou_detail_004_kani=true&JigyosyoCd=4410412318-00&ServiceCd=160&Type=search", "url2": "http://www.seiryou.or.jp/" }, "geometry": { "type": "Point", "coordinates": [ 130.923515646313803, 33.316648820865687 ] } },
{ "type": "Feature", "properties": { "内容": "通所リハビリテーション　さざんか【通所リハビリテーション】大分県日田市淡窓2丁目5-17", "url": "https://www.kaigokensaku.mhlw.go.jp/44/index.php?action_kouhyou_detail_004_kani=true&JigyosyoCd=4470401425-00&ServiceCd=160&Type=search", "url2": "http://www.kangikai.or.jp/job/job.php" }, "geometry": { "type": "Point", "coordinates": [ 130.9337554, 33.322235200000016 ] } },
{ "type": "Feature", "properties": { "内容": "若宮病院通所リハビリテーションセンター【通所リハビリテーション】大分県日田市南元町24番地10号", "url": "https://www.kaigokensaku.mhlw.go.jp/44/index.php?action_kouhyou_detail_004_kani=true&JigyosyoCd=4470400799-00&ServiceCd=160&Type=search", "url2": "https://med-corp.shusuido.or.jp/network/rehab/" }, "geometry": { "type": "Point", "coordinates": [ 130.941082700000038, 33.3120335 ] } },
{ "type": "Feature", "properties": { "内容": "通所リハビリテーションあきよし【通所リハビリテーション】大分県日田市豆田町５番４０号", "url": "https://www.kaigokensaku.mhlw.go.jp/44/index.php?action_kouhyou_detail_004_kani=true&JigyosyoCd=4470401169-00&ServiceCd=160&Type=search", "url2": "http://akiyoshihp.jp/" }, "geometry": { "type": "Point", "coordinates": [ 130.938606319049086, 33.328549507092248 ] } },
{ "type": "Feature", "properties": { "内容": "聖陵ストリーム　通所リハビリテーション【通所リハビリテーション】大分県日田市大字庄手字中釣484", "url": "https://www.kaigokensaku.mhlw.go.jp/44/index.php?action_kouhyou_detail_004_kani=true&JigyosyoCd=4450480001-00&ServiceCd=160&Type=search", "url2": "http://www.seiryou.or.jp/" }, "geometry": { "type": "Point", "coordinates": [ 130.919581500000049, 33.3172685 ] } },
{ "type": "Feature", "properties": { "内容": "日田リハビリテーション病院デイケアセンター【通所リハビリテーション】大分県日田市大字西有田9日田リハビリテーション病院デイケアセンター", "url": "https://www.kaigokensaku.mhlw.go.jp/44/index.php?action_kouhyou_detail_004_kani=true&JigyosyoCd=4410412177-00&ServiceCd=160&Type=search", "url2": "http://www.hitariha.jp/" }, "geometry": { "type": "Point", "coordinates": [ 130.941637899999932, 33.3344677 ] } },
{ "type": "Feature", "properties": { "内容": "通所リハビリセンターけいりん【通所リハビリテーション】城町１丁目２番６１号", "url": "https://www.kaigokensaku.mhlw.go.jp/44/index.php?action_kouhyou_detail_004_kani=true&JigyosyoCd=4470400435-00&ServiceCd=160&Type=search", "url2": "https://keirin-hospital.jp" }, "geometry": { "type": "Point", "coordinates": [ 130.940832499999942, 33.3269516 ] } },
{ "type": "Feature", "properties": { "内容": "老人デイケア　ふきのとう【通所リハビリテーション】大分県日田市大字高瀬字篠原2226-1", "url": "https://www.kaigokensaku.mhlw.go.jp/44/index.php?action_kouhyou_detail_004_kani=true&JigyosyoCd=4470400328-00&ServiceCd=160&Type=search", "url2": "http://www.uenokoen-hospital.jp/" }, "geometry": { "type": "Point", "coordinates": [ 130.924013890876722, 33.300020526645881 ] } },
{ "type": "Feature", "properties": { "内容": "通所リハビリほうどう【通所リハビリテーション】大分県日田市大字十二町字岸髙595番地の1", "url": "https://www.kaigokensaku.mhlw.go.jp/44/index.php?action_kouhyou_detail_004_kani=true&JigyosyoCd=4470401573-00&ServiceCd=160&Type=search", "url2": "https://www.iwaoseikei.com/" }, "geometry": { "type": "Point", "coordinates": [ 130.927070162040735, 33.321774363018392 ] } },
{ "type": "Feature", "properties": { "内容": "医）利光会　デイケアごたんだ【通所リハビリテーション】大分県日田市大字竹田395番地の１", "url": "https://www.kaigokensaku.mhlw.go.jp/44/index.php?action_kouhyou_detail_004_kani=true&JigyosyoCd=4410411450-00&ServiceCd=160&Type=search", "url2": "http://gotanda-hospital.jp/" }, "geometry": { "type": "Point", "coordinates": [ 130.942868800000042, 33.3087978 ] } },
{ "type": "Feature", "properties": { "内容": "老人保健施設　六和会センテナリアン【通所リハビリテーション】大分県日田市大山町東大山14-4", "url": "https://www.kaigokensaku.mhlw.go.jp/44/index.php?action_kouhyou_detail_004_kani=true&JigyosyoCd=4452980008-00&ServiceCd=160&Type=search", "url2": "https://cente-hita.com" }, "geometry": { "type": "Point", "coordinates": [ 130.9570655, 33.2925247 ] } },
{ "type": "Feature", "properties": { "内容": "介護老人保健施設　鶴見の太陽【通所リハビリテーション】大分県佐伯市鶴見大字沖松浦51番地", "url": "https://www.kaigokensaku.mhlw.go.jp/44/index.php?action_kouhyou_detail_004_kani=true&JigyosyoCd=4450580040-00&ServiceCd=160&Type=search", "url2": "http://www.saikichuo.net/" }, "geometry": { "type": "Point", "coordinates": [ 131.962688599999979, 32.9415545 ] } },
{ "type": "Feature", "properties": { "内容": "デイケアみたらい【通所リハビリテーション】大分県佐伯市蒲江大字蒲江浦２２１５番地９", "url": "https://www.kaigokensaku.mhlw.go.jp/44/index.php?action_kouhyou_detail_004_kani=true&JigyosyoCd=4470501992-00&ServiceCd=160&Type=search", "url2": null }, "geometry": { "type": "Point", "coordinates": [ 131.9272325, 32.7973776 ] } },
{ "type": "Feature", "properties": { "内容": "通所リハビリテーション　佐伯の太陽【通所リハビリテーション】大分県佐伯市駅前1丁目1番11号地域包括ケアセンター　佐伯の太陽", "url": "https://www.kaigokensaku.mhlw.go.jp/44/index.php?action_kouhyou_detail_004_kani=true&JigyosyoCd=4410512232-00&ServiceCd=160&Type=search", "url2": "http://www.saikichuo.net" }, "geometry": { "type": "Point", "coordinates": [ 131.904434600000059, 32.9700688 ] } },
{ "type": "Feature", "properties": { "内容": "介護老人保健施設　和の風【通所リハビリテーション】大分県佐伯市大字池田2260-1", "url": "https://www.kaigokensaku.mhlw.go.jp/44/index.php?action_kouhyou_detail_004_kani=true&JigyosyoCd=4450580024-00&ServiceCd=160&Type=search", "url2": "http://www.nagato.or.jp/" }, "geometry": { "type": "Point", "coordinates": [ 131.896391599999987, 32.9454659 ] } },
{ "type": "Feature", "properties": { "内容": "南海医療センター附属介護老人保健施設【通所リハビリテーション】大分県佐伯市常盤西町12番6号", "url": "https://www.kaigokensaku.mhlw.go.jp/44/index.php?action_kouhyou_detail_004_kani=true&JigyosyoCd=4450580016-00&ServiceCd=160&Type=search", "url2": "http://nankai.jcho.go.jp" }, "geometry": { "type": "Point", "coordinates": [ 131.90093509999997, 32.9659331 ] } },
{ "type": "Feature", "properties": { "内容": "デイケア　やつか整形【通所リハビリテーション】大分県佐伯市大手町3丁目4番3号", "url": "https://www.kaigokensaku.mhlw.go.jp/44/index.php?action_kouhyou_detail_004_kani=true&JigyosyoCd=4470500705-00&ServiceCd=160&Type=search", "url2": null }, "geometry": { "type": "Point", "coordinates": [ 131.893477699999949, 32.9554563 ] } },
{ "type": "Feature", "properties": { "内容": "医療法人　明石会　デイケアセンター　ふうりん【通所リハビリテーション】大分県佐伯市長島町2丁目391番地", "url": "https://www.kaigokensaku.mhlw.go.jp/44/index.php?action_kouhyou_detail_004_kani=true&JigyosyoCd=4470501067-00&ServiceCd=160&Type=search", "url2": "http://sone-hp.jp/fuurin/index.html" }, "geometry": { "type": "Point", "coordinates": [ 131.910178537713108, 32.959335197970319 ] } },
{ "type": "Feature", "properties": { "内容": "近藤医院デイケアこすもす【通所リハビリテーション】大分県佐伯市弥生大字江良１０５２番地３", "url": "https://www.kaigokensaku.mhlw.go.jp/44/index.php?action_kouhyou_detail_004_kani=true&JigyosyoCd=4472500380-00&ServiceCd=160&Type=search", "url2": null }, "geometry": { "type": "Point", "coordinates": [ 131.827769399999966, 32.9395369 ] } },
{ "type": "Feature", "properties": { "内容": "白川病院【通所リハビリテーション】大分県臼杵市大字末広938番地の3", "url": "https://www.kaigokensaku.mhlw.go.jp/44/index.php?action_kouhyou_detail_004_kani=true&JigyosyoCd=4410611133-00&ServiceCd=160&Type=search", "url2": "https://shirakawa-hospital.jp/" }, "geometry": { "type": "Point", "coordinates": [ 131.7695529, 33.1364172 ] } },
{ "type": "Feature", "properties": { "内容": "臼杵市医師会介護老人保健施設南山園【通所リハビリテーション】大分県臼杵市大字海添250番地", "url": "https://www.kaigokensaku.mhlw.go.jp/44/index.php?action_kouhyou_detail_004_kani=true&JigyosyoCd=4450680030-00&ServiceCd=160&Type=search", "url2": "http://www.usukicosmos-med.or.jp" }, "geometry": { "type": "Point", "coordinates": [ 131.802397, 33.113235 ] } },
{ "type": "Feature", "properties": { "内容": "臼杵病院通所リハビリテーション【通所リハビリテーション】大分県臼杵市江無田1154番地1", "url": "https://www.kaigokensaku.mhlw.go.jp/44/index.php?action_kouhyou_detail_004_kani=true&JigyosyoCd=4410611448-00&ServiceCd=160&Type=search", "url2": "http://usuki-hospital.or.jp/" }, "geometry": { "type": "Point", "coordinates": [ 131.780135299999984, 33.1251661 ] } },
{ "type": "Feature", "properties": { "内容": "通所リハビリテーションさるびあ【通所リハビリテーション】大分県臼杵市野津町大字亀甲752番地", "url": "https://www.kaigokensaku.mhlw.go.jp/44/index.php?action_kouhyou_detail_004_kani=true&JigyosyoCd=4472600255-00&ServiceCd=160&Type=search", "url2": "http://iwata-cl.jp" }, "geometry": { "type": "Point", "coordinates": [ 131.7107426, 33.0478466 ] } },
{ "type": "Feature", "properties": { "内容": "通所リハビリテーション万里【通所リハビリテーション】大分県津久見市上宮本町22番14号", "url": "https://www.kaigokensaku.mhlw.go.jp/44/index.php?action_kouhyou_detail_004_kani=true&JigyosyoCd=4470700172-00&ServiceCd=160&Type=search", "url2": null }, "geometry": { "type": "Point", "coordinates": [ 131.86003, 33.0714111 ] } },
{ "type": "Feature", "properties": { "内容": "介護老人保健施設つくみかん　通所リハビリテーション【通所リハビリテーション】大分県津久見市大字千怒6120番地介護老人保健施設つくみかん内", "url": "https://www.kaigokensaku.mhlw.go.jp/44/index.php?action_kouhyou_detail_004_kani=true&JigyosyoCd=4450780004-00&ServiceCd=160&Type=search", "url2": "https://tsukumikan.jp" }, "geometry": { "type": "Point", "coordinates": [ 131.8874164, 33.0726701 ] } },
{ "type": "Feature", "properties": { "内容": "わくわくでいけあ【通所リハビリテーション】大分県竹田市直入町大字長湯7985番地5", "url": "https://www.kaigokensaku.mhlw.go.jp/44/index.php?action_kouhyou_detail_004_kani=true&JigyosyoCd=4472700204-00&ServiceCd=160&Type=search", "url2": "ｈｔｔｐ：//www.nagayu-itohiin.com" }, "geometry": { "type": "Point", "coordinates": [ 131.383144799999968, 33.0704441 ] } },
{ "type": "Feature", "properties": { "内容": "ヴァル・ド・グラスくじゅう【通所リハビリテーション】大分県竹田市久住町大字栢木574-34", "url": "https://www.kaigokensaku.mhlw.go.jp/44/index.php?action_kouhyou_detail_004_kani=true&JigyosyoCd=4452780002-00&ServiceCd=160&Type=search", "url2": "http://www.okubo-hp.com" }, "geometry": { "type": "Point", "coordinates": [ 131.312120899999968, 33.0414476 ] } },
{ "type": "Feature", "properties": { "内容": "みはらクリニック　通所リハビリテーション【通所リハビリテーション】大分県竹田市会々１２５７番地", "url": "https://www.kaigokensaku.mhlw.go.jp/44/index.php?action_kouhyou_detail_004_kani=true&JigyosyoCd=4410810685-00&ServiceCd=160&Type=search", "url2": "www.kenshinkai-taketa.jp/" }, "geometry": { "type": "Point", "coordinates": [ 131.391458400000033, 32.9748585 ] } },
{ "type": "Feature", "properties": { "内容": "竹田診療所【通所リハビリテーション】大分県竹田市大字会々3313-1", "url": "https://www.kaigokensaku.mhlw.go.jp/44/index.php?action_kouhyou_detail_004_kani=true&JigyosyoCd=4410810628-00&ServiceCd=160&Type=search", "url2": null }, "geometry": { "type": "Point", "coordinates": [ 131.382292499999949, 32.9749832 ] } },
{ "type": "Feature", "properties": { "内容": "玄々堂高田病院　通所リハビリテーション【通所リハビリテーション】大分県豊後高田市界378番地2", "url": "https://www.kaigokensaku.mhlw.go.jp/44/index.php?action_kouhyou_detail_004_kani=true&JigyosyoCd=4410910592-00&ServiceCd=160&Type=search", "url2": "ag-holdings.jp/gengendo/takada/" }, "geometry": { "type": "Point", "coordinates": [ 131.427661299999954, 33.5481216 ] } },
{ "type": "Feature", "properties": { "内容": "介護老人保健施設　サングレイス香々地【通所リハビリテーション】大分県豊後高田市見目３９１５番地１", "url": "https://www.kaigokensaku.mhlw.go.jp/44/index.php?action_kouhyou_detail_004_kani=true&JigyosyoCd=4452080007-00&ServiceCd=160&Type=search", "url2": "http://www.takachuo.com/" }, "geometry": { "type": "Point", "coordinates": [ 131.5291158, 33.6722894 ] } },
{ "type": "Feature", "properties": { "内容": "老人保健施設　希の里【通所リハビリテーション】大分県豊後高田市呉崎755番地", "url": "https://www.kaigokensaku.mhlw.go.jp/44/index.php?action_kouhyou_detail_004_kani=true&JigyosyoCd=4450980018-00&ServiceCd=160&Type=search", "url2": "http://nozomi-sekizen.com" }, "geometry": { "type": "Point", "coordinates": [ 131.4322072, 33.5764331 ] } },
{ "type": "Feature", "properties": { "内容": "高田中央病院デイケア菜の花【通所リハビリテーション】大分県豊後高田市新地1176番地1", "url": "https://www.kaigokensaku.mhlw.go.jp/44/index.php?action_kouhyou_detail_004_kani=true&JigyosyoCd=4470900129-00&ServiceCd=160&Type=search", "url2": "http://www.takachuo.com/" }, "geometry": { "type": "Point", "coordinates": [ 131.440362658860749, 33.554045971134926 ] } },
{ "type": "Feature", "properties": { "内容": "杵築中央病院　通所リハビリテーション【通所リハビリテーション】大分県杵築市大字杵築120番地", "url": "https://www.kaigokensaku.mhlw.go.jp/44/index.php?action_kouhyou_detail_004_kani=true&JigyosyoCd=4471000697-00&ServiceCd=160&Type=search", "url2": null }, "geometry": { "type": "Point", "coordinates": [ 131.6234551, 33.4156875 ] } },
{ "type": "Feature", "properties": { "内容": "介護老人保健施設しおはま【通所リハビリテーション】大分県杵築市大字大内字塩浜7703番地4", "url": "https://www.kaigokensaku.mhlw.go.jp/44/index.php?action_kouhyou_detail_004_kani=true&JigyosyoCd=4451080016-00&ServiceCd=160&Type=search", "url2": "https://shiohama-rouken.kc-hospital.or.jp/" }, "geometry": { "type": "Point", "coordinates": [ 131.6325974, 33.4239432 ] } },
{ "type": "Feature", "properties": { "内容": "杵築市介護老人保健施設グリーンケアやまが【通所リハビリテーション】大分県杵築市山香町大字野原1612番地1杵築市介護老人保健施設グリーンケアやまが", "url": "https://www.kaigokensaku.mhlw.go.jp/44/index.php?action_kouhyou_detail_004_kani=true&JigyosyoCd=4452280011-00&ServiceCd=160&Type=search", "url2": "http://www.yamaga-hp.jp/" }, "geometry": { "type": "Point", "coordinates": [ 131.508643399999983, 33.445336 ] } },
{ "type": "Feature", "properties": { "内容": "デイケアすみれ館【通所リハビリテーション】大分県杵築市大字南杵築字大手内1945番地1", "url": "https://www.kaigokensaku.mhlw.go.jp/44/index.php?action_kouhyou_detail_004_kani=true&JigyosyoCd=4471000176-00&ServiceCd=160&Type=search", "url2": null }, "geometry": { "type": "Point", "coordinates": [ 131.61188089999996, 33.4167454 ] } },
{ "type": "Feature", "properties": { "内容": "介護老人保健施設　梅桃【通所リハビリテーション】大分県杵築市大字大内字塩浜7696番地1", "url": "https://www.kaigokensaku.mhlw.go.jp/44/index.php?action_kouhyou_detail_004_kani=true&JigyosyoCd=4471000648-00&ServiceCd=160&Type=search", "url2": "https://etoh-g.jp/" }, "geometry": { "type": "Point", "coordinates": [ 131.631132939811664, 33.423074681604774 ] } },
{ "type": "Feature", "properties": { "内容": "小野内科病院　通所リハビリテーション【通所リハビリテーション】大分県宇佐市大字南敷田７０５番地の１小野内科病院", "url": "https://www.kaigokensaku.mhlw.go.jp/44/index.php?action_kouhyou_detail_004_kani=true&JigyosyoCd=4411110887-00&ServiceCd=160&Type=search", "url2": null }, "geometry": { "type": "Point", "coordinates": [ 131.278767, 33.5493567 ] } },
{ "type": "Feature", "properties": { "内容": "通所リハビリテーション明日花【通所リハビリテーション】大分県宇佐市大字法鏡寺77番地の1佐藤第一病院", "url": "https://www.kaigokensaku.mhlw.go.jp/44/index.php?action_kouhyou_detail_004_kani=true&JigyosyoCd=4411110440-00&ServiceCd=160&Type=search", "url2": "http://www.sato-d1.com" }, "geometry": { "type": "Point", "coordinates": [ 131.343609300000026, 33.526416800000014 ] } },
{ "type": "Feature", "properties": { "内容": "介護老人保健施設オアシス宇佐【通所リハビリテーション】大分県宇佐市大字和気185番地", "url": "https://www.kaigokensaku.mhlw.go.jp/44/index.php?action_kouhyou_detail_004_kani=true&JigyosyoCd=4451180014-00&ServiceCd=160&Type=search", "url2": "https://oashisu-usa.com/" }, "geometry": { "type": "Point", "coordinates": [ 131.3906111, 33.5383168 ] } },
{ "type": "Feature", "properties": { "内容": "医療法人信和会　和田病院通所リハビリテーション【通所リハビリテーション】大分県宇佐市出光165-1", "url": "https://www.kaigokensaku.mhlw.go.jp/44/index.php?action_kouhyou_detail_004_kani=true&JigyosyoCd=4411110978-00&ServiceCd=160&Type=search", "url2": "https://wadahp.com/" }, "geometry": { "type": "Point", "coordinates": [ 131.4118776, 33.5295557 ] } },
{ "type": "Feature", "properties": { "内容": "介護老人保健施設　和光園【通所リハビリテーション】大分県宇佐市大字出光195番地", "url": "https://www.kaigokensaku.mhlw.go.jp/44/index.php?action_kouhyou_detail_004_kani=true&JigyosyoCd=4451180022-00&ServiceCd=160&Type=search", "url2": "https://wadahp.com/wakouen/" }, "geometry": { "type": "Point", "coordinates": [ 131.411185299999943, 33.529678899999979 ] } },
{ "type": "Feature", "properties": { "内容": "介護老人保健施設清流荘【通所リハビリテーション】大分県宇佐市大字山本1658", "url": "https://www.kaigokensaku.mhlw.go.jp/44/index.php?action_kouhyou_detail_004_kani=true&JigyosyoCd=4451180006-00&ServiceCd=160&Type=search", "url2": "https://ritsuseikai.com/" }, "geometry": { "type": "Point", "coordinates": [ 131.327639, 33.5081019 ] } },
{ "type": "Feature", "properties": { "内容": "通所リハビリテーションセンター　めずら【通所リハビリテーション】大分県宇佐市大字下時枝549番地", "url": "https://www.kaigokensaku.mhlw.go.jp/44/index.php?action_kouhyou_detail_004_kani=true&JigyosyoCd=4411111471-00&ServiceCd=160&Type=search", "url2": "https://munakata-mezura.com" }, "geometry": { "type": "Point", "coordinates": [ 131.306028, 33.5557429 ] } },
{ "type": "Feature", "properties": { "内容": "介護老人保健施設ひろせ通所リハビリテーション【通所リハビリテーション】大分県豊後大野市千歳町新殿771番地1", "url": "https://www.kaigokensaku.mhlw.go.jp/44/index.php?action_kouhyou_detail_004_kani=true&JigyosyoCd=4471200305-00&ServiceCd=160&Type=search", "url2": null }, "geometry": { "type": "Point", "coordinates": [ 131.597774872491414, 33.039311961039743 ] } },
{ "type": "Feature", "properties": { "内容": "ニコニコリハビリテーションセンター【通所リハビリテーション】大分県豊後大野市三重町小坂4169-1", "url": "https://www.kaigokensaku.mhlw.go.jp/44/index.php?action_kouhyou_detail_004_kani=true&JigyosyoCd=4472600826-00&ServiceCd=160&Type=search", "url2": "http://www.nikoniko.or.jp" }, "geometry": { "type": "Point", "coordinates": [ 131.616979899999933, 32.9968826 ] } },
{ "type": "Feature", "properties": { "内容": "きよかわﾘﾊﾋﾞﾘﾃｰｼｮﾝｾﾝﾀｰもみの木【通所リハビリテーション】大分県豊後大野市清川町砂田1877-3", "url": "https://www.kaigokensaku.mhlw.go.jp/44/index.php?action_kouhyou_detail_004_kani=true&JigyosyoCd=4471200586-00&ServiceCd=160&Type=search", "url2": "http://sekiaikai/jp/" }, "geometry": { "type": "Point", "coordinates": [ 131.5120948, 32.9684627 ] } },
{ "type": "Feature", "properties": { "内容": "天心堂おおの診療所デイケアセンター【通所リハビリテーション】大分県豊後大野市大野町田中２番９", "url": "https://www.kaigokensaku.mhlw.go.jp/44/index.php?action_kouhyou_detail_004_kani=true&JigyosyoCd=4471200222-00&ServiceCd=160&Type=search", "url2": "http://tenshindo.org" }, "geometry": { "type": "Point", "coordinates": [ 131.501963700000033, 33.0364029 ] } },
{ "type": "Feature", "properties": { "内容": "福島病院指定通所リハビリテーション室【通所リハビリテーション】大分県豊後大野市三重町市場231番地", "url": "https://www.kaigokensaku.mhlw.go.jp/44/index.php?action_kouhyou_detail_004_kani=true&JigyosyoCd=4472600297-00&ServiceCd=160&Type=search", "url2": "http://www.shinseikai-fukushima.com/" }, "geometry": { "type": "Point", "coordinates": [ 131.586599799999931, 32.9817162 ] } },
{ "type": "Feature", "properties": { "内容": "デイケアセンター多田整形外科【通所リハビリテーション】大分県豊後大野市三重町赤嶺字深田1570", "url": "https://www.kaigokensaku.mhlw.go.jp/44/index.php?action_kouhyou_detail_004_kani=true&JigyosyoCd=4411210307-00&ServiceCd=160&Type=search", "url2": null }, "geometry": { "type": "Point", "coordinates": [ 131.59761, 32.982883 ] } },
{ "type": "Feature", "properties": { "内容": "介護リハビリセンター杏子舎【通所リハビリテーション】大分県豊後大野市大野町田中266-1番地", "url": "https://www.kaigokensaku.mhlw.go.jp/44/index.php?action_kouhyou_detail_004_kani=true&JigyosyoCd=4411210281-00&ServiceCd=160&Type=search", "url2": null }, "geometry": { "type": "Point", "coordinates": [ 131.497883499999944, 33.0411607 ] } },
{ "type": "Feature", "properties": { "内容": "豊後大野市医師会立　介護老人保健施設　豊西苑【通所リハビリテーション】大分県豊後大野市三重町百枝1086-12", "url": "https://www.kaigokensaku.mhlw.go.jp/44/index.php?action_kouhyou_detail_004_kani=true&JigyosyoCd=4452680020-00&ServiceCd=160&Type=search", "url2": "http://www.oono-med.jp" }, "geometry": { "type": "Point", "coordinates": [ 131.5844247, 32.9912734 ] } },
{ "type": "Feature", "properties": { "内容": "三重東リハビリテーションセンターもみの木【通所リハビリテーション】大分県豊後大野市三重町小坂4109-66", "url": "https://www.kaigokensaku.mhlw.go.jp/44/index.php?action_kouhyou_detail_004_kani=true&JigyosyoCd=4411210455-00&ServiceCd=160&Type=search", "url2": "https://www.sekiaikai.jp/" }, "geometry": { "type": "Point", "coordinates": [ 131.6137928, 32.9931758 ] } },
{ "type": "Feature", "properties": { "内容": "帰巖会みえ病院通所リハビリテーションサービス【通所リハビリテーション】大分県豊後大野市三重町赤嶺1250-1", "url": "https://www.kaigokensaku.mhlw.go.jp/44/index.php?action_kouhyou_detail_004_kani=true&JigyosyoCd=4411210505-00&ServiceCd=160&Type=search", "url2": "http://www.kigankai.or.jp/" }, "geometry": { "type": "Point", "coordinates": [ 131.600528899999972, 32.9877411 ] } },
{ "type": "Feature", "properties": { "内容": "泉の里第１通所リハビリテーションセンター【通所リハビリテーション】大分県豊後大野市三重町赤嶺1259番地", "url": "https://www.kaigokensaku.mhlw.go.jp/44/index.php?action_kouhyou_detail_004_kani=true&JigyosyoCd=4452680004-00&ServiceCd=160&Type=search", "url2": "http://www.kigankai.or.jp/" }, "geometry": { "type": "Point", "coordinates": [ 131.599570699999958, 32.9873799 ] } },
{ "type": "Feature", "properties": { "内容": "泉の里第２通所リハビリテーションセンター【通所リハビリテーション】三重町赤嶺１２５４番地１", "url": "https://www.kaigokensaku.mhlw.go.jp/44/index.php?action_kouhyou_detail_004_kani=true&JigyosyoCd=4471200792-00&ServiceCd=160&Type=search", "url2": "http://www.kigankai.or.jp" }, "geometry": { "type": "Point", "coordinates": [ 131.598686, 32.9860051 ] } },
{ "type": "Feature", "properties": { "内容": "庄内診療所デイケアセンター【通所リハビリテーション】大分県由布市庄内町柿原２８０番地の1", "url": "https://www.kaigokensaku.mhlw.go.jp/44/index.php?action_kouhyou_detail_004_kani=true&JigyosyoCd=4471300089-00&ServiceCd=160&Type=search", "url2": null }, "geometry": { "type": "Point", "coordinates": [ 131.427436, 33.1823629 ] } },
{ "type": "Feature", "properties": { "内容": "独立行政法人　地域医療機能推進機構　湯布院病院附属居宅介護支援センター【通所リハビリテーション】大分県由布市湯布院町川南252番地", "url": "https://www.kaigokensaku.mhlw.go.jp/44/index.php?action_kouhyou_detail_004_kani=true&JigyosyoCd=4472300476-00&ServiceCd=160&Type=search", "url2": "http://yufuin.jcho.go.jp" }, "geometry": { "type": "Point", "coordinates": [ 131.362473899999941, 33.2564816 ] } },
{ "type": "Feature", "properties": { "内容": "介護老人保健施設　健寿荘【通所リハビリテーション】大分県由布市挾間町鬼崎4番地1", "url": "https://www.kaigokensaku.mhlw.go.jp/44/index.php?action_kouhyou_detail_004_kani=true&JigyosyoCd=4452380019-00&ServiceCd=160&Type=search", "url2": "http://www.hoaki.jp/" }, "geometry": { "type": "Point", "coordinates": [ 131.50563980000004, 33.1912916 ] } },
{ "type": "Feature", "properties": { "内容": "ごとう医院通所リハビリテーション【通所リハビリテーション】大分県由布市挾間町向原350番地", "url": "https://www.kaigokensaku.mhlw.go.jp/44/index.php?action_kouhyou_detail_004_kani=true&JigyosyoCd=4411310099-00&ServiceCd=160&Type=search", "url2": null }, "geometry": { "type": "Point", "coordinates": [ 131.511405700000068, 33.1979326 ] } },
{ "type": "Feature", "properties": { "内容": "介護老人保健施設ケアポート川崎【通所リハビリテーション】大分県由布市挟間町古野264番地", "url": "https://www.kaigokensaku.mhlw.go.jp/44/index.php?action_kouhyou_detail_004_kani=true&JigyosyoCd=4452380027-00&ServiceCd=160&Type=search", "url2": null }, "geometry": { "type": "Point", "coordinates": [ 131.531112964408834, 33.210044565614922 ] } },
{ "type": "Feature", "properties": { "内容": "ゆふいん風香通所リハビリテーション【通所リハビリテーション】大分県由布市湯布院町川南280", "url": "https://www.kaigokensaku.mhlw.go.jp/44/index.php?action_kouhyou_detail_004_kani=true&JigyosyoCd=4451380002-00&ServiceCd=160&Type=search", "url2": "www.fukujyukai.net/" }, "geometry": { "type": "Point", "coordinates": [ 131.358704699999947, 33.2570872 ] } },
{ "type": "Feature", "properties": { "内容": "介護老人保健施設　大樹【通所リハビリテーション】大分県国東市国見町伊美2617番地2", "url": "https://www.kaigokensaku.mhlw.go.jp/44/index.php?action_kouhyou_detail_004_kani=true&JigyosyoCd=4452180021-00&ServiceCd=160&Type=search", "url2": "http://www.horita.or.jp/" }, "geometry": { "type": "Point", "coordinates": [ 131.5972574, 33.6845323 ] } },
{ "type": "Feature", "properties": { "内容": "介護老人保険施設メディケア亀寿苑（通所リハビリテーション）【通所リハビリテーション】大分県国東市国東町田深６６５番地１", "url": "https://www.kaigokensaku.mhlw.go.jp/44/index.php?action_kouhyou_detail_004_kani=true&JigyosyoCd=4452180005-00&ServiceCd=160&Type=search", "url2": "htttp://www.suetsuna-clinic.jp/clinic.htm" }, "geometry": { "type": "Point", "coordinates": [ 131.729041217701962, 33.568232565731499 ] } },
{ "type": "Feature", "properties": { "内容": "おたっしゃ倶楽部【通所リハビリテーション】大分県国東市国東町富来浦1788-1", "url": "https://www.kaigokensaku.mhlw.go.jp/44/index.php?action_kouhyou_detail_004_kani=true&JigyosyoCd=4471400020-00&ServiceCd=160&Type=search", "url2": null }, "geometry": { "type": "Point", "coordinates": [ 131.71243149999998, 33.6001927 ] } },
{ "type": "Feature", "properties": { "内容": "大地【通所リハビリテーション】大分県国東市小原2721番地2", "url": "https://www.kaigokensaku.mhlw.go.jp/44/index.php?action_kouhyou_detail_004_kani=true&JigyosyoCd=4472100496-00&ServiceCd=160&Type=search", "url2": "http://www.aozora-hsp.jp/" }, "geometry": { "type": "Point", "coordinates": [ 131.738593300000048, 33.5449761 ] } },
{ "type": "Feature", "properties": { "内容": "老人保健施設ウェルハウスしらさぎ通所リハビリテーション【通所リハビリテーション】大分県国東市安岐町瀬戸田1035番地9", "url": "https://www.kaigokensaku.mhlw.go.jp/44/index.php?action_kouhyou_detail_004_kani=true&JigyosyoCd=4452180013-00&ServiceCd=160&Type=search", "url2": "https://roken-shirasagi.com/" }, "geometry": { "type": "Point", "coordinates": [ 131.684871, 33.4730443 ] } },
{ "type": "Feature", "properties": { "内容": "国東中央クリニック通所リハビリテーション【通所リハビリテーション】大分県国東市国東町北江3245-4", "url": "https://www.kaigokensaku.mhlw.go.jp/44/index.php?action_kouhyou_detail_004_kani=true&JigyosyoCd=4471400095-00&ServiceCd=160&Type=search", "url2": null }, "geometry": { "type": "Point", "coordinates": [ 131.7230535, 33.5880305 ] } },
{ "type": "Feature", "properties": { "内容": "通所リハビリテーションはなみずき【通所リハビリテーション】大分県国東市武蔵町古市148番地", "url": "https://www.kaigokensaku.mhlw.go.jp/44/index.php?action_kouhyou_detail_004_kani=true&JigyosyoCd=4472100447-00&ServiceCd=160&Type=search", "url2": "http://www.kouyou-kai.or.jp/hanamizuki/" }, "geometry": { "type": "Point", "coordinates": [ 131.726631600000019, 33.5021651 ] } },
{ "type": "Feature", "properties": { "内容": "介護老人保健施設　サンライズ・ビュー【通所リハビリテーション】大分県速見郡日出町580番地2", "url": "https://www.kaigokensaku.mhlw.go.jp/44/index.php?action_kouhyou_detail_004_kani=true&JigyosyoCd=4452280003-00&ServiceCd=160&Type=search", "url2": "http://www.heisieikai.com/" }, "geometry": { "type": "Point", "coordinates": [ 131.52004585835266, 33.375335363049921 ] } },
{ "type": "Feature", "properties": { "内容": "介護老人保健施設みずき【通所リハビリテーション】大分県速見郡日出町川崎507-3", "url": "https://www.kaigokensaku.mhlw.go.jp/44/index.php?action_kouhyou_detail_004_kani=true&JigyosyoCd=4452280029-00&ServiceCd=160&Type=search", "url2": "http://www.hiji-kodama.jp/mizuki.html" }, "geometry": { "type": "Point", "coordinates": [ 131.542455300000029, 33.373957 ] } },
{ "type": "Feature", "properties": { "内容": "デイケアすずらん【通所リハビリテーション】大分県速見郡日出町3904－6", "url": "https://www.kaigokensaku.mhlw.go.jp/44/index.php?action_kouhyou_detail_004_kani=true&JigyosyoCd=4472200163-00&ServiceCd=160&Type=search", "url2": "ｈｔｔｐ://www:suzuki-hp.or.jp" }, "geometry": { "type": "Point", "coordinates": [ 131.52853236767578, 33.373910792880807 ] } },
{ "type": "Feature", "properties": { "内容": "介護老人保健施設　ケアポート渓和【通所リハビリテーション】大分県玖珠郡九重町大字町田5481-3", "url": "https://www.kaigokensaku.mhlw.go.jp/44/index.php?action_kouhyou_detail_004_kani=true&JigyosyoCd=4452880000-00&ServiceCd=160&Type=search", "url2": "https://careport-keiwa.jp" }, "geometry": { "type": "Point", "coordinates": [ 131.18357519999995, 33.2306876 ] } },
{ "type": "Feature", "properties": { "内容": "高田病院通所リハビリテーション【通所リハビリテーション】大分県玖珠郡玖珠町大字帆足259番地", "url": "https://www.kaigokensaku.mhlw.go.jp/44/index.php?action_kouhyou_detail_004_kani=true&JigyosyoCd=4412810634-00&ServiceCd=160&Type=search", "url2": null }, "geometry": { "type": "Point", "coordinates": [ 131.153105194757927, 33.282393709957248 ] } },
{ "type": "Feature", "properties": { "内容": "玖珠郡医師会立　老人保健施設　はね【通所リハビリテーション】大分県玖珠郡玖珠町大字山田2696", "url": "https://www.kaigokensaku.mhlw.go.jp/44/index.php?action_kouhyou_detail_004_kani=true&JigyosyoCd=4452880018-00&ServiceCd=160&Type=search", "url2": "http//hane.in/" }, "geometry": { "type": "Point", "coordinates": [ 131.130062100000032, 33.2790735 ] } },
{ "type": "Feature", "properties": { "内容": "通所リハビリテーション　ウォーク【通所リハビリテーション】大分県玖珠郡玖珠町大字塚脇１１３番地１３", "url": "https://www.kaigokensaku.mhlw.go.jp/44/index.php?action_kouhyou_detail_004_kani=true&JigyosyoCd=4472800525-00&ServiceCd=160&Type=search", "url2": "http://website2.infomity.net/8310120/" }, "geometry": { "type": "Point", "coordinates": [ 131.149840317196663, 33.278955269403546 ] } }
]
}
