{
"type": "FeatureCollection",
"name": "geo_44_特定福祉用具販売",
"crs": { "type": "name", "properties": { "name": "urn:ogc:def:crs:OGC:1.3:CRS84" } },
"features": [
{ "type": "Feature", "properties": { "内容": "ニチイケアセンター大分【特定福祉用具販売】大分県大分市下郡東一丁目9番23号", "url": "https://www.kaigokensaku.mhlw.go.jp/44/index.php?action_kouhyou_detail_004_kani=true&JigyosyoCd=4470101553-00&ServiceCd=410&Type=search", "url2": null }, "geometry": { "type": "Point", "coordinates": [ 131.636019900000065, 33.2280264 ] } },
{ "type": "Feature", "properties": { "内容": "ベストケア　南大分【特定福祉用具販売】大分県大分市市1049-1", "url": "https://www.kaigokensaku.mhlw.go.jp/44/index.php?action_kouhyou_detail_004_kani=true&JigyosyoCd=4470110737-00&ServiceCd=410&Type=search", "url2": null }, "geometry": { "type": "Point", "coordinates": [ 131.571444700000029, 33.1873061 ] } },
{ "type": "Feature", "properties": { "内容": "大分県農業協同組合【特定福祉用具販売】大分県大分市大字羽屋６００番地の10", "url": "https://www.kaigokensaku.mhlw.go.jp/44/index.php?action_kouhyou_detail_004_kani=true&JigyosyoCd=4470600646-00&ServiceCd=410&Type=search", "url2": "http://www.jaoita.net/ja-oita.html" }, "geometry": { "type": "Point", "coordinates": [ 131.6041897, 33.2053166 ] } },
{ "type": "Feature", "properties": { "内容": "フォレスト・ジャパン合同会社　ＯＫアシスト【特定福祉用具販売】大分市望みが丘45番５", "url": "https://www.kaigokensaku.mhlw.go.jp/44/index.php?action_kouhyou_detail_004_kani=true&JigyosyoCd=4470111040-00&ServiceCd=410&Type=search", "url2": null }, "geometry": { "type": "Point", "coordinates": [ 131.7127318, 33.2400524 ] } },
{ "type": "Feature", "properties": { "内容": "ファンライフサポート【特定福祉用具販売】大分県大分市敷戸台１丁目３７０番地４", "url": "https://www.kaigokensaku.mhlw.go.jp/44/index.php?action_kouhyou_detail_004_kani=true&JigyosyoCd=4470111404-00&ServiceCd=410&Type=search", "url2": null }, "geometry": { "type": "Point", "coordinates": [ 131.616462899999988, 33.1890287 ] } },
{ "type": "Feature", "properties": { "内容": "株式会社　Human　PLUS【特定福祉用具販売】大分市牧2丁目16番7号", "url": "https://www.kaigokensaku.mhlw.go.jp/44/index.php?action_kouhyou_detail_004_kani=true&JigyosyoCd=4470111412-00&ServiceCd=410&Type=search", "url2": "https:human-loop.com" }, "geometry": { "type": "Point", "coordinates": [ 131.641875964418006, 33.241235412066935 ] } },
{ "type": "Feature", "properties": { "内容": "株式会社ライフマーケット【特定福祉用具販売】大分県大分市弁天1-5-13", "url": "https://www.kaigokensaku.mhlw.go.jp/44/index.php?action_kouhyou_detail_004_kani=true&JigyosyoCd=4470105596-00&ServiceCd=410&Type=search", "url2": null }, "geometry": { "type": "Point", "coordinates": [ 131.612021700000014, 33.2527265 ] } },
{ "type": "Feature", "properties": { "内容": "ベストケア大分【特定福祉用具販売】大分県大分市三佐2421-10", "url": "https://www.kaigokensaku.mhlw.go.jp/44/index.php?action_kouhyou_detail_004_kani=true&JigyosyoCd=4470109820-00&ServiceCd=410&Type=search", "url2": null }, "geometry": { "type": "Point", "coordinates": [ 131.6818935, 33.2507204 ] } },
{ "type": "Feature", "properties": { "内容": "ライフアップサポート　福祉用具事業部【特定福祉用具販売】大分県大分市三ケ田町1丁目6-4", "url": "https://www.kaigokensaku.mhlw.go.jp/44/index.php?action_kouhyou_detail_004_kani=true&JigyosyoCd=4470111966-00&ServiceCd=410&Type=search", "url2": null }, "geometry": { "type": "Point", "coordinates": [ 131.5920987, 33.2179202 ] } },
{ "type": "Feature", "properties": { "内容": "JAおおいた大分福祉サービスセンター【特定福祉用具販売】大字丹生147番地の3", "url": "https://www.kaigokensaku.mhlw.go.jp/44/index.php?action_kouhyou_detail_004_kani=true&JigyosyoCd=4470112162-00&ServiceCd=410&Type=search", "url2": null }, "geometry": { "type": "Point", "coordinates": [ 131.7207076, 33.2183348 ] } },
{ "type": "Feature", "properties": { "内容": "有限会社　大分エンゼル商事【特定福祉用具販売】大分県大分市大字中戸次6062番地の1", "url": "https://www.kaigokensaku.mhlw.go.jp/44/index.php?action_kouhyou_detail_004_kani=true&JigyosyoCd=4470100696-00&ServiceCd=410&Type=search", "url2": "https://oitaangel.jp/" }, "geometry": { "type": "Point", "coordinates": [ 131.653774182803318, 33.158780379099795 ] } },
{ "type": "Feature", "properties": { "内容": "ブンゴヤヘルスケア【特定福祉用具販売】花津留２丁目１９－２３", "url": "https://www.kaigokensaku.mhlw.go.jp/44/index.php?action_kouhyou_detail_004_kani=true&JigyosyoCd=4470100712-00&ServiceCd=410&Type=search", "url2": "http://www.bungoya.co.jp" }, "geometry": { "type": "Point", "coordinates": [ 131.633219700000041, 33.2457525 ] } },
{ "type": "Feature", "properties": { "内容": "日本ケア・テック株式会社【特定福祉用具販売】大分県大分市大字光吉362番地nctビル2F", "url": "https://www.kaigokensaku.mhlw.go.jp/44/index.php?action_kouhyou_detail_004_kani=true&JigyosyoCd=4470101876-00&ServiceCd=410&Type=search", "url2": "http://www11.ocn.ne.jp/~nct" }, "geometry": { "type": "Point", "coordinates": [ 131.606120199999964, 33.2012449 ] } },
{ "type": "Feature", "properties": { "内容": "ケアバンク【特定福祉用具販売】元町5-29", "url": "https://www.kaigokensaku.mhlw.go.jp/44/index.php?action_kouhyou_detail_004_kani=true&JigyosyoCd=4470102361-00&ServiceCd=410&Type=search", "url2": "http://www.carebank.jp" }, "geometry": { "type": "Point", "coordinates": [ 131.616418761238066, 33.220460059265115 ] } },
{ "type": "Feature", "properties": { "内容": "太陽シルバーサービス株式会社　大分営業所【特定福祉用具販売】大分県大分市下郡東1-4-35", "url": "https://www.kaigokensaku.mhlw.go.jp/44/index.php?action_kouhyou_detail_004_kani=true&JigyosyoCd=4470105265-00&ServiceCd=410&Type=search", "url2": "http://www.taiyoss.co.jp" }, "geometry": { "type": "Point", "coordinates": [ 131.636323714214086, 33.230717923460823 ] } },
{ "type": "Feature", "properties": { "内容": "フランスベッド株式会社　メディカル大分営業所【特定福祉用具販売】大分県大分市大字羽田字迫193-1", "url": "https://www.kaigokensaku.mhlw.go.jp/44/index.php?action_kouhyou_detail_004_kani=true&JigyosyoCd=4470105844-00&ServiceCd=410&Type=search", "url2": "http://www.francebed.co.jp/" }, "geometry": { "type": "Point", "coordinates": [ 131.6310982, 33.2200272 ] } },
{ "type": "Feature", "properties": { "内容": "ダスキンヘルスレント大分南ステーション【特定福祉用具販売】大分県大分市古国府1丁目２-３４", "url": "https://www.kaigokensaku.mhlw.go.jp/44/index.php?action_kouhyou_detail_004_kani=true&JigyosyoCd=4470107485-00&ServiceCd=410&Type=search", "url2": "https://healthrent.duskin.jp" }, "geometry": { "type": "Point", "coordinates": [ 131.613013437573244, 33.218970789115431 ] } },
{ "type": "Feature", "properties": { "内容": "株式会社　フロンティア　大分営業所【特定福祉用具販売】大分県大分市賀来西1丁目5番16号", "url": "https://www.kaigokensaku.mhlw.go.jp/44/index.php?action_kouhyou_detail_004_kani=true&JigyosyoCd=4470107998-00&ServiceCd=410&Type=search", "url2": "http://www.frontier-ph.com/" }, "geometry": { "type": "Point", "coordinates": [ 131.562182399999983, 33.2132358 ] } },
{ "type": "Feature", "properties": { "内容": "株式会社　ミタカ　　大分営業所【特定福祉用具販売】南津留5-11メゾン・デ・ツル1階", "url": "https://www.kaigokensaku.mhlw.go.jp/44/index.php?action_kouhyou_detail_004_kani=true&JigyosyoCd=4470109317-00&ServiceCd=410&Type=search", "url2": "https://t-mitaka.com/" }, "geometry": { "type": "Point", "coordinates": [ 131.625389700000028, 33.2385833 ] } },
{ "type": "Feature", "properties": { "内容": "株式会社アズメディック【特定福祉用具販売】大分県大分市大字羽田675番の３", "url": "https://www.kaigokensaku.mhlw.go.jp/44/index.php?action_kouhyou_detail_004_kani=true&JigyosyoCd=4470109507-00&ServiceCd=410&Type=search", "url2": "https://azumedic.com/" }, "geometry": { "type": "Point", "coordinates": [ 131.6318449, 33.2158479 ] } },
{ "type": "Feature", "properties": { "内容": "株式会社アナザーウェイ【特定福祉用具販売】大分県大分市大字津留1938番地の1エルセゾン杉田Ⅱ", "url": "https://www.kaigokensaku.mhlw.go.jp/44/index.php?action_kouhyou_detail_004_kani=true&JigyosyoCd=4470110513-00&ServiceCd=410&Type=search", "url2": null }, "geometry": { "type": "Point", "coordinates": [ 131.628328499999952, 33.232634 ] } },
{ "type": "Feature", "properties": { "内容": "株式会社前田工務店福祉用具事業部こーず【特定福祉用具販売】大分県大分市皆春字西の浦1606-1", "url": "https://www.kaigokensaku.mhlw.go.jp/44/index.php?action_kouhyou_detail_004_kani=true&JigyosyoCd=4470111222-00&ServiceCd=410&Type=search", "url2": null }, "geometry": { "type": "Point", "coordinates": [ 131.681724673541254, 33.235378322563854 ] } },
{ "type": "Feature", "properties": { "内容": "ふくるん【特定福祉用具販売】大分市大字中判田1655番地１", "url": "https://www.kaigokensaku.mhlw.go.jp/44/index.php?action_kouhyou_detail_004_kani=true&JigyosyoCd=4470111263-00&ServiceCd=410&Type=search", "url2": "http://www.oita-yuima-ru.com" }, "geometry": { "type": "Point", "coordinates": [ 131.6399586, 33.1650884 ] } },
{ "type": "Feature", "properties": { "内容": "MATSUURA＆Co.【特定福祉用具販売】大分市大字三芳677番地1", "url": "https://www.kaigokensaku.mhlw.go.jp/44/index.php?action_kouhyou_detail_004_kani=true&JigyosyoCd=4470111784-00&ServiceCd=410&Type=search", "url2": "https://smile-lib.com/" }, "geometry": { "type": "Point", "coordinates": [ 131.591023799999988, 33.2253242 ] } },
{ "type": "Feature", "properties": { "内容": "OPﾒﾃﾞｨｶﾙｻｰﾋﾞｽ【特定福祉用具販売】大分市大津町1-22-12清友ﾋﾞﾙ103号", "url": "https://www.kaigokensaku.mhlw.go.jp/44/index.php?action_kouhyou_detail_004_kani=true&JigyosyoCd=4470110612-00&ServiceCd=410&Type=search", "url2": "https://nogata-medical.com/" }, "geometry": { "type": "Point", "coordinates": [ 131.625076300000046, 33.2498111 ] } },
{ "type": "Feature", "properties": { "内容": "ベストケア別府【特定福祉用具販売】大分県別府市石垣東10丁目1-10", "url": "https://www.kaigokensaku.mhlw.go.jp/44/index.php?action_kouhyou_detail_004_kani=true&JigyosyoCd=4470203235-00&ServiceCd=410&Type=search", "url2": null }, "geometry": { "type": "Point", "coordinates": [ 131.499016200000028, 33.304251 ] } },
{ "type": "Feature", "properties": { "内容": "一燈園　福祉用具貸与事業所【特定福祉用具販売】大分県別府市大字南立石３４７番地の７有料老人ホーム堀田一燈園", "url": "https://www.kaigokensaku.mhlw.go.jp/44/index.php?action_kouhyou_detail_004_kani=true&JigyosyoCd=4470203300-00&ServiceCd=410&Type=search", "url2": "http://www.ittouen.or.jp" }, "geometry": { "type": "Point", "coordinates": [ 131.45560009999997, 33.2940575 ] } },
{ "type": "Feature", "properties": { "内容": "福祉のダイイチ【特定福祉用具販売】大分県別府市石垣東2丁目2－15", "url": "https://www.kaigokensaku.mhlw.go.jp/44/index.php?action_kouhyou_detail_004_kani=true&JigyosyoCd=4470203532-00&ServiceCd=410&Type=search", "url2": null }, "geometry": { "type": "Point", "coordinates": [ 131.498564499999986, 33.2911501 ] } },
{ "type": "Feature", "properties": { "内容": "有限会社　大分タキレンタル事業所【特定福祉用具販売】大分県別府市大字内竈字中無田1392番地2", "url": "https://www.kaigokensaku.mhlw.go.jp/44/index.php?action_kouhyou_detail_004_kani=true&JigyosyoCd=4470200355-00&ServiceCd=410&Type=search", "url2": "http://www.oita-taki.net/" }, "geometry": { "type": "Point", "coordinates": [ 131.484789399999954, 33.3319095 ] } },
{ "type": "Feature", "properties": { "内容": "福祉用具事業所「洞門」【特定福祉用具販売】大分県中津市本耶馬渓町樋田182-5", "url": "https://www.kaigokensaku.mhlw.go.jp/44/index.php?action_kouhyou_detail_004_kani=true&JigyosyoCd=4470301179-00&ServiceCd=410&Type=search", "url2": null }, "geometry": { "type": "Point", "coordinates": [ 131.17176459999996, 33.5035738 ] } },
{ "type": "Feature", "properties": { "内容": "株式会社サンライズコーポレーション　ハッピーライフ福祉用具センター【特定福祉用具販売】大分県中津市大字大悟法751番地3", "url": "https://www.kaigokensaku.mhlw.go.jp/44/index.php?action_kouhyou_detail_004_kani=true&JigyosyoCd=4470300981-00&ServiceCd=410&Type=search", "url2": null }, "geometry": { "type": "Point", "coordinates": [ 131.215445199999976, 33.5728388 ] } },
{ "type": "Feature", "properties": { "内容": "大分県中津市大字大新田762【特定福祉用具販売】大分県中津市大新田762", "url": "https://www.kaigokensaku.mhlw.go.jp/44/index.php?action_kouhyou_detail_004_kani=true&JigyosyoCd=4470301567-00&ServiceCd=410&Type=search", "url2": null }, "geometry": { "type": "Point", "coordinates": [ 131.223000686508158, 33.594798589892378 ] } },
{ "type": "Feature", "properties": { "内容": "Ｌ・Ｉ・Ｐ福祉用具センター【特定福祉用具販売】大分県日田市大字十二町６０４番地３", "url": "https://www.kaigokensaku.mhlw.go.jp/44/index.php?action_kouhyou_detail_004_kani=true&JigyosyoCd=4470401383-00&ServiceCd=410&Type=search", "url2": "https://ast-crew.jp/" }, "geometry": { "type": "Point", "coordinates": [ 130.924885384655823, 33.323179993304286 ] } },
{ "type": "Feature", "properties": { "内容": "環世維株式会社【特定福祉用具販売】大分県日田市田島本町2番13号", "url": "https://www.kaigokensaku.mhlw.go.jp/44/index.php?action_kouhyou_detail_004_kani=true&JigyosyoCd=4470400062-00&ServiceCd=410&Type=search", "url2": null }, "geometry": { "type": "Point", "coordinates": [ 131.3978846, 32.9736457 ] } },
{ "type": "Feature", "properties": { "内容": "有限会社環彩【特定福祉用具販売】大字日高1060番地10いろは館", "url": "https://www.kaigokensaku.mhlw.go.jp/44/index.php?action_kouhyou_detail_004_kani=true&JigyosyoCd=4470400633-00&ServiceCd=410&Type=search", "url2": "http;//kaigolease.com/" }, "geometry": { "type": "Point", "coordinates": [ 130.944377, 33.3080173 ] } },
{ "type": "Feature", "properties": { "内容": "株式会社　クローバー　日田営業所【特定福祉用具販売】大分県日田市北友田１丁目1352-1", "url": "https://www.kaigokensaku.mhlw.go.jp/44/index.php?action_kouhyou_detail_004_kani=true&JigyosyoCd=4470401672-00&ServiceCd=410&Type=search", "url2": "https://www.clover-w.co.jp/" }, "geometry": { "type": "Point", "coordinates": [ 130.918320200000011, 33.3256061 ] } },
{ "type": "Feature", "properties": { "内容": "有限会社　ハピネス【特定福祉用具販売】大分県佐伯市長島町3丁目20番10号", "url": "https://www.kaigokensaku.mhlw.go.jp/44/index.php?action_kouhyou_detail_004_kani=true&JigyosyoCd=4470500341-00&ServiceCd=410&Type=search", "url2": null }, "geometry": { "type": "Point", "coordinates": [ 131.907628658860745, 32.956546317936478 ] } },
{ "type": "Feature", "properties": { "内容": "ライフケア楽ぞう【特定福祉用具販売】大分県佐伯市鶴望下川成116-17", "url": "https://www.kaigokensaku.mhlw.go.jp/44/index.php?action_kouhyou_detail_004_kani=true&JigyosyoCd=4470501182-00&ServiceCd=410&Type=search", "url2": null }, "geometry": { "type": "Point", "coordinates": [ 131.871140827053068, 32.959963885665211 ] } },
{ "type": "Feature", "properties": { "内容": "介護ショップ　朝日【特定福祉用具販売】弥生井崎1254番地1", "url": "https://www.kaigokensaku.mhlw.go.jp/44/index.php?action_kouhyou_detail_004_kani=true&JigyosyoCd=4470501828-00&ServiceCd=410&Type=search", "url2": null }, "geometry": { "type": "Point", "coordinates": [ 131.8404166, 32.9706776 ] } },
{ "type": "Feature", "properties": { "内容": "ＪＡおおいた　佐伯福祉サービスセンター　特定福祉用具販売事業所【特定福祉用具販売】大分県佐伯市長島町１－２－４", "url": "https://www.kaigokensaku.mhlw.go.jp/44/index.php?action_kouhyou_detail_004_kani=true&JigyosyoCd=4470501000-00&ServiceCd=410&Type=search", "url2": null }, "geometry": { "type": "Point", "coordinates": [ 131.9048709, 32.9642139 ] } },
{ "type": "Feature", "properties": { "内容": "株式会社　サンヘルプ【特定福祉用具販売】大分県佐伯市鶴岡西町1丁目291番地", "url": "https://www.kaigokensaku.mhlw.go.jp/44/index.php?action_kouhyou_detail_004_kani=true&JigyosyoCd=4470500085-00&ServiceCd=410&Type=search", "url2": "http://www.sanhelp.net" }, "geometry": { "type": "Point", "coordinates": [ 131.866435, 32.9625991 ] } },
{ "type": "Feature", "properties": { "内容": "九州福祉医療サービス株式会社　佐伯支店【特定福祉用具販売】大分県佐伯市鶴岡西町2丁目272番地", "url": "https://www.kaigokensaku.mhlw.go.jp/44/index.php?action_kouhyou_detail_004_kani=true&JigyosyoCd=4470500457-00&ServiceCd=410&Type=search", "url2": "htpp://www.kyufuku.com" }, "geometry": { "type": "Point", "coordinates": [ 131.863835399999971, 32.9581384 ] } },
{ "type": "Feature", "properties": { "内容": "有限会社　家具の大見【特定福祉用具販売】大分県臼杵市大字江無田250番地", "url": "https://www.kaigokensaku.mhlw.go.jp/44/index.php?action_kouhyou_detail_004_kani=true&JigyosyoCd=4470600869-00&ServiceCd=410&Type=search", "url2": "https://www.kagu-oomi.com/" }, "geometry": { "type": "Point", "coordinates": [ 131.791084361901852, 33.1262765 ] } },
{ "type": "Feature", "properties": { "内容": "株式会社　マツモト・メディカル【特定福祉用具販売】大字江無田１４８４番地の４", "url": "https://www.kaigokensaku.mhlw.go.jp/44/index.php?action_kouhyou_detail_004_kani=true&JigyosyoCd=4470600240-00&ServiceCd=410&Type=search", "url2": "http:www.MatsumotoMed.co.jp" }, "geometry": { "type": "Point", "coordinates": [ 131.78255450000006, 33.1279492 ] } },
{ "type": "Feature", "properties": { "内容": "有限会社　池辺　陶器店【特定福祉用具販売】大分県竹田市大字竹田町229番地", "url": "https://www.kaigokensaku.mhlw.go.jp/44/index.php?action_kouhyou_detail_004_kani=true&JigyosyoCd=4470800121-00&ServiceCd=410&Type=search", "url2": null }, "geometry": { "type": "Point", "coordinates": [ 131.393908199999942, 32.9669899 ] } },
{ "type": "Feature", "properties": { "内容": "介護ショップあわや　竹田事業所【特定福祉用具販売】大分県竹田市竹田町389番地1", "url": "https://www.kaigokensaku.mhlw.go.jp/44/index.php?action_kouhyou_detail_004_kani=true&JigyosyoCd=4470800220-00&ServiceCd=410&Type=search", "url2": "http://awaya-fukushi.com" }, "geometry": { "type": "Point", "coordinates": [ 131.392741600000022, 32.9669677 ] } },
{ "type": "Feature", "properties": { "内容": "有限会社かのう【特定福祉用具販売】大分県　豊後高田市　田染　真中　88", "url": "https://www.kaigokensaku.mhlw.go.jp/44/index.php?action_kouhyou_detail_004_kani=true&JigyosyoCd=4470900194-00&ServiceCd=410&Type=search", "url2": "https://4r-kanou.jp/" }, "geometry": { "type": "Point", "coordinates": [ 131.516050799999988, 33.5166122 ] } },
{ "type": "Feature", "properties": { "内容": "ケアショップオリーブ【特定福祉用具販売】大分県豊後高田市新地1157番地ケアプレイスオリーブ", "url": "https://www.kaigokensaku.mhlw.go.jp/44/index.php?action_kouhyou_detail_004_kani=true&JigyosyoCd=4470900319-00&ServiceCd=410&Type=search", "url2": "http://olive-care.com/" }, "geometry": { "type": "Point", "coordinates": [ 131.439779899999962, 33.5537768 ] } },
{ "type": "Feature", "properties": { "内容": "ひびきレンタル【特定福祉用具販売】大分県宇佐市大字四日市4442番地の１", "url": "https://www.kaigokensaku.mhlw.go.jp/44/index.php?action_kouhyou_detail_004_kani=true&JigyosyoCd=4471101057-00&ServiceCd=410&Type=search", "url2": "http://www.meihokai.or.jp" }, "geometry": { "type": "Point", "coordinates": [ 131.318925300000046, 33.5229026 ] } },
{ "type": "Feature", "properties": { "内容": "ハートケア　えがお【特定福祉用具販売】下高家５７５番地の３", "url": "https://www.kaigokensaku.mhlw.go.jp/44/index.php?action_kouhyou_detail_004_kani=true&JigyosyoCd=4471100976-00&ServiceCd=410&Type=search", "url2": null }, "geometry": { "type": "Point", "coordinates": [ 131.3064412, 33.5746357 ] } },
{ "type": "Feature", "properties": { "内容": "有限会社ブループランニング【特定福祉用具販売】大分県宇佐市大字葛原628番地の14", "url": "https://www.kaigokensaku.mhlw.go.jp/44/index.php?action_kouhyou_detail_004_kani=true&JigyosyoCd=4471101511-00&ServiceCd=410&Type=search", "url2": null }, "geometry": { "type": "Point", "coordinates": [ 131.3336356, 33.536379 ] } },
{ "type": "Feature", "properties": { "内容": "福祉用具レンタル　Raid【特定福祉用具販売】大分県宇佐市大字上乙女699番地", "url": "https://www.kaigokensaku.mhlw.go.jp/44/index.php?action_kouhyou_detail_004_kani=true&JigyosyoCd=4471101594-00&ServiceCd=410&Type=search", "url2": null }, "geometry": { "type": "Point", "coordinates": [ 131.3389048, 33.5603207 ] } },
{ "type": "Feature", "properties": { "内容": "株式会社　セカンドケア【特定福祉用具販売】大分県宇佐市大字下高家202番地", "url": "https://www.kaigokensaku.mhlw.go.jp/44/index.php?action_kouhyou_detail_004_kani=true&JigyosyoCd=4470202534-00&ServiceCd=410&Type=search", "url2": null }, "geometry": { "type": "Point", "coordinates": [ 131.297925420238926, 33.576450880551199 ] } },
{ "type": "Feature", "properties": { "内容": "株式会社アクト・ケア　福祉用具　玄々【特定福祉用具販売】大分県宇佐市大字石田141番地", "url": "https://www.kaigokensaku.mhlw.go.jp/44/index.php?action_kouhyou_detail_004_kani=true&JigyosyoCd=4470300668-00&ServiceCd=410&Type=search", "url2": "http://www.act-group.jp/care/gaiyou/index.html" }, "geometry": { "type": "Point", "coordinates": [ 131.333936350262434, 33.532273461370607 ] } },
{ "type": "Feature", "properties": { "内容": "有限会社　オーツー【特定福祉用具販売】大分県宇佐市大字下元重９２番地の２２", "url": "https://www.kaigokensaku.mhlw.go.jp/44/index.php?action_kouhyou_detail_004_kani=true&JigyosyoCd=4470900186-00&ServiceCd=410&Type=search", "url2": null }, "geometry": { "type": "Point", "coordinates": [ 131.312100900000019, 33.5237135 ] } },
{ "type": "Feature", "properties": { "内容": "ＪＡおおいた北部福祉用具事業所【特定福祉用具販売】大分県宇佐市大字長洲９２１番地３", "url": "https://www.kaigokensaku.mhlw.go.jp/44/index.php?action_kouhyou_detail_004_kani=true&JigyosyoCd=4471101222-00&ServiceCd=410&Type=search", "url2": null }, "geometry": { "type": "Point", "coordinates": [ 131.38421070000004, 33.565455 ] } },
{ "type": "Feature", "properties": { "内容": "株式会社エヴァ・ライフ　ベストケア宇佐【特定福祉用具販売】大分県宇佐市大字四日市字駄廻408-1", "url": "https://www.kaigokensaku.mhlw.go.jp/44/index.php?action_kouhyou_detail_004_kani=true&JigyosyoCd=4471101388-00&ServiceCd=410&Type=search", "url2": "http://evahlife.jp/" }, "geometry": { "type": "Point", "coordinates": [ 131.322699245492402, 33.535949877929674 ] } },
{ "type": "Feature", "properties": { "内容": "ハートケアえがお【特定福祉用具販売】大分県宇佐市大字樋田47番地パープル樋田4号", "url": "https://www.kaigokensaku.mhlw.go.jp/44/index.php?action_kouhyou_detail_004_kani=true&JigyosyoCd=4471200776-00&ServiceCd=410&Type=search", "url2": null }, "geometry": { "type": "Point", "coordinates": [ 131.3415678, 33.5259196 ] } },
{ "type": "Feature", "properties": { "内容": "徳永装器【特定福祉用具販売】大分県宇佐市大字大根川３１８番地", "url": "https://www.kaigokensaku.mhlw.go.jp/44/index.php?action_kouhyou_detail_004_kani=true&JigyosyoCd=4471100554-00&ServiceCd=410&Type=search", "url2": "http://www.tokuki.net/" }, "geometry": { "type": "Point", "coordinates": [ 131.282352899999978, 33.5444573 ] } },
{ "type": "Feature", "properties": { "内容": "介護・福祉用品のお店ミナモトヤ【特定福祉用具販売】大分県豊後大野市三重町市場１３３９", "url": "https://www.kaigokensaku.mhlw.go.jp/44/index.php?action_kouhyou_detail_004_kani=true&JigyosyoCd=4471200081-00&ServiceCd=410&Type=search", "url2": null }, "geometry": { "type": "Point", "coordinates": [ 131.582336400000031, 32.9785943 ] } },
{ "type": "Feature", "properties": { "内容": "ケアステーションおおの【特定福祉用具販売】大分県豊後大野市三重町菅生1番地154", "url": "https://www.kaigokensaku.mhlw.go.jp/44/index.php?action_kouhyou_detail_004_kani=true&JigyosyoCd=4472600818-00&ServiceCd=410&Type=search", "url2": null }, "geometry": { "type": "Point", "coordinates": [ 131.618757499999987, 32.9982381 ] } },
{ "type": "Feature", "properties": { "内容": "介護ショップあわや【特定福祉用具販売】大分県豊後大野市朝地町下野747番地1", "url": "https://www.kaigokensaku.mhlw.go.jp/44/index.php?action_kouhyou_detail_004_kani=true&JigyosyoCd=4471200396-00&ServiceCd=410&Type=search", "url2": "http://www.awaya-fukushi.com" }, "geometry": { "type": "Point", "coordinates": [ 131.454368779938306, 33.002794625461355 ] } },
{ "type": "Feature", "properties": { "内容": "帰巖会福祉用具センター【特定福祉用具販売】大分県豊後大野市三重町市場1163番地", "url": "https://www.kaigokensaku.mhlw.go.jp/44/index.php?action_kouhyou_detail_004_kani=true&JigyosyoCd=4471200768-00&ServiceCd=410&Type=search", "url2": "http://www.kigankai.or.jp/" }, "geometry": { "type": "Point", "coordinates": [ 131.5830585, 32.9777999 ] } },
{ "type": "Feature", "properties": { "内容": "株式会社　ナガヨシ【特定福祉用具販売】大分県豊後大野市緒方町馬場３１番地１", "url": "https://www.kaigokensaku.mhlw.go.jp/44/index.php?action_kouhyou_detail_004_kani=true&JigyosyoCd=4472600701-00&ServiceCd=410&Type=search", "url2": "https://www.nagayoshi.info/" }, "geometry": { "type": "Point", "coordinates": [ 131.47444530000007, 32.971397 ] } },
{ "type": "Feature", "properties": { "内容": "株式会社大分白屋　介護事業部【特定福祉用具販売】大分県由布市挾間町下市285-1", "url": "https://www.kaigokensaku.mhlw.go.jp/44/index.php?action_kouhyou_detail_004_kani=true&JigyosyoCd=4471300121-00&ServiceCd=410&Type=search", "url2": "http://www.d-shiroya.jp/" }, "geometry": { "type": "Point", "coordinates": [ 131.528004199999941, 33.1986803 ] } },
{ "type": "Feature", "properties": { "内容": "合同会社みゅーず【特定福祉用具販売】大分県由布市挾間町挟間３９９番地", "url": "https://www.kaigokensaku.mhlw.go.jp/44/index.php?action_kouhyou_detail_004_kani=true&JigyosyoCd=4471300501-00&ServiceCd=410&Type=search", "url2": null }, "geometry": { "type": "Point", "coordinates": [ 131.514946900000041, 33.2014518 ] } },
{ "type": "Feature", "properties": { "内容": "ウェルビーイング国見【特定福祉用具販売】大分県国東市国東町伊美1968番地国見病院１階", "url": "https://www.kaigokensaku.mhlw.go.jp/44/index.php?action_kouhyou_detail_004_kani=true&JigyosyoCd=4471400400-00&ServiceCd=410&Type=search", "url2": null }, "geometry": { "type": "Point", "coordinates": [ 131.70712850000001, 33.6020548 ] } },
{ "type": "Feature", "properties": { "内容": "有限会社　介護ショップゴロちゃん【特定福祉用具販売】大分県速見郡日出町大字大神8085番地", "url": "https://www.kaigokensaku.mhlw.go.jp/44/index.php?action_kouhyou_detail_004_kani=true&JigyosyoCd=4472200346-00&ServiceCd=410&Type=search", "url2": "http://www.gorochan-kaigo.sakura.ne.jp/?utm_source=kd" }, "geometry": { "type": "Point", "coordinates": [ 131.581703800000014, 33.3737744 ] } },
{ "type": "Feature", "properties": { "内容": "スガタ福祉用具センター【特定福祉用具販売】大分県玖珠郡玖珠町塚脇６２１－１", "url": "https://www.kaigokensaku.mhlw.go.jp/44/index.php?action_kouhyou_detail_004_kani=true&JigyosyoCd=4472800665-00&ServiceCd=410&Type=search", "url2": "http://sugata-bungu.com/" }, "geometry": { "type": "Point", "coordinates": [ 131.158548077909813, 33.272876020182615 ] } },
{ "type": "Feature", "properties": { "内容": "有限会社　家具の梶原【特定福祉用具販売】大分県玖珠郡玖珠町大字塚脇447-17", "url": "https://www.kaigokensaku.mhlw.go.jp/44/index.php?action_kouhyou_detail_004_kani=true&JigyosyoCd=4472800202-00&ServiceCd=410&Type=search", "url2": null }, "geometry": { "type": "Point", "coordinates": [ 131.156155600000034, 33.2741359 ] } },
{ "type": "Feature", "properties": { "内容": "ケアショップ・ドット【特定福祉用具販売】大字塚脇２６０番地石田ビル　３Ｆ", "url": "https://www.kaigokensaku.mhlw.go.jp/44/index.php?action_kouhyou_detail_004_kani=true&JigyosyoCd=4472800541-00&ServiceCd=410&Type=search", "url2": null }, "geometry": { "type": "Point", "coordinates": [ 131.15288350000003, 33.2754856 ] } }
]
}
