{
"type": "FeatureCollection",
"name": "geo_44_短期大学",
"crs": { "type": "name", "properties": { "name": "urn:ogc:def:crs:EPSG::6668" } },
"features": [
{ "type": "Feature", "properties": { "P29_001": "44201", "P29_002": "F244210111460", "P29_003": "16006", "P29_004": "大分県立芸術文化短期大学", "P29_005": "大分県大分市上野丘東1-11", "P29_006": "2", "P29_007": "0", "P29_008": "00", "P29_009": null }, "geometry": { "type": "Point", "coordinates": [ 131.615660123599355, 33.223557371580071 ] } },
{ "type": "Feature", "properties": { "P29_001": "44201", "P29_002": "F244310111477", "P29_003": "16006", "P29_004": "大分短期大学", "P29_005": "大分県大分市千代町3-3-8", "P29_006": "4", "P29_007": "0", "P29_008": "00", "P29_009": null }, "geometry": { "type": "Point", "coordinates": [ 131.604527656941542, 33.244490632207224 ] } },
{ "type": "Feature", "properties": { "P29_001": "44203", "P29_002": "F244310111486", "P29_003": "16006", "P29_004": "東九州短期大学", "P29_005": "大分県中津市一ツ松211", "P29_006": "4", "P29_007": "0", "P29_008": "00", "P29_009": null }, "geometry": { "type": "Point", "coordinates": [ 131.204214489319469, 33.588680800285161 ] } },
{ "type": "Feature", "properties": { "P29_001": "44202", "P29_002": "F244310111495", "P29_003": "16006", "P29_004": "別府溝部学園短期大学", "P29_005": "大分県別府市大字野田字通山78", "P29_006": "4", "P29_007": "0", "P29_008": "00", "P29_009": null }, "geometry": { "type": "Point", "coordinates": [ 131.487262762649266, 33.32811761139623 ] } },
{ "type": "Feature", "properties": { "P29_001": "44202", "P29_002": "F244310111501", "P29_003": "16006", "P29_004": "別府大学短期大学部", "P29_005": "大分県別府市大字北石垣82", "P29_006": "4", "P29_007": "0", "P29_008": "00", "P29_009": null }, "geometry": { "type": "Point", "coordinates": [ 131.490514683932616, 33.31237922496171 ] } }
]
}
