{
"type": "FeatureCollection",
"name": "geo_44_訪問リハビリテーション",
"crs": { "type": "name", "properties": { "name": "urn:ogc:def:crs:OGC:1.3:CRS84" } },
"features": [
{ "type": "Feature", "properties": { "内容": "社会医療法人　敬和会　大分豊寿苑　訪問リハビリテーション【訪問リハビリテーション】大分県大分市大字皆春1521番地の1", "url": "https://www.kaigokensaku.mhlw.go.jp/44/index.php?action_kouhyou_detail_004_kani=true&JigyosyoCd=4450180114-00&ServiceCd=140&Type=search", "url2": "http://www.hojuen.jp/" }, "geometry": { "type": "Point", "coordinates": [ 131.6843437, 33.2359417 ] } },
{ "type": "Feature", "properties": { "内容": "たねだ内科【訪問リハビリテーション】大分県大分市豊饒二丁目3番２３号", "url": "https://www.kaigokensaku.mhlw.go.jp/44/index.php?action_kouhyou_detail_004_kani=true&JigyosyoCd=4410114831-00&ServiceCd=140&Type=search", "url2": "http//www.oct-net.ne.jp/taneda/" }, "geometry": { "type": "Point", "coordinates": [ 131.598368499999964, 33.2097469 ] } },
{ "type": "Feature", "properties": { "内容": "明野中央病院【訪問リハビリテーション】大分県大分市明野東2丁目7番33号", "url": "https://www.kaigokensaku.mhlw.go.jp/44/index.php?action_kouhyou_detail_004_kani=true&JigyosyoCd=4410114369-00&ServiceCd=140&Type=search", "url2": "http://www.akenohp.ne.jp" }, "geometry": { "type": "Point", "coordinates": [ 131.657263, 33.220603 ] } },
{ "type": "Feature", "properties": { "内容": "塚川第一病院訪問リハビリテーション【訪問リハビリテーション】大分県大分市東春日町５－２５", "url": "https://www.kaigokensaku.mhlw.go.jp/44/index.php?action_kouhyou_detail_004_kani=true&JigyosyoCd=4410120184-00&ServiceCd=140&Type=search", "url2": "http://www.hakkokai.com/top.html" }, "geometry": { "type": "Point", "coordinates": [ 131.599585510975629, 33.240243133118163 ] } },
{ "type": "Feature", "properties": { "内容": "医療法人光心会　諏訪の杜病院【訪問リハビリテーション】大分県大分市大字鴛野１１８番地の１", "url": "https://www.kaigokensaku.mhlw.go.jp/44/index.php?action_kouhyou_detail_004_kani=true&JigyosyoCd=4410123683-00&ServiceCd=140&Type=search", "url2": "http://k-suwanomori.com" }, "geometry": { "type": "Point", "coordinates": [ 131.619431414433279, 33.184640484885257 ] } },
{ "type": "Feature", "properties": { "内容": "訪問リハビリテーション　きぼう【訪問リハビリテーション】大分県大分市大字中尾字平255番地", "url": "https://www.kaigokensaku.mhlw.go.jp/44/index.php?action_kouhyou_detail_004_kani=true&JigyosyoCd=4470105901-00&ServiceCd=140&Type=search", "url2": "http://www.inobe.or.jp/" }, "geometry": { "type": "Point", "coordinates": [ 131.550595615876802, 33.208426992826489 ] } },
{ "type": "Feature", "properties": { "内容": "あけのメディカルクリニック【訪問リハビリテーション】大分県大分市大字横尾4451番地の5", "url": "https://www.kaigokensaku.mhlw.go.jp/44/index.php?action_kouhyou_detail_004_kani=true&JigyosyoCd=4410118980-00&ServiceCd=140&Type=search", "url2": "http://www.akenomedical.jp" }, "geometry": { "type": "Point", "coordinates": [ 131.649944399999981, 33.2170559 ] } },
{ "type": "Feature", "properties": { "内容": "へつぎ病院【訪問リハビリテーション】大分県大分市大字中戸次二本木5956番地", "url": "https://www.kaigokensaku.mhlw.go.jp/44/index.php?action_kouhyou_detail_004_kani=true&JigyosyoCd=4410117925-00&ServiceCd=140&Type=search", "url2": "www.tenshindou.org" }, "geometry": { "type": "Point", "coordinates": [ 131.656916599999988, 33.1582184 ] } },
{ "type": "Feature", "properties": { "内容": "医療法人　芝蘭会　今村病院【訪問リハビリテーション】大分県大分市大手町３丁目２番２９号", "url": "https://www.kaigokensaku.mhlw.go.jp/44/index.php?action_kouhyou_detail_004_kani=true&JigyosyoCd=4410111043-00&ServiceCd=140&Type=search", "url2": "http://imamura-hospital.jp/" }, "geometry": { "type": "Point", "coordinates": [ 131.613900920237711, 33.238954905741672 ] } },
{ "type": "Feature", "properties": { "内容": "えとう内科病院【訪問リハビリテーション】大分県大分市中判田１４２８番地１", "url": "https://www.kaigokensaku.mhlw.go.jp/44/index.php?action_kouhyou_detail_004_kani=true&JigyosyoCd=4410115531-00&ServiceCd=140&Type=search", "url2": "http://shinwakai-hosp.com" }, "geometry": { "type": "Point", "coordinates": [ 131.63224714113926, 33.16707054096868 ] } },
{ "type": "Feature", "properties": { "内容": "だいかく病院訪問リハビリテーション【訪問リハビリテーション】大分県大分市下郡山の手2-18", "url": "https://www.kaigokensaku.mhlw.go.jp/44/index.php?action_kouhyou_detail_004_kani=true&JigyosyoCd=4410118659-00&ServiceCd=140&Type=search", "url2": "http://www.daikaku-hp.jp/" }, "geometry": { "type": "Point", "coordinates": [ 131.639070506745952, 33.221142927393323 ] } },
{ "type": "Feature", "properties": { "内容": "小野鶴養生院　訪問リハビリテーション事業所【訪問リハビリテーション】大分県大分市小野鶴1157番地の1", "url": "https://www.kaigokensaku.mhlw.go.jp/44/index.php?action_kouhyou_detail_004_kani=true&JigyosyoCd=4450180023-00&ServiceCd=140&Type=search", "url2": null }, "geometry": { "type": "Point", "coordinates": [ 131.5679093, 33.1987772 ] } },
{ "type": "Feature", "properties": { "内容": "大分記念病院【訪問リハビリテーション】大分県大分市羽屋2丁目5番10号", "url": "https://www.kaigokensaku.mhlw.go.jp/44/index.php?action_kouhyou_detail_004_kani=true&JigyosyoCd=4410115135-00&ServiceCd=140&Type=search", "url2": "http://www.oct.ne.jp/^omh/" }, "geometry": { "type": "Point", "coordinates": [ 131.600611096277731, 33.214600054466814 ] } },
{ "type": "Feature", "properties": { "内容": "医療法人鶴友会　老人保健施設メディトピアこが【訪問リハビリテーション】大分県大分市南鶴崎２丁目６番２２号", "url": "https://www.kaigokensaku.mhlw.go.jp/44/index.php?action_kouhyou_detail_004_kani=true&JigyosyoCd=4450180015-00&ServiceCd=140&Type=search", "url2": "http://www.kakuyukai.com" }, "geometry": { "type": "Point", "coordinates": [ 131.690367257672051, 33.238968564951151 ] } },
{ "type": "Feature", "properties": { "内容": "ハートクリニック訪問リハビリテーション【訪問リハビリテーション】大分県大分市大字光吉1430-27", "url": "https://www.kaigokensaku.mhlw.go.jp/44/index.php?action_kouhyou_detail_004_kani=true&JigyosyoCd=4470104755-00&ServiceCd=140&Type=search", "url2": "http://heart-cl.com/" }, "geometry": { "type": "Point", "coordinates": [ 131.600678961901849, 33.19116761267491 ] } },
{ "type": "Feature", "properties": { "内容": "大分リハビリテーション病院訪問リハビリテーション事業所【訪問リハビリテーション】大分県大分市大字志村字谷ヶ迫765番地", "url": "https://www.kaigokensaku.mhlw.go.jp/44/index.php?action_kouhyou_detail_004_kani=true&JigyosyoCd=4470109986-00&ServiceCd=140&Type=search", "url2": "http://www.oitatohbu-hp.net/" }, "geometry": { "type": "Point", "coordinates": [ 131.705717, 33.23995 ] } },
{ "type": "Feature", "properties": { "内容": "坂ノ市病院訪問リハビリテーション事業所【訪問リハビリテーション】大分県大分市坂ノ市中央1-269坂ノ市病院3階", "url": "https://www.kaigokensaku.mhlw.go.jp/44/index.php?action_kouhyou_detail_004_kani=true&JigyosyoCd=4410122420-00&ServiceCd=140&Type=search", "url2": "https://sites.google.com/view/reha-mominoki" }, "geometry": { "type": "Point", "coordinates": [ 131.753151067211888, 33.235373335566045 ] } },
{ "type": "Feature", "properties": { "内容": "大東よつば病院訪問リハビリテーション事業所【訪問リハビリテーション】大分県大分市大字松岡1946番地", "url": "https://www.kaigokensaku.mhlw.go.jp/44/index.php?action_kouhyou_detail_004_kani=true&JigyosyoCd=4410123055-00&ServiceCd=140&Type=search", "url2": "sekiaikai.jp" }, "geometry": { "type": "Point", "coordinates": [ 131.6716266, 33.1753357 ] } },
{ "type": "Feature", "properties": { "内容": "社会医療法人関愛会　佐賀関病院訪問リハビリテーション課【訪問リハビリテーション】大字佐賀関750番地の88", "url": "https://www.kaigokensaku.mhlw.go.jp/44/index.php?action_kouhyou_detail_004_kani=true&JigyosyoCd=4410120440-00&ServiceCd=140&Type=search", "url2": "http://sekiaikai.jp" }, "geometry": { "type": "Point", "coordinates": [ 131.8676682, 33.2496435 ] } },
{ "type": "Feature", "properties": { "内容": "こうざきクリニック　訪問リハビリテーション事業所【訪問リハビリテーション】大分県大分市大字本神崎251-8こうざきクリニック2階", "url": "https://www.kaigokensaku.mhlw.go.jp/44/index.php?action_kouhyou_detail_004_kani=true&JigyosyoCd=4410121026-00&ServiceCd=140&Type=search", "url2": "https://sites.google.com/view/reha-mominoki/%E8%A8%AA%E5%95%8F%E3%83%AA%E3%83%8F%E3%83%93%E3%83%AA?authuser=0" }, "geometry": { "type": "Point", "coordinates": [ 131.795655900000042, 33.2332778 ] } },
{ "type": "Feature", "properties": { "内容": "大分中村病院訪問リハビリテーション【訪問リハビリテーション】大分県大分市舞鶴町一丁目４番１号", "url": "https://www.kaigokensaku.mhlw.go.jp/44/index.php?action_kouhyou_detail_004_kani=true&JigyosyoCd=4410123550-00&ServiceCd=140&Type=search", "url2": "https://www.nakamura-hosp.or.jp/home-support/houmonriha/" }, "geometry": { "type": "Point", "coordinates": [ 131.619837499999988, 33.2394533 ] } },
{ "type": "Feature", "properties": { "内容": "介護老人保健施設わさだケアセンター【訪問リハビリテーション】大分県大分市大字市字大坪11番地の2", "url": "https://www.kaigokensaku.mhlw.go.jp/44/index.php?action_kouhyou_detail_004_kani=true&JigyosyoCd=4450180064-00&ServiceCd=140&Type=search", "url2": "https://wasada-care-center.com" }, "geometry": { "type": "Point", "coordinates": [ 131.575353, 33.187717 ] } },
{ "type": "Feature", "properties": { "内容": "大分健生病院訪問リハビリセンター【訪問リハビリテーション】大分県大分市古ヶ鶴１丁目１番１５号", "url": "https://www.kaigokensaku.mhlw.go.jp/44/index.php?action_kouhyou_detail_004_kani=true&JigyosyoCd=4410114864-00&ServiceCd=140&Type=search", "url2": "http://www.oita-min.or.jp" }, "geometry": { "type": "Point", "coordinates": [ 131.629933899999969, 33.2389501 ] } },
{ "type": "Feature", "properties": { "内容": "大分県勤労者医療生活協同組合大分協和病院【訪問リハビリテーション】大分県大分市大字宮崎９５３番地の１", "url": "https://www.kaigokensaku.mhlw.go.jp/44/index.php?action_kouhyou_detail_004_kani=true&JigyosyoCd=4410115564-00&ServiceCd=140&Type=search", "url2": "http://www.oitakyowa-hp.org/" }, "geometry": { "type": "Point", "coordinates": [ 131.604678700000022, 33.1974562 ] } },
{ "type": "Feature", "properties": { "内容": "大嶋医院【訪問リハビリテーション】大分県大分市竹中2666", "url": "https://www.kaigokensaku.mhlw.go.jp/44/index.php?action_kouhyou_detail_004_kani=true&JigyosyoCd=4410123782-00&ServiceCd=140&Type=search", "url2": "http://www.kigankai.or.jp/" }, "geometry": { "type": "Point", "coordinates": [ 131.652273900000012, 33.1412354 ] } },
{ "type": "Feature", "properties": { "内容": "明和記念病院【訪問リハビリテーション】大分県大分市明野北１丁目２番１７号", "url": "https://www.kaigokensaku.mhlw.go.jp/44/index.php?action_kouhyou_detail_004_kani=true&JigyosyoCd=4410118832-00&ServiceCd=140&Type=search", "url2": "http://www.meiwa-hp.jp/" }, "geometry": { "type": "Point", "coordinates": [ 131.655466, 33.2261328 ] } },
{ "type": "Feature", "properties": { "内容": "医療法人社団　仁泉会　畑病院　訪問リハビリテーション【訪問リハビリテーション】大分県別府市中島町14番22号", "url": "https://www.kaigokensaku.mhlw.go.jp/44/index.php?action_kouhyou_detail_004_kani=true&JigyosyoCd=4410213708-00&ServiceCd=140&Type=search", "url2": "http://www.hata.or.jp/" }, "geometry": { "type": "Point", "coordinates": [ 131.4925878, 33.2752313 ] } },
{ "type": "Feature", "properties": { "内容": "村上脳神経内科クリニック訪問リハビリテーション【訪問リハビリテーション】山の手町14番30号", "url": "https://www.kaigokensaku.mhlw.go.jp/44/index.php?action_kouhyou_detail_004_kani=true&JigyosyoCd=4410213369-00&ServiceCd=140&Type=search", "url2": "http;//www.murakami-clinic.or.jp" }, "geometry": { "type": "Point", "coordinates": [ 131.4857704, 33.282629 ] } },
{ "type": "Feature", "properties": { "内容": "特定医療法人社団春日会　黒木記念病院【訪問リハビリテーション】大分県別府市照波園町14番28号", "url": "https://www.kaigokensaku.mhlw.go.jp/44/index.php?action_kouhyou_detail_004_kani=true&JigyosyoCd=4410212098-00&ServiceCd=140&Type=search", "url2": "www.kuroki-hp.or.jp" }, "geometry": { "type": "Point", "coordinates": [ 131.49750056991877, 33.319530511456605 ] } },
{ "type": "Feature", "properties": { "内容": "児玉病院【訪問リハビリテーション】大分県別府市亀川四の湯町5番19号", "url": "https://www.kaigokensaku.mhlw.go.jp/44/index.php?action_kouhyou_detail_004_kani=true&JigyosyoCd=4410214201-00&ServiceCd=140&Type=search", "url2": "https://soumeikai.or.jp/kodama/" }, "geometry": { "type": "Point", "coordinates": [ 131.493830300000013, 33.3213051 ] } },
{ "type": "Feature", "properties": { "内容": "訪問リハビリテーションうちだ【訪問リハビリテーション】大分県別府市末広町3番1号", "url": "https://www.kaigokensaku.mhlw.go.jp/44/index.php?action_kouhyou_detail_004_kani=true&JigyosyoCd=4410213526-00&ServiceCd=140&Type=search", "url2": "http://uchida-hp.jp" }, "geometry": { "type": "Point", "coordinates": [ 131.5028611, 33.2734237 ] } },
{ "type": "Feature", "properties": { "内容": "農協共済別府リハビリテーションセンター【訪問リハビリテーション】大分県別府市大字鶴見字中山田1026番地の10", "url": "https://www.kaigokensaku.mhlw.go.jp/44/index.php?action_kouhyou_detail_004_kani=true&JigyosyoCd=4410212403-00&ServiceCd=140&Type=search", "url2": "https://brc.or.jp/" }, "geometry": { "type": "Point", "coordinates": [ 131.446255900000011, 33.3060987 ] } },
{ "type": "Feature", "properties": { "内容": "医療法人中津第一病院【訪問リハビリテーション】大分県中津市大字宮夫252番地2", "url": "https://www.kaigokensaku.mhlw.go.jp/44/index.php?action_kouhyou_detail_004_kani=true&JigyosyoCd=4410312641-00&ServiceCd=140&Type=search", "url2": "http://www.nakatsu-daiichi.jp/" }, "geometry": { "type": "Point", "coordinates": [ 131.207937500000043, 33.5885075 ] } },
{ "type": "Feature", "properties": { "内容": "介護老人保健施設さつき苑【訪問リハビリテーション】三光土田1243-4", "url": "https://www.kaigokensaku.mhlw.go.jp/44/index.php?action_kouhyou_detail_004_kani=true&JigyosyoCd=4450380045-00&ServiceCd=140&Type=search", "url2": "https://seigakai1997.net" }, "geometry": { "type": "Point", "coordinates": [ 131.1753093, 33.5303786 ] } },
{ "type": "Feature", "properties": { "内容": "介護老人保健施設　さつき苑【訪問リハビリテーション】大分県中津市三光土田1243-4", "url": "https://www.kaigokensaku.mhlw.go.jp/44/index.php?action_kouhyou_detail_004_kani=true&JigyosyoCd=4470301260-00&ServiceCd=140&Type=search", "url2": "https://seigakai.net" }, "geometry": { "type": "Point", "coordinates": [ 131.1752988, 33.5304083 ] } },
{ "type": "Feature", "properties": { "内容": "まつざきクリニック【訪問リハビリテーション】大分県中津市三光臼木1218番地", "url": "https://www.kaigokensaku.mhlw.go.jp/44/index.php?action_kouhyou_detail_004_kani=true&JigyosyoCd=4410312450-00&ServiceCd=140&Type=search", "url2": "https://www.matsuzaki-clinic-hp.jp/" }, "geometry": { "type": "Point", "coordinates": [ 131.180273700000043, 33.5310974 ] } },
{ "type": "Feature", "properties": { "内容": "わたなべ整形外科クリニック【訪問リハビリテーション】大分県中津市大字加来字加来原2283番地201", "url": "https://www.kaigokensaku.mhlw.go.jp/44/index.php?action_kouhyou_detail_004_kani=true&JigyosyoCd=4410312872-00&ServiceCd=140&Type=search", "url2": "https://watanabe-seikei.org" }, "geometry": { "type": "Point", "coordinates": [ 131.20253182209018, 33.559766122845431 ] } },
{ "type": "Feature", "properties": { "内容": "川嶌整形外科病院【訪問リハビリテーション】大分県中津市大字宮夫17番地", "url": "https://www.kaigokensaku.mhlw.go.jp/44/index.php?action_kouhyou_detail_004_kani=true&JigyosyoCd=4410312682-00&ServiceCd=140&Type=search", "url2": "http://kawashimahp.jp/" }, "geometry": { "type": "Point", "coordinates": [ 131.212452151019988, 33.592265936819018 ] } },
{ "type": "Feature", "properties": { "内容": "医療法人秋水堂若宮病院【訪問リハビリテーション】大分県日田市南元町6-41", "url": "https://www.kaigokensaku.mhlw.go.jp/44/index.php?action_kouhyou_detail_004_kani=true&JigyosyoCd=4410411898-00&ServiceCd=140&Type=search", "url2": "http://www.shusuido.or.jp/" }, "geometry": { "type": "Point", "coordinates": [ 130.940844784794649, 33.311657786106331 ] } },
{ "type": "Feature", "properties": { "内容": "訪問リハビリテーションあきよし【訪問リハビリテーション】大分県日田市豆田町５番２０号", "url": "https://www.kaigokensaku.mhlw.go.jp/44/index.php?action_kouhyou_detail_004_kani=true&JigyosyoCd=4410411658-00&ServiceCd=140&Type=search", "url2": "akiyoshihp.jp/" }, "geometry": { "type": "Point", "coordinates": [ 130.937846600000057, 33.3285903 ] } },
{ "type": "Feature", "properties": { "内容": "日田リハビリテーション病院訪問リハビリテーションセンター【訪問リハビリテーション】大分県日田市大字西有田9訪問リハビリテーションセンター", "url": "https://www.kaigokensaku.mhlw.go.jp/44/index.php?action_kouhyou_detail_004_kani=true&JigyosyoCd=4410412177-00&ServiceCd=140&Type=search", "url2": "http://www.hitariha.jp/" }, "geometry": { "type": "Point", "coordinates": [ 130.941637899999932, 33.3344677 ] } },
{ "type": "Feature", "properties": { "内容": "桂林病院【訪問リハビリテーション】大分県日田市城町１丁目２番６１号", "url": "https://www.kaigokensaku.mhlw.go.jp/44/index.php?action_kouhyou_detail_004_kani=true&JigyosyoCd=4410411724-00&ServiceCd=140&Type=search", "url2": "https://www.keirin-hospital.jp/" }, "geometry": { "type": "Point", "coordinates": [ 130.941313541139152, 33.326729400000126 ] } },
{ "type": "Feature", "properties": { "内容": "五反田病院訪問リハビリテーション【訪問リハビリテーション】大分県日田市大字竹田395番地の1", "url": "https://www.kaigokensaku.mhlw.go.jp/44/index.php?action_kouhyou_detail_004_kani=true&JigyosyoCd=4410411450-00&ServiceCd=140&Type=search", "url2": "http://gotanda-hospital.jp/" }, "geometry": { "type": "Point", "coordinates": [ 130.942860809872457, 33.309365887169285 ] } },
{ "type": "Feature", "properties": { "内容": "老人保健施設六和会センテナリアン訪問リハビリテーション【訪問リハビリテーション】大分県日田市大山町東大山14-4", "url": "https://www.kaigokensaku.mhlw.go.jp/44/index.php?action_kouhyou_detail_004_kani=true&JigyosyoCd=4470401557-00&ServiceCd=140&Type=search", "url2": "https://cente-hita.com" }, "geometry": { "type": "Point", "coordinates": [ 130.957037799999966, 33.2925719 ] } },
{ "type": "Feature", "properties": { "内容": "介護老人保健施設　鶴見の太陽【訪問リハビリテーション】大分県佐伯市鶴見大字沖松浦51番地", "url": "https://www.kaigokensaku.mhlw.go.jp/44/index.php?action_kouhyou_detail_004_kani=true&JigyosyoCd=4450580040-00&ServiceCd=140&Type=search", "url2": "http://www.saikichuo.net/" }, "geometry": { "type": "Point", "coordinates": [ 131.962594599999989, 32.9416715 ] } },
{ "type": "Feature", "properties": { "内容": "曽根病院【訪問リハビリテーション】大分県佐伯市長島町2丁目18-24", "url": "https://www.kaigokensaku.mhlw.go.jp/44/index.php?action_kouhyou_detail_004_kani=true&JigyosyoCd=4410511549-00&ServiceCd=140&Type=search", "url2": "http://sone-hp.jp" }, "geometry": { "type": "Point", "coordinates": [ 131.908945600000038, 32.9594841 ] } },
{ "type": "Feature", "properties": { "内容": "南海医療センター附属介護老人保健施設　訪問リハビリテーションセンター【訪問リハビリテーション】大分県佐伯市常盤西町12番6号", "url": "https://www.kaigokensaku.mhlw.go.jp/44/index.php?action_kouhyou_detail_004_kani=true&JigyosyoCd=4450580016-00&ServiceCd=140&Type=search", "url2": "http://nankai.jcho.go.jp" }, "geometry": { "type": "Point", "coordinates": [ 131.90093509999997, 32.9659331 ] } },
{ "type": "Feature", "properties": { "内容": "うすきメディカルクリニック　訪問リハビリテーション【訪問リハビリテーション】大分県臼杵市大字臼杵字洲崎72番地32", "url": "https://www.kaigokensaku.mhlw.go.jp/44/index.php?action_kouhyou_detail_004_kani=true&JigyosyoCd=4410611349-00&ServiceCd=140&Type=search", "url2": "http://hiiragikai.or.jp/" }, "geometry": { "type": "Point", "coordinates": [ 131.805577399999947, 33.124057 ] } },
{ "type": "Feature", "properties": { "内容": "臼杵市医師会介護老人保健施設南山園【訪問リハビリテーション】大分県臼杵市大字海添250番地", "url": "https://www.kaigokensaku.mhlw.go.jp/44/index.php?action_kouhyou_detail_004_kani=true&JigyosyoCd=4450680030-00&ServiceCd=140&Type=search", "url2": "http://www.usukicosmos-med.or.jp/nanzanen/index.htwl" }, "geometry": { "type": "Point", "coordinates": [ 131.802264400000013, 33.1134745 ] } },
{ "type": "Feature", "properties": { "内容": "臼杵病院訪問リハビリテーション【訪問リハビリテーション】大分県臼杵市江無田1154番地1", "url": "https://www.kaigokensaku.mhlw.go.jp/44/index.php?action_kouhyou_detail_004_kani=true&JigyosyoCd=4410611448-00&ServiceCd=140&Type=search", "url2": "http://usuki-hospital.or.jp/" }, "geometry": { "type": "Point", "coordinates": [ 131.780135299999984, 33.1251661 ] } },
{ "type": "Feature", "properties": { "内容": "大石医院【訪問リハビリテーション】大分県津久見市上宮本町22番14号", "url": "https://www.kaigokensaku.mhlw.go.jp/44/index.php?action_kouhyou_detail_004_kani=true&JigyosyoCd=4410710745-00&ServiceCd=140&Type=search", "url2": null }, "geometry": { "type": "Point", "coordinates": [ 131.86003, 33.0714111 ] } },
{ "type": "Feature", "properties": { "内容": "津久見市医師会立津久見中央病院【訪問リハビリテーション】大分県津久見市大字千怒6011番地津久見中央病院", "url": "https://www.kaigokensaku.mhlw.go.jp/44/index.php?action_kouhyou_detail_004_kani=true&JigyosyoCd=4410710620-00&ServiceCd=140&Type=search", "url2": "http://tsukumi.oita.med.or.jp/" }, "geometry": { "type": "Point", "coordinates": [ 131.8877192, 33.072117400000018 ] } },
{ "type": "Feature", "properties": { "内容": "岡の苑訪問リハビリテーション【訪問リハビリテーション】大分県竹田市大字竹田1855", "url": "https://www.kaigokensaku.mhlw.go.jp/44/index.php?action_kouhyou_detail_004_kani=true&JigyosyoCd=4470800352-00&ServiceCd=140&Type=search", "url2": "http://www.yuujinkai.com/" }, "geometry": { "type": "Point", "coordinates": [ 131.3925476, 32.9705206 ] } },
{ "type": "Feature", "properties": { "内容": "介護老人保健施設　サングレイス香々地　訪問リハビリテーション【訪問リハビリテーション】大分県豊後高田市見目3915-1", "url": "https://www.kaigokensaku.mhlw.go.jp/44/index.php?action_kouhyou_detail_004_kani=true&JigyosyoCd=4470900400-00&ServiceCd=140&Type=search", "url2": "http://www.takachuo.com/" }, "geometry": { "type": "Point", "coordinates": [ 131.528911900000026, 33.6721511 ] } },
{ "type": "Feature", "properties": { "内容": "玄々堂高田病院　訪問リハビリテーション【訪問リハビリテーション】大分県豊後高田市界378番地2", "url": "https://www.kaigokensaku.mhlw.go.jp/44/index.php?action_kouhyou_detail_004_kani=true&JigyosyoCd=4410910592-00&ServiceCd=140&Type=search", "url2": "ag-holdings.jp/gengendo/takada/" }, "geometry": { "type": "Point", "coordinates": [ 131.427661299999954, 33.5481216 ] } },
{ "type": "Feature", "properties": { "内容": "杵築中央病院訪問リハビリテーション【訪問リハビリテーション】大分県杵築市大字杵築120番地", "url": "https://www.kaigokensaku.mhlw.go.jp/44/index.php?action_kouhyou_detail_004_kani=true&JigyosyoCd=4471000622-00&ServiceCd=140&Type=search", "url2": null }, "geometry": { "type": "Point", "coordinates": [ 131.6234551, 33.4156875 ] } },
{ "type": "Feature", "properties": { "内容": "菅原内科杵築【訪問リハビリテーション】大分県杵築市大字南杵築字大手内1947番地3", "url": "https://www.kaigokensaku.mhlw.go.jp/44/index.php?action_kouhyou_detail_004_kani=true&JigyosyoCd=4411010483-00&ServiceCd=140&Type=search", "url2": null }, "geometry": { "type": "Point", "coordinates": [ 131.61188089999996, 33.4167454 ] } },
{ "type": "Feature", "properties": { "内容": "介護老人保健施設しおはま　訪問リハビリテーション【訪問リハビリテーション】大分県杵築市大字大内字塩浜7703番地4", "url": "https://www.kaigokensaku.mhlw.go.jp/44/index.php?action_kouhyou_detail_004_kani=true&JigyosyoCd=4451080016-00&ServiceCd=140&Type=search", "url2": "https://www.kch-rouken-shiohama.com/" }, "geometry": { "type": "Point", "coordinates": [ 131.6325974, 33.4239432 ] } },
{ "type": "Feature", "properties": { "内容": "杵築市立山香病院訪問リハビリテーション【訪問リハビリテーション】大分県杵築市山香町大字野原１６１２番地の１", "url": "https://www.kaigokensaku.mhlw.go.jp/44/index.php?action_kouhyou_detail_004_kani=true&JigyosyoCd=4471000689-00&ServiceCd=140&Type=search", "url2": "http://www.yamaga-hp.jp" }, "geometry": { "type": "Point", "coordinates": [ 131.508643399999983, 33.445336 ] } },
{ "type": "Feature", "properties": { "内容": "小野内科病院　訪問リハビリテーション【訪問リハビリテーション】大分県宇佐市大字南敷田７０５番地の１小野内科病院", "url": "https://www.kaigokensaku.mhlw.go.jp/44/index.php?action_kouhyou_detail_004_kani=true&JigyosyoCd=4411110887-00&ServiceCd=140&Type=search", "url2": null }, "geometry": { "type": "Point", "coordinates": [ 131.278769799999964, 33.5493567 ] } },
{ "type": "Feature", "properties": { "内容": "和田病院訪問リハビリテーション【訪問リハビリテーション】大分県宇佐市大字出光165-1和田病院", "url": "https://www.kaigokensaku.mhlw.go.jp/44/index.php?action_kouhyou_detail_004_kani=true&JigyosyoCd=4411110978-00&ServiceCd=140&Type=search", "url2": "https://wadahp.com/" }, "geometry": { "type": "Point", "coordinates": [ 131.4118776, 33.5295557 ] } },
{ "type": "Feature", "properties": { "内容": "宗像医院　訪問リハビリテーション【訪問リハビリテーション】大分県宇佐市大字下時枝549", "url": "https://www.kaigokensaku.mhlw.go.jp/44/index.php?action_kouhyou_detail_004_kani=true&JigyosyoCd=4411111471-00&ServiceCd=140&Type=search", "url2": "http://www.mezura.jp/" }, "geometry": { "type": "Point", "coordinates": [ 131.306028, 33.5557429 ] } },
{ "type": "Feature", "properties": { "内容": "天心堂おおの診療所【訪問リハビリテーション】大分県豊後大野市大野町田中２番９", "url": "https://www.kaigokensaku.mhlw.go.jp/44/index.php?action_kouhyou_detail_004_kani=true&JigyosyoCd=4411210364-00&ServiceCd=140&Type=search", "url2": "http://tenshindo.org" }, "geometry": { "type": "Point", "coordinates": [ 131.501963700000033, 33.0364029 ] } },
{ "type": "Feature", "properties": { "内容": "介護老人保健施設おおの郷【訪問リハビリテーション】大分県豊後大野市大野町田中2番9", "url": "https://www.kaigokensaku.mhlw.go.jp/44/index.php?action_kouhyou_detail_004_kani=true&JigyosyoCd=4471200289-00&ServiceCd=140&Type=search", "url2": "https://www.tenshindo.org" }, "geometry": { "type": "Point", "coordinates": [ 131.501976899999988, 33.0363957 ] } },
{ "type": "Feature", "properties": { "内容": "帰巖会みえ病院訪問リハビリテーション【訪問リハビリテーション】大分県豊後大野市三重町赤嶺1250-1", "url": "https://www.kaigokensaku.mhlw.go.jp/44/index.php?action_kouhyou_detail_004_kani=true&JigyosyoCd=4411210505-00&ServiceCd=140&Type=search", "url2": "http://www.kigankai.or.jp/" }, "geometry": { "type": "Point", "coordinates": [ 131.600528899999972, 32.9877411 ] } },
{ "type": "Feature", "properties": { "内容": "医療法人　至誠会　介護老人保健施設　健寿荘【訪問リハビリテーション】大分県由布市挾間町鬼崎4番地1", "url": "https://www.kaigokensaku.mhlw.go.jp/44/index.php?action_kouhyou_detail_004_kani=true&JigyosyoCd=4471300071-00&ServiceCd=140&Type=search", "url2": "http://www.hoaki.jp/" }, "geometry": { "type": "Point", "coordinates": [ 131.527248800000052, 33.1950696 ] } },
{ "type": "Feature", "properties": { "内容": "ふくだクリニック　訪問リハビリテーション【訪問リハビリテーション】大分県国東市国東町田深1660番地", "url": "https://www.kaigokensaku.mhlw.go.jp/44/index.php?action_kouhyou_detail_004_kani=true&JigyosyoCd=4471400103-00&ServiceCd=140&Type=search", "url2": null }, "geometry": { "type": "Point", "coordinates": [ 131.733090131877134, 33.567662760039937 ] } },
{ "type": "Feature", "properties": { "内容": "訪問リハビリテーション　はるかぜ【訪問リハビリテーション】大分県国東市国見町大熊毛字花開182番地", "url": "https://www.kaigokensaku.mhlw.go.jp/44/index.php?action_kouhyou_detail_004_kani=true&JigyosyoCd=4411410212-00&ServiceCd=140&Type=search", "url2": "harukaze-med.jp" }, "geometry": { "type": "Point", "coordinates": [ 131.650324, 33.657279 ] } },
{ "type": "Feature", "properties": { "内容": "医療法人二豊会　国見病院　訪問リハビリテーション【訪問リハビリテーション】大分県国東市国見町伊美1968番地", "url": "https://www.kaigokensaku.mhlw.go.jp/44/index.php?action_kouhyou_detail_004_kani=true&JigyosyoCd=4411410022-00&ServiceCd=140&Type=search", "url2": "https://nihoukai.com/kunimi|_hospital" }, "geometry": { "type": "Point", "coordinates": [ 131.5953132, 33.6856459 ] } },
{ "type": "Feature", "properties": { "内容": "むさし整形外科医院【訪問リハビリテーション】大分県国東市武蔵町古市148", "url": "https://www.kaigokensaku.mhlw.go.jp/44/index.php?action_kouhyou_detail_004_kani=true&JigyosyoCd=4411410097-00&ServiceCd=140&Type=search", "url2": "634seikei@jcom.zaq.ne.jp" }, "geometry": { "type": "Point", "coordinates": [ 131.726678, 33.5021094 ] } },
{ "type": "Feature", "properties": { "内容": "姫島村国民健康保険診療所【訪問リハビリテーション】大分県東国東郡姫島村1560番地の1", "url": "https://www.kaigokensaku.mhlw.go.jp/44/index.php?action_kouhyou_detail_004_kani=true&JigyosyoCd=4412110852-00&ServiceCd=140&Type=search", "url2": null }, "geometry": { "type": "Point", "coordinates": [ 131.645139, 33.7245374 ] } },
{ "type": "Feature", "properties": { "内容": "サンライズ酒井病院【訪問リハビリテーション】大分県速見郡日出町3156番地1", "url": "https://www.kaigokensaku.mhlw.go.jp/44/index.php?action_kouhyou_detail_004_kani=true&JigyosyoCd=4412210751-00&ServiceCd=140&Type=search", "url2": "http://www.heiseikai.com" }, "geometry": { "type": "Point", "coordinates": [ 131.529002200000036, 33.3703456 ] } },
{ "type": "Feature", "properties": { "内容": "介護老人保健施設ケアポート渓和【訪問リハビリテーション】大分県玖珠郡九重町大字町田5481-3", "url": "https://www.kaigokensaku.mhlw.go.jp/44/index.php?action_kouhyou_detail_004_kani=true&JigyosyoCd=4472800707-00&ServiceCd=140&Type=search", "url2": "http://www.careport-keiwa.jp" }, "geometry": { "type": "Point", "coordinates": [ 131.18357519999995, 33.2306876 ] } },
{ "type": "Feature", "properties": { "内容": "高田病院訪問リハビリテーション【訪問リハビリテーション】大分県玖珠郡玖珠町大字帆足259", "url": "https://www.kaigokensaku.mhlw.go.jp/44/index.php?action_kouhyou_detail_004_kani=true&JigyosyoCd=4412810634-00&ServiceCd=140&Type=search", "url2": "http://takadahp.or.jp/" }, "geometry": { "type": "Point", "coordinates": [ 131.153113599999983, 33.2823239 ] } },
{ "type": "Feature", "properties": { "内容": "訪問リハビリテーション　ウォーク【訪問リハビリテーション】大分県玖珠郡玖珠町大字塚脇１１３番地１３", "url": "https://www.kaigokensaku.mhlw.go.jp/44/index.php?action_kouhyou_detail_004_kani=true&JigyosyoCd=4472800558-00&ServiceCd=140&Type=search", "url2": "http://website2.infomity.net/8310120/" }, "geometry": { "type": "Point", "coordinates": [ 131.1497223, 33.2789463 ] } }
]
}
