{
"type": "FeatureCollection",
"name": "geo_44_4",
"crs": { "type": "name", "properties": { "name": "urn:ogc:def:crs:OGC:1.3:CRS84" } },
"features": [
{ "type": "Feature", "properties": { "ID": 4441172100000, "正式名称": "生野　助産所", "機関区分": 4, "都道府県コード": 44, "市区町村コード": 201, "所在地": "大分県大分市豊饒三丁目１１番５３号", "緯度": 33.207885, "経度": 131.595783, "url": "https://www.iryou.teikyouseido.mhlw.go.jp/znk-web/juminkanja/S2430/initialize?prefCd=44&kikanCd=1172100000&kikanKbn=4", "url2": null, "内容": "生野　助産所【4:助産院】大分県大分市豊饒三丁目１１番５３号" }, "geometry": { "type": "Point", "coordinates": [ 131.595783, 33.207885 ] } },
{ "type": "Feature", "properties": { "ID": 4441172500000, "正式名称": "（出張専門）サエラ助産院", "機関区分": 4, "都道府県コード": 44, "市区町村コード": 201, "所在地": "大分県大分市けやき台１丁目１８ー５", "緯度": 33.155661, "経度": 131.672335, "url": "https://www.iryou.teikyouseido.mhlw.go.jp/znk-web/juminkanja/S2430/initialize?prefCd=44&kikanCd=1172500000&kikanKbn=4", "url2": "http://www.midwifemap.com/saera/mysite/", "内容": "（出張専門）サエラ助産院【4:助産院】大分県大分市けやき台１丁目１８ー５" }, "geometry": { "type": "Point", "coordinates": [ 131.672335, 33.155661 ] } },
{ "type": "Feature", "properties": { "ID": 4441172600000, "正式名称": "さつき助産院", "機関区分": 4, "都道府県コード": 44, "市区町村コード": 201, "所在地": "大分県大分市西鶴崎二丁目１番２８号　コーポサンタ３０３", "緯度": 33.242905, "経度": 131.680841, "url": "https://www.iryou.teikyouseido.mhlw.go.jp/znk-web/juminkanja/S2430/initialize?prefCd=44&kikanCd=1172600000&kikanKbn=4", "url2": null, "内容": "さつき助産院【4:助産院】大分県大分市西鶴崎二丁目１番２８号　コーポサンタ３０３" }, "geometry": { "type": "Point", "coordinates": [ 131.680841, 33.242905 ] } },
{ "type": "Feature", "properties": { "ID": 4441172700000, "正式名称": "佐用助産所", "機関区分": 4, "都道府県コード": 44, "市区町村コード": 201, "所在地": "大分県大分市上戸次６８６番地", "緯度": 33.096144, "経度": 131.665649, "url": "https://www.iryou.teikyouseido.mhlw.go.jp/znk-web/juminkanja/S2430/initialize?prefCd=44&kikanCd=1172700000&kikanKbn=4", "url2": null, "内容": "佐用助産所【4:助産院】大分県大分市上戸次６８６番地" }, "geometry": { "type": "Point", "coordinates": [ 131.665649, 33.096144 ] } },
{ "type": "Feature", "properties": { "ID": 4441172900000, "正式名称": "敷嶋助産所", "機関区分": 4, "都道府県コード": 44, "市区町村コード": 201, "所在地": "大分県大分市羽田", "緯度": 33.21797, "経度": 131.63629, "url": "https://www.iryou.teikyouseido.mhlw.go.jp/znk-web/juminkanja/S2430/initialize?prefCd=44&kikanCd=1172900000&kikanKbn=4", "url2": null, "内容": "敷嶋助産所【4:助産院】大分県大分市羽田" }, "geometry": { "type": "Point", "coordinates": [ 131.63629, 33.21797 ] } },
{ "type": "Feature", "properties": { "ID": 4441173300000, "正式名称": "室助産所", "機関区分": 4, "都道府県コード": 44, "市区町村コード": 201, "所在地": "大分県大分市季の坂", "緯度": 33.226723, "経度": 131.58646, "url": "https://www.iryou.teikyouseido.mhlw.go.jp/znk-web/juminkanja/S2430/initialize?prefCd=44&kikanCd=1173300000&kikanKbn=4", "url2": null, "内容": "室助産所【4:助産院】大分県大分市季の坂" }, "geometry": { "type": "Point", "coordinates": [ 131.58646, 33.226723 ] } },
{ "type": "Feature", "properties": { "ID": 4441173500000, "正式名称": "渡部助産所", "機関区分": 4, "都道府県コード": 44, "市区町村コード": 201, "所在地": "大分県大分市緑が丘４丁目９－９", "緯度": 33.184297, "経度": 131.526822, "url": "https://www.iryou.teikyouseido.mhlw.go.jp/znk-web/juminkanja/S2430/initialize?prefCd=44&kikanCd=1173500000&kikanKbn=4", "url2": null, "内容": "渡部助産所【4:助産院】大分県大分市緑が丘４丁目９－９" }, "geometry": { "type": "Point", "coordinates": [ 131.526822, 33.184297 ] } },
{ "type": "Feature", "properties": { "ID": 4441173600000, "正式名称": "黒本助産所", "機関区分": 4, "都道府県コード": 44, "市区町村コード": 202, "所在地": "大分県別府市鶴見", "緯度": 33.300846, "経度": 131.47661, "url": "https://www.iryou.teikyouseido.mhlw.go.jp/znk-web/juminkanja/S2430/initialize?prefCd=44&kikanCd=1173600000&kikanKbn=4", "url2": null, "内容": "黒本助産所【4:助産院】大分県別府市鶴見" }, "geometry": { "type": "Point", "coordinates": [ 131.47661, 33.300846 ] } },
{ "type": "Feature", "properties": { "ID": 4441173900000, "正式名称": "安達助産院", "機関区分": 4, "都道府県コード": 44, "市区町村コード": 204, "所在地": "大分県日田市新治町５４９－５", "緯度": 33.323513, "経度": 130.921651, "url": "https://www.iryou.teikyouseido.mhlw.go.jp/znk-web/juminkanja/S2430/initialize?prefCd=44&kikanCd=1173900000&kikanKbn=4", "url2": null, "内容": "安達助産院【4:助産院】大分県日田市新治町５４９－５" }, "geometry": { "type": "Point", "coordinates": [ 130.921651, 33.323513 ] } },
{ "type": "Feature", "properties": { "ID": 4441174300000, "正式名称": "かっちゃん助産所", "機関区分": 4, "都道府県コード": 44, "市区町村コード": 205, "所在地": "大分県佐伯市大字護江６２９－２", "緯度": 33.011703, "経度": 131.901917, "url": "https://www.iryou.teikyouseido.mhlw.go.jp/znk-web/juminkanja/S2430/initialize?prefCd=44&kikanCd=1174300000&kikanKbn=4", "url2": null, "内容": "かっちゃん助産所【4:助産院】大分県佐伯市大字護江６２９－２" }, "geometry": { "type": "Point", "coordinates": [ 131.901917, 33.011703 ] } },
{ "type": "Feature", "properties": { "ID": 4441174700000, "正式名称": "吉田助産所", "機関区分": 4, "都道府県コード": 44, "市区町村コード": 206, "所在地": "大分県臼杵市海添", "緯度": 33.114029, "経度": 131.801961, "url": "https://www.iryou.teikyouseido.mhlw.go.jp/znk-web/juminkanja/S2430/initialize?prefCd=44&kikanCd=1174700000&kikanKbn=4", "url2": null, "内容": "吉田助産所【4:助産院】大分県臼杵市海添" }, "geometry": { "type": "Point", "coordinates": [ 131.801961, 33.114029 ] } },
{ "type": "Feature", "properties": { "ID": 4441175000000, "正式名称": "助産所　母の家", "機関区分": 4, "都道府県コード": 44, "市区町村コード": 211, "所在地": "大分県宇佐市上拝田４７５", "緯度": 33.499244, "経度": 131.323751, "url": "https://www.iryou.teikyouseido.mhlw.go.jp/znk-web/juminkanja/S2430/initialize?prefCd=44&kikanCd=1175000000&kikanKbn=4", "url2": "https://www.hahano-ie.com/", "内容": "助産所　母の家【4:助産院】大分県宇佐市上拝田４７５" }, "geometry": { "type": "Point", "coordinates": [ 131.323751, 33.499244 ] } },
{ "type": "Feature", "properties": { "ID": 4441175800000, "正式名称": "ひまわり助産所", "機関区分": 4, "都道府県コード": 44, "市区町村コード": 341, "所在地": "大分県速見郡日出町", "緯度": 33.368958, "経度": 131.532, "url": "https://www.iryou.teikyouseido.mhlw.go.jp/znk-web/juminkanja/S2430/initialize?prefCd=44&kikanCd=1175800000&kikanKbn=4", "url2": null, "内容": "ひまわり助産所【4:助産院】大分県速見郡日出町" }, "geometry": { "type": "Point", "coordinates": [ 131.532, 33.368958 ] } },
{ "type": "Feature", "properties": { "ID": 4442011700000, "正式名称": "詫摩助産院", "機関区分": 4, "都道府県コード": 44, "市区町村コード": 201, "所在地": "大分県大分市志生木", "緯度": 33.249207, "経度": 131.84265, "url": "https://www.iryou.teikyouseido.mhlw.go.jp/znk-web/juminkanja/S2430/initialize?prefCd=44&kikanCd=2011700000&kikanKbn=4", "url2": null, "内容": "詫摩助産院【4:助産院】大分県大分市志生木" }, "geometry": { "type": "Point", "coordinates": [ 131.84265, 33.249207 ] } },
{ "type": "Feature", "properties": { "ID": 4442017000000, "正式名称": "おおいた母乳育児相談室", "機関区分": 4, "都道府県コード": 44, "市区町村コード": 201, "所在地": "大分県大分市羽屋３丁目２番１８号", "緯度": 33.23813, "経度": 131.603301, "url": "https://www.iryou.teikyouseido.mhlw.go.jp/znk-web/juminkanja/S2430/initialize?prefCd=44&kikanCd=2017000000&kikanKbn=4", "url2": "https://www.oita-midowife.com", "内容": "おおいた母乳育児相談室【4:助産院】大分県大分市羽屋３丁目２番１８号" }, "geometry": { "type": "Point", "coordinates": [ 131.603301, 33.23813 ] } },
{ "type": "Feature", "properties": { "ID": 4442018000000, "正式名称": "すくすく増田助産所", "機関区分": 4, "都道府県コード": 44, "市区町村コード": 203, "所在地": "大分県中津市今津３５６－３", "緯度": 33.541853, "経度": 131.281128, "url": "https://www.iryou.teikyouseido.mhlw.go.jp/znk-web/juminkanja/S2430/initialize?prefCd=44&kikanCd=2018000000&kikanKbn=4", "url2": "https://sukumasu.jp/", "内容": "すくすく増田助産所【4:助産院】大分県中津市今津３５６－３" }, "geometry": { "type": "Point", "coordinates": [ 131.281128, 33.541853 ] } },
{ "type": "Feature", "properties": { "ID": 4442018400000, "正式名称": "あそしま・愛　ママサポートルーム", "機関区分": 4, "都道府県コード": 44, "市区町村コード": 211, "所在地": "大分県宇佐市院内町田所７００－１", "緯度": 33.369939, "経度": 131.248518, "url": "https://www.iryou.teikyouseido.mhlw.go.jp/znk-web/juminkanja/S2430/initialize?prefCd=44&kikanCd=2018400000&kikanKbn=4", "url2": "http://asoshimaai.sakura.ne.jp/index.html", "内容": "あそしま・愛　ママサポートルーム【4:助産院】大分県宇佐市院内町田所７００－１" }, "geometry": { "type": "Point", "coordinates": [ 131.248518, 33.369939 ] } },
{ "type": "Feature", "properties": { "ID": 4442018800000, "正式名称": "片岡助産所", "機関区分": 4, "都道府県コード": 44, "市区町村コード": 201, "所在地": "大分県大分市木上台", "緯度": 33.189797, "経度": 131.565682, "url": "https://www.iryou.teikyouseido.mhlw.go.jp/znk-web/juminkanja/S2430/initialize?prefCd=44&kikanCd=2018800000&kikanKbn=4", "url2": null, "内容": "片岡助産所【4:助産院】大分県大分市木上台" }, "geometry": { "type": "Point", "coordinates": [ 131.565682, 33.189797 ] } },
{ "type": "Feature", "properties": { "ID": 4442020500000, "正式名称": "石田助産院", "機関区分": 4, "都道府県コード": 44, "市区町村コード": 201, "所在地": "大分県大分市森町５７４－１", "緯度": 33.224428, "経度": 131.679989, "url": "https://www.iryou.teikyouseido.mhlw.go.jp/znk-web/juminkanja/S2430/initialize?prefCd=44&kikanCd=2020500000&kikanKbn=4", "url2": null, "内容": "石田助産院【4:助産院】大分県大分市森町５７４－１" }, "geometry": { "type": "Point", "coordinates": [ 131.679989, 33.224428 ] } },
{ "type": "Feature", "properties": { "ID": 4442022000000, "正式名称": "堂本助産所", "機関区分": 4, "都道府県コード": 44, "市区町村コード": 203, "所在地": "大分県中津市宮夫", "緯度": 33.592254, "経度": 131.21107, "url": "https://www.iryou.teikyouseido.mhlw.go.jp/znk-web/juminkanja/S2430/initialize?prefCd=44&kikanCd=2022000000&kikanKbn=4", "url2": null, "内容": "堂本助産所【4:助産院】大分県中津市宮夫" }, "geometry": { "type": "Point", "coordinates": [ 131.21107, 33.592254 ] } },
{ "type": "Feature", "properties": { "ID": 4442027200000, "正式名称": "齋藤助産院", "機関区分": 4, "都道府県コード": 44, "市区町村コード": 201, "所在地": "大分県大分市佐野４０５８番地", "緯度": 33.22005, "経度": 131.723329, "url": "https://www.iryou.teikyouseido.mhlw.go.jp/znk-web/juminkanja/S2430/initialize?prefCd=44&kikanCd=2027200000&kikanKbn=4", "url2": "http://esaitou.jimdo.com/?logout=1", "内容": "齋藤助産院【4:助産院】大分県大分市佐野４０５８番地" }, "geometry": { "type": "Point", "coordinates": [ 131.723329, 33.22005 ] } },
{ "type": "Feature", "properties": { "ID": 4442027800000, "正式名称": "１２３助産院", "機関区分": 4, "都道府県コード": 44, "市区町村コード": 202, "所在地": "大分県別府市光町１－２４", "緯度": 33.272613, "経度": 131.499446, "url": "https://www.iryou.teikyouseido.mhlw.go.jp/znk-web/juminkanja/S2430/initialize?prefCd=44&kikanCd=2027800000&kikanKbn=4", "url2": "http://123-jyosanin.sakura.ne.jp", "内容": "１２３助産院【4:助産院】大分県別府市光町１－２４" }, "geometry": { "type": "Point", "coordinates": [ 131.499446, 33.272613 ] } },
{ "type": "Feature", "properties": { "ID": 4442031600000, "正式名称": "やの助産院", "機関区分": 4, "都道府県コード": 44, "市区町村コード": 202, "所在地": "大分県別府市幸町４－１２", "緯度": 33.285351, "経度": 131.497899, "url": "https://www.iryou.teikyouseido.mhlw.go.jp/znk-web/juminkanja/S2430/initialize?prefCd=44&kikanCd=2031600000&kikanKbn=4", "url2": "https://resthouse-yano.net/", "内容": "やの助産院【4:助産院】大分県別府市幸町４－１２" }, "geometry": { "type": "Point", "coordinates": [ 131.497899, 33.285351 ] } },
{ "type": "Feature", "properties": { "ID": 4442031800000, "正式名称": "ともえ助産院", "機関区分": 4, "都道府県コード": 44, "市区町村コード": 201, "所在地": "大分県大分市坂ノ市西１丁目７番３９号", "緯度": 33.230287, "経度": 131.747019, "url": "https://www.iryou.teikyouseido.mhlw.go.jp/znk-web/juminkanja/S2430/initialize?prefCd=44&kikanCd=2031800000&kikanKbn=4", "url2": "https://tomoemidwife.jimdofree.com/", "内容": "ともえ助産院【4:助産院】大分県大分市坂ノ市西１丁目７番３９号" }, "geometry": { "type": "Point", "coordinates": [ 131.747019, 33.230287 ] } },
{ "type": "Feature", "properties": { "ID": 4442032300000, "正式名称": "どーなつ助産院", "機関区分": 4, "都道府県コード": 44, "市区町村コード": 201, "所在地": "大分県大分市宮崎", "緯度": 33.198994, "経度": 131.60805, "url": "https://www.iryou.teikyouseido.mhlw.go.jp/znk-web/juminkanja/S2430/initialize?prefCd=44&kikanCd=2032300000&kikanKbn=4", "url2": null, "内容": "どーなつ助産院【4:助産院】大分県大分市宮崎" }, "geometry": { "type": "Point", "coordinates": [ 131.60805, 33.198994 ] } },
{ "type": "Feature", "properties": { "ID": 4442036000000, "正式名称": "松木助産院", "機関区分": 4, "都道府県コード": 44, "市区町村コード": 207, "所在地": "大分県津久見市セメント町６－２４", "緯度": 33.077722, "経度": 131.855664, "url": "https://www.iryou.teikyouseido.mhlw.go.jp/znk-web/juminkanja/S2430/initialize?prefCd=44&kikanCd=2036000000&kikanKbn=4", "url2": null, "内容": "松木助産院【4:助産院】大分県津久見市セメント町６－２４" }, "geometry": { "type": "Point", "coordinates": [ 131.855664, 33.077722 ] } },
{ "type": "Feature", "properties": { "ID": 4442036700000, "正式名称": "ｍｏｍ＆ｂａｂｙｓａｌｏｎ　ｅｎ", "機関区分": 4, "都道府県コード": 44, "市区町村コード": 201, "所在地": "大分県大分市上田町", "緯度": 33.216302, "経度": 131.602521, "url": "https://www.iryou.teikyouseido.mhlw.go.jp/znk-web/juminkanja/S2430/initialize?prefCd=44&kikanCd=2036700000&kikanKbn=4", "url2": "https://momandbabysalon-en.amebaownd.com", "内容": "ｍｏｍ＆ｂａｂｙｓａｌｏｎ　ｅｎ【4:助産院】大分県大分市上田町" }, "geometry": { "type": "Point", "coordinates": [ 131.602521, 33.216302 ] } },
{ "type": "Feature", "properties": { "ID": 4442040700000, "正式名称": "愛子助産院", "機関区分": 4, "都道府県コード": 44, "市区町村コード": 201, "所在地": "大分県大分市大石町", "緯度": 33.23902, "経度": 131.60724, "url": "https://www.iryou.teikyouseido.mhlw.go.jp/znk-web/juminkanja/S2430/initialize?prefCd=44&kikanCd=2040700000&kikanKbn=4", "url2": null, "内容": "愛子助産院【4:助産院】大分県大分市大石町" }, "geometry": { "type": "Point", "coordinates": [ 131.60724, 33.23902 ] } },
{ "type": "Feature", "properties": { "ID": 4442042100000, "正式名称": "たけいし助産院", "機関区分": 4, "都道府県コード": 44, "市区町村コード": 201, "所在地": "大分県大分市汐見２丁目２５番１７号プリンセスフィールズ２０１", "緯度": 33.243111, "経度": 131.736459, "url": "https://www.iryou.teikyouseido.mhlw.go.jp/znk-web/juminkanja/S2430/initialize?prefCd=44&kikanCd=2042100000&kikanKbn=4", "url2": null, "内容": "たけいし助産院【4:助産院】大分県大分市汐見２丁目２５番１７号プリンセスフィールズ２０１" }, "geometry": { "type": "Point", "coordinates": [ 131.736459, 33.243111 ] } },
{ "type": "Feature", "properties": { "ID": 4442042700000, "正式名称": "となりのおばちゃん　田原助産所", "機関区分": 4, "都道府県コード": 44, "市区町村コード": 203, "所在地": "大分県中津市下宮永１－５２－２９", "緯度": 33.595453, "経度": 131.185211, "url": "https://www.iryou.teikyouseido.mhlw.go.jp/znk-web/juminkanja/S2430/initialize?prefCd=44&kikanCd=2042700000&kikanKbn=4", "url2": null, "内容": "となりのおばちゃん　田原助産所【4:助産院】大分県中津市下宮永１－５２－２９" }, "geometry": { "type": "Point", "coordinates": [ 131.185211, 33.595453 ] } },
{ "type": "Feature", "properties": { "ID": 4442044800000, "正式名称": "ななせ助産院", "機関区分": 4, "都道府県コード": 44, "市区町村コード": 201, "所在地": "大分県大分市賀来西", "緯度": 33.21334, "経度": 131.554258, "url": "https://www.iryou.teikyouseido.mhlw.go.jp/znk-web/juminkanja/S2430/initialize?prefCd=44&kikanCd=2044800000&kikanKbn=4", "url2": null, "内容": "ななせ助産院【4:助産院】大分県大分市賀来西" }, "geometry": { "type": "Point", "coordinates": [ 131.554258, 33.21334 ] } },
{ "type": "Feature", "properties": { "ID": 4442054700000, "正式名称": "産前産後ケア　ＮｅＲｉＮｅ", "機関区分": 4, "都道府県コード": 44, "市区町村コード": 201, "所在地": "大分県大分市明野北３丁目１１－１２", "緯度": 33.233069, "経度": 131.657433, "url": "https://www.iryou.teikyouseido.mhlw.go.jp/znk-web/juminkanja/S2430/initialize?prefCd=44&kikanCd=2054700000&kikanKbn=4", "url2": "https://sanzensango.hp.peraichi.com/titi", "内容": "産前産後ケア　ＮｅＲｉＮｅ【4:助産院】大分県大分市明野北３丁目１１－１２" }, "geometry": { "type": "Point", "coordinates": [ 131.657433, 33.233069 ] } },
{ "type": "Feature", "properties": { "ID": 4442057900000, "正式名称": "なないろの虹助産院", "機関区分": 4, "都道府県コード": 44, "市区町村コード": 201, "所在地": "大分県大分市舞鶴町", "緯度": 33.23905, "経度": 131.61894, "url": "https://www.iryou.teikyouseido.mhlw.go.jp/znk-web/juminkanja/S2430/initialize?prefCd=44&kikanCd=2057900000&kikanKbn=4", "url2": "https://nanairo-niji-mw.com", "内容": "なないろの虹助産院【4:助産院】大分県大分市舞鶴町" }, "geometry": { "type": "Point", "coordinates": [ 131.61894, 33.23905 ] } },
{ "type": "Feature", "properties": { "ID": 4442058100000, "正式名称": "池永助産所", "機関区分": 4, "都道府県コード": 44, "市区町村コード": 201, "所在地": "大分県大分市三佐", "緯度": 33.254387, "経度": 131.68336, "url": "https://www.iryou.teikyouseido.mhlw.go.jp/znk-web/juminkanja/S2430/initialize?prefCd=44&kikanCd=2058100000&kikanKbn=4", "url2": null, "内容": "池永助産所【4:助産院】大分県大分市三佐" }, "geometry": { "type": "Point", "coordinates": [ 131.68336, 33.254387 ] } },
{ "type": "Feature", "properties": { "ID": 4442062600000, "正式名称": "咲顔助産所", "機関区分": 4, "都道府県コード": 44, "市区町村コード": 201, "所在地": "大分県大分市富士見が丘東１－１２－１５", "緯度": 33.182487, "経度": 131.555458, "url": "https://www.iryou.teikyouseido.mhlw.go.jp/znk-web/juminkanja/S2430/initialize?prefCd=44&kikanCd=2062600000&kikanKbn=4", "url2": null, "内容": "咲顔助産所【4:助産院】大分県大分市富士見が丘東１－１２－１５" }, "geometry": { "type": "Point", "coordinates": [ 131.555458, 33.182487 ] } }
]
}
