{
"type": "FeatureCollection",
"name": "geo_44_訪問入浴介護",
"crs": { "type": "name", "properties": { "name": "urn:ogc:def:crs:OGC:1.3:CRS84" } },
"features": [
{ "type": "Feature", "properties": { "内容": "アースサポート大分【訪問入浴介護】大分県大分市高城南町11番5号ダイコウハウスⅡ205号", "url": "https://www.kaigokensaku.mhlw.go.jp/44/index.php?action_kouhyou_detail_004_kani=true&JigyosyoCd=4470105984-00&ServiceCd=120&Type=search", "url2": "http://www.earthsupport.co.jp" }, "geometry": { "type": "Point", "coordinates": [ 131.658192399999962, 33.241826 ] } },
{ "type": "Feature", "properties": { "内容": "アサヒサンクリーン在宅介護センター大分【訪問入浴介護】870-0108コンフォート三佐104号室", "url": "https://www.kaigokensaku.mhlw.go.jp/44/index.php?action_kouhyou_detail_004_kani=true&JigyosyoCd=4470112238-00&ServiceCd=120&Type=search", "url2": "https://www.asahi-sun-clean.co.jp/search/kyushu_region/ooita_prefectures/%e5%a4%a7%e5%88%86%e5%b8%82/2725/" }, "geometry": { "type": "Point", "coordinates": [ 131.683464, 33.253748600000016 ] } },
{ "type": "Feature", "properties": { "内容": "訪問入浴ステーションflowerNY【訪問入浴介護】大分県大分市高松1丁目2番2号R73番館401", "url": "https://www.kaigokensaku.mhlw.go.jp/44/index.php?action_kouhyou_detail_004_kani=true&JigyosyoCd=4470112279-00&ServiceCd=120&Type=search", "url2": null }, "geometry": { "type": "Point", "coordinates": [ 131.655212799999987, 33.2445107 ] } },
{ "type": "Feature", "properties": { "内容": "セントケア九州株式会社セントケア大分訪問入浴【訪問入浴介護】大分県大分市古国府5丁目1-34古国府事務所　101号", "url": "https://www.kaigokensaku.mhlw.go.jp/44/index.php?action_kouhyou_detail_004_kani=true&JigyosyoCd=4470106958-00&ServiceCd=120&Type=search", "url2": "http：//www.saint-care.com/" }, "geometry": { "type": "Point", "coordinates": [ 131.605727144398429, 33.215471064532515 ] } },
{ "type": "Feature", "properties": { "内容": "大分訪問入浴サービスセンター【訪問入浴介護】大分県大分市大字種具144番地", "url": "https://www.kaigokensaku.mhlw.go.jp/44/index.php?action_kouhyou_detail_004_kani=true&JigyosyoCd=4470101330-00&ServiceCd=120&Type=search", "url2": "https://seiryu-kyousei.org/" }, "geometry": { "type": "Point", "coordinates": [ 131.700080290351906, 33.206332205129058 ] } },
{ "type": "Feature", "properties": { "内容": "創生の里訪問入浴サービス【訪問入浴介護】大分県大分市大字野田３０６番地の２", "url": "https://www.kaigokensaku.mhlw.go.jp/44/index.php?action_kouhyou_detail_004_kani=true&JigyosyoCd=4470101256-00&ServiceCd=120&Type=search", "url2": "http://www.wakakusakai.jp" }, "geometry": { "type": "Point", "coordinates": [ 131.536189700000023, 33.2031772 ] } },
{ "type": "Feature", "properties": { "内容": "健生訪問入浴サービスセンター【訪問入浴介護】大分県大分市大字津留字六本松1970-7", "url": "https://www.kaigokensaku.mhlw.go.jp/44/index.php?action_kouhyou_detail_004_kani=true&JigyosyoCd=4470102551-00&ServiceCd=120&Type=search", "url2": "http://www.oita-min.or.jp/" }, "geometry": { "type": "Point", "coordinates": [ 131.629348179098571, 33.233457809268401 ] } },
{ "type": "Feature", "properties": { "内容": "めいわ訪問入浴サービスセンター【訪問入浴介護】大分県大分市明野北１丁目2番18号", "url": "https://www.kaigokensaku.mhlw.go.jp/44/index.php?action_kouhyou_detail_004_kani=true&JigyosyoCd=4470102304-00&ServiceCd=120&Type=search", "url2": "http://www.meiwa-hp.jp" }, "geometry": { "type": "Point", "coordinates": [ 131.655466, 33.2261328 ] } },
{ "type": "Feature", "properties": { "内容": "訪問入浴サービスセンター一燈園【訪問入浴介護】別府市大字南立石371番地", "url": "https://www.kaigokensaku.mhlw.go.jp/44/index.php?action_kouhyou_detail_004_kani=true&JigyosyoCd=4470200272-00&ServiceCd=120&Type=search", "url2": "http://www.ittouen.or.jp" }, "geometry": { "type": "Point", "coordinates": [ 131.456085073601116, 33.293899351377114 ] } },
{ "type": "Feature", "properties": { "内容": "セントケア別府【訪問入浴介護】大分県別府市石垣西4-5-12九十歩ビル1F", "url": "https://www.kaigokensaku.mhlw.go.jp/44/index.php?action_kouhyou_detail_004_kani=true&JigyosyoCd=4470202336-00&ServiceCd=120&Type=search", "url2": "http://www.saint-care.com/" }, "geometry": { "type": "Point", "coordinates": [ 131.491588800000045, 33.294566 ] } },
{ "type": "Feature", "properties": { "内容": "訪問入浴サービスセンター社協【訪問入浴介護】大分県中津市本耶馬渓町折元1247中津市本耶馬渓総合福祉センター内", "url": "https://www.kaigokensaku.mhlw.go.jp/44/index.php?action_kouhyou_detail_004_kani=true&JigyosyoCd=4473000141-00&ServiceCd=120&Type=search", "url2": "http://www.nakatsu@nakatsu-s.or.jp" }, "geometry": { "type": "Point", "coordinates": [ 131.186180081570484, 33.45665759923385 ] } },
{ "type": "Feature", "properties": { "内容": "佐伯市社協訪問入浴サービスセンター「かまえ」【訪問入浴介護】佐伯市蒲江大字蒲江浦3522番地5旧蒲江町国民健康保険蒲江診療所", "url": "https://www.kaigokensaku.mhlw.go.jp/44/index.php?action_kouhyou_detail_004_kani=true&JigyosyoCd=4472500497-00&ServiceCd=120&Type=search", "url2": "http://www.sashakyo.or.jp/public/index/121" }, "geometry": { "type": "Point", "coordinates": [ 131.923930128857847, 32.802445285718001 ] } },
{ "type": "Feature", "properties": { "内容": "株式会社　サン・ルーム　佐伯営業所【訪問入浴介護】大分県佐伯市鶴岡西町1丁目178番地", "url": "https://www.kaigokensaku.mhlw.go.jp/44/index.php?action_kouhyou_detail_004_kani=true&JigyosyoCd=4470500077-00&ServiceCd=120&Type=search", "url2": "http://care-net.biz/45/sr-8180/index.php" }, "geometry": { "type": "Point", "coordinates": [ 131.868643199999951, 32.9612688 ] } },
{ "type": "Feature", "properties": { "内容": "訪問入浴サービスセンター喫茶去【訪問入浴介護】大分県津久見市大字千怒字新地６２０１喫茶去津久見", "url": "https://www.kaigokensaku.mhlw.go.jp/44/index.php?action_kouhyou_detail_004_kani=true&JigyosyoCd=4470700313-00&ServiceCd=120&Type=search", "url2": "htt://www.kissako.co.jp/" }, "geometry": { "type": "Point", "coordinates": [ 131.888455199999953, 33.0734617 ] } },
{ "type": "Feature", "properties": { "内容": "訪問入浴センター周防苑【訪問入浴介護】大分県豊後高田市臼野4335番地３", "url": "https://www.kaigokensaku.mhlw.go.jp/44/index.php?action_kouhyou_detail_004_kani=true&JigyosyoCd=4470900251-00&ServiceCd=120&Type=search", "url2": "http://www.buntaka-syako.jp" }, "geometry": { "type": "Point", "coordinates": [ 131.476316399999973, 33.6304172 ] } },
{ "type": "Feature", "properties": { "内容": "杵築市山香ヘルパーステーション【訪問入浴介護】大分県杵築市山香町大字野原1612番地の1", "url": "https://www.kaigokensaku.mhlw.go.jp/44/index.php?action_kouhyou_detail_004_kani=true&JigyosyoCd=4472200247-00&ServiceCd=120&Type=search", "url2": "http://www.yamaga-hp.jp" }, "geometry": { "type": "Point", "coordinates": [ 131.508643399999983, 33.445336 ] } },
{ "type": "Feature", "properties": { "内容": "セントケア宇佐【訪問入浴介護】大分県宇佐市大字樋田47パープル樋田1号", "url": "https://www.kaigokensaku.mhlw.go.jp/44/index.php?action_kouhyou_detail_004_kani=true&JigyosyoCd=4471101180-00&ServiceCd=120&Type=search", "url2": "htts://saint-care-kyushu.hp-recruit.jp/" }, "geometry": { "type": "Point", "coordinates": [ 131.3415678, 33.5259196 ] } },
{ "type": "Feature", "properties": { "内容": "株式会社　サン・ルーム　豊肥営業所【訪問入浴介護】大分県豊後大野市三重町赤嶺1682番地", "url": "https://www.kaigokensaku.mhlw.go.jp/44/index.php?action_kouhyou_detail_004_kani=true&JigyosyoCd=4471200719-00&ServiceCd=120&Type=search", "url2": "https://sunroom-kaigo.com/" }, "geometry": { "type": "Point", "coordinates": [ 131.597077077599778, 32.982599269280243 ] } },
{ "type": "Feature", "properties": { "内容": "くにさきケアセンターなのみ　訪問入浴介護事業所【訪問入浴介護】大分県国東市国東町浜崎2757番地5", "url": "https://www.kaigokensaku.mhlw.go.jp/44/index.php?action_kouhyou_detail_004_kani=true&JigyosyoCd=4472100355-00&ServiceCd=120&Type=search", "url2": null }, "geometry": { "type": "Point", "coordinates": [ 131.717507519579385, 33.590007165253631 ] } },
{ "type": "Feature", "properties": { "内容": "ここのえ介護事業センター【訪問入浴介護】大分県玖珠郡九重町大字後野上１７番地の１", "url": "https://www.kaigokensaku.mhlw.go.jp/44/index.php?action_kouhyou_detail_004_kani=true&JigyosyoCd=4472800186-00&ServiceCd=120&Type=search", "url2": "https://kokonoe-syakyo.jp" }, "geometry": { "type": "Point", "coordinates": [ 131.190491699999939, 33.2278241 ] } }
]
}
