{
"type": "FeatureCollection",
"name": "geo_44_短期入所療養介護（介護医療院）",
"crs": { "type": "name", "properties": { "name": "urn:ogc:def:crs:OGC:1.3:CRS84" } },
"features": [
{ "type": "Feature", "properties": { "内容": "介護医療院　菜の花【短期入所療養介護（介護医療院）】大分県大分市生石2丁目1番5号", "url": "https://www.kaigokensaku.mhlw.go.jp/44/index.php?action_kouhyou_detail_004_kani=true&JigyosyoCd=44B0100028-00&ServiceCd=551&Type=search", "url2": null }, "geometry": { "type": "Point", "coordinates": [ 131.5848887, 33.2443464 ] } },
{ "type": "Feature", "properties": { "内容": "ふじみ介護医療院【短期入所療養介護（介護医療院）】大分県別府市北的ヶ浜町5番19号", "url": "https://www.kaigokensaku.mhlw.go.jp/44/index.php?action_kouhyou_detail_004_kani=true&JigyosyoCd=44B0200034-00&ServiceCd=551&Type=search", "url2": "http://www.fujimi.or.jp/" }, "geometry": { "type": "Point", "coordinates": [ 131.5041305, 33.2849861 ] } },
{ "type": "Feature", "properties": { "内容": "浜脇記念病院介護医療院【短期入所療養介護（介護医療院）】浜脇１丁目6-21", "url": "https://www.kaigokensaku.mhlw.go.jp/44/index.php?action_kouhyou_detail_004_kani=true&JigyosyoCd=44B0200042-00&ServiceCd=551&Type=search", "url2": "http://hamawakimho.com" }, "geometry": { "type": "Point", "coordinates": [ 131.510434, 33.2694902 ] } },
{ "type": "Feature", "properties": { "内容": "ヒロセ内科介護医療院【短期入所療養介護（介護医療院）】大分県別府市駅前本町5-23", "url": "https://www.kaigokensaku.mhlw.go.jp/44/index.php?action_kouhyou_detail_004_kani=true&JigyosyoCd=44B0200059-00&ServiceCd=551&Type=search", "url2": "https://www.bec-medicube.com/menu/hirosenaikaiin.html" }, "geometry": { "type": "Point", "coordinates": [ 131.5015527, 33.2809473 ] } },
{ "type": "Feature", "properties": { "内容": "高田中央病院介護医療院【短期入所療養介護（介護医療院）】大分県豊後高田市新地1176番地1", "url": "https://www.kaigokensaku.mhlw.go.jp/44/index.php?action_kouhyou_detail_004_kani=true&JigyosyoCd=44B0900013-00&ServiceCd=551&Type=search", "url2": "https://takachuo.com/" }, "geometry": { "type": "Point", "coordinates": [ 131.4407071, 33.5551669 ] } }
]
}
