{
"type": "FeatureCollection",
"name": "geo_44_大学",
"crs": { "type": "name", "properties": { "name": "urn:ogc:def:crs:EPSG::6668" } },
"features": [
{ "type": "Feature", "properties": { "P29_001": "44201", "P29_002": "F144110111418", "P29_003": "16007", "P29_004": "大分大学", "P29_005": "大分県大分市大字旦野原700", "P29_006": "1", "P29_007": "0", "P29_008": "01", "P29_009": "旦野原キャンパス" }, "geometry": { "type": "Point", "coordinates": [ 131.613173191692624, 33.17573632344218 ] } },
{ "type": "Feature", "properties": { "P29_001": "44201", "P29_002": "F144210111425", "P29_003": "16007", "P29_004": "大分県立看護科学大学", "P29_005": "大分県大分市廻栖野2944-9", "P29_006": "2", "P29_007": "0", "P29_008": "00", "P29_009": null }, "geometry": { "type": "Point", "coordinates": [ 131.543338088033181, 33.17543342814681 ] } },
{ "type": "Feature", "properties": { "P29_001": "44201", "P29_002": "F144310111432", "P29_003": "16007", "P29_004": "日本文理大学", "P29_005": "大分県大分市大字一木1727-162", "P29_006": "4", "P29_007": "0", "P29_008": "00", "P29_009": null }, "geometry": { "type": "Point", "coordinates": [ 131.724510424649054, 33.231446173675138 ] } },
{ "type": "Feature", "properties": { "P29_001": "44202", "P29_002": "F144310111441", "P29_003": "16007", "P29_004": "別府大学", "P29_005": "大分県別府市大字北石垣82", "P29_006": "4", "P29_007": "0", "P29_008": "00", "P29_009": null }, "geometry": { "type": "Point", "coordinates": [ 131.490437951898997, 33.312437945321285 ] } },
{ "type": "Feature", "properties": { "P29_001": "44202", "P29_002": "F144310111450", "P29_003": "16007", "P29_004": "立命館アジア太平洋大学", "P29_005": "大分県別府市十文字原1-1", "P29_006": "4", "P29_007": "0", "P29_008": "00", "P29_009": null }, "geometry": { "type": "Point", "coordinates": [ 131.468325902559144, 33.3371705430948 ] } },
{ "type": "Feature", "properties": { "P29_001": "44202", "P29_002": "F140110110592", "P29_003": "16007", "P29_004": "九州大学", "P29_005": "大分県別府市鶴見字鶴見原4546", "P29_006": "1", "P29_007": "0", "P29_008": "05", "P29_009": "別府キャンパス" }, "geometry": { "type": "Point", "coordinates": [ 131.48015138293249, 33.29355083113586 ] } },
{ "type": "Feature", "properties": { "P29_001": "44213", "P29_002": "F144110111418", "P29_003": "16007", "P29_004": "大分大学", "P29_005": "大分県由布市挾間町医大ヶ丘1-1", "P29_006": "1", "P29_007": "0", "P29_008": "02", "P29_009": "挾間キャンパス" }, "geometry": { "type": "Point", "coordinates": [ 131.535874875389084, 33.210193885840631 ] } },
{ "type": "Feature", "properties": { "P29_001": "44201", "P29_002": "F144110111418", "P29_003": "16007", "P29_004": "大分大学", "P29_005": "大分県大分市王子新町1-1", "P29_006": "1", "P29_007": "0", "P29_008": "03", "P29_009": "王子キャンパス" }, "geometry": { "type": "Point", "coordinates": [ 131.590956047569449, 33.238502615264913 ] } }
]
}
